code,name,campus,location_name,address,lon,lat,city,town,education_stage
10303,市立泰山高中,校本部校區,市立泰山高中_校本部校區,新北市泰山區辭修路7號,121.429863,25.05771828,新北市,泰山區,高中職
10304,國立板橋高中,校本部校區,國立板橋高中_校本部校區,新北市板橋區文化路1段25號,121.4590988,25.01168442,新北市,板橋區,高中職
10335,市立新店高中,校本部校區,市立新店高中_校本部校區,新北市新店區中央路93號,121.5318146,24.97561073,新北市,新店區,高中職
10336,市立中和高中,校本部校區,市立中和高中_校本部校區,新北市中和區連城路460號,121.4783478,24.99398613,新北市,中和區,高中職
10337,新北市立新莊高中,校本部校區,新北市立新莊高中_校本部校區,新北市新莊區中平路135號,121.4446564,25.04818344,新北市,新莊區,高中職
10339,市立林口高中,林口校區,市立林口高中_林口校區,新北市林口區仁愛路二段173號,121.3810043,25.07363892,新北市,林口區,高中職
10402,新北市立瑞芳高工,校本部校區,新北市立瑞芳高工_校本部校區,新北市瑞芳區瑞芳街60號,121.8037033,25.11042786,新北市,瑞芳區,高中職
10430,新北市立三重高級商工職業學校,校本部校區,新北市立三重高級商工職業學校_校本部校區,新北市三重區中正北路163號,121.480072,25.06964874,新北市,三重區,高中職
10433,新北市立新北高級工業職業學校,校本部校區,新北市立新北高級工業職業學校_校本部校區,新北市土城區學府路一段241號,121.4503784,24.98330688,新北市,土城區,高中職
10434,國立淡水商工,校本部校區,國立淡水商工_校本部校區,251 新北市淡水區商工路307號,121.4540253,25.18675995,新北市,淡水區,高中職
010B03,國立泰山高中進修學校,,國立泰山高中進修學校_,新北市泰山區辭修路7號,121.4294739,25.05677414,新北市,泰山區,高中職
010C02,國立瑞芳高工進修學校,,國立瑞芳高工進修學校_,新北市瑞芳區瑞芳街60號,121.8037567,25.11111069,新北市,瑞芳區,高中職
010C30,國立三重商工進修學校,,國立三重商工進修學校_,新北市三重區中正北路163號,121.4812851,25.06927109,新北市,三重區,高中職
010C33,國立海山高工進修學校,,國立海山高工進修學校_,新北市土城區學府路一段241號,121.4513397,24.98221779,新北市,土城區,高中職
010C34,國立淡水商工進修學校,,國立淡水商工進修學校_,新北市淡水區商工路307號,121.4531403,25.18826866,新北市,淡水區,高中職
11301,私立淡江高中,校本部校區,私立淡江高中_校本部校區,新北市淡水區真理街26號,121.4358292,25.17506027,新北市,淡水區,高中職
11302,財團法人康橋實驗高中,校本部校區,財團法人康橋實驗高中_校本部校區,新北市新店區華城路800號,121.4979248,24.91058159,新北市,新店區,高中職
11306,私立金陵女中,校本部校區,私立金陵女中_校本部校區,新北市三重區重新路五段656號,121.4666901,25.04217339,新北市,三重區,高中職
11307,新北市私立裕德高級中等學校,校本部校區,新北市私立裕德高級中等學校_校本部校區,新北市土城區擺接堡路1號,121.4395846,24.98297706,新北市,土城區,高中職
11309,財團法人南山高中,校本部校區,財團法人南山高中_校本部校區,新北市中和區廣福路41號,121.5034485,25.00162888,新北市,中和區,高中職
11310,財團法人恆毅高中,校本部校區,財團法人恆毅高中_校本部校區,新北市新莊區中正路108號,121.4537582,25.03655434,新北市,新莊區,高中職
11311,私立聖心女中,校本部校區,私立聖心女中_校本部校區,新北市八里區龍米路一段263號,121.4495621,25.1348114,新北市,八里區,高中職
11312,私立崇義高中,校本部校區,私立崇義高中_校本部校區,新北市汐止區大同路三段68號,121.6691895,25.07693672,新北市,汐止區,高中職
11314,財團法人中華高中,校本部校區,財團法人中華高中_校本部校區,新北市土城區城林路2號,121.437439,24.97562599,新北市,土城區,高中職
11315,私立東海高中,校本部校區,私立東海高中_校本部校區,新北市三重區忠孝路三段93巷12號,121.4785843,25.0645504,新北市,三重區,高中職
11316,私立格致高中,校本部校區,私立格致高中_校本部校區,新北市三重區大智街260號,121.4887238,25.07383919,新北市,三重區,高中職
11317,私立醒吾高中,校本部校區,私立醒吾高中_校本部校區,新北市林口區粉寮路一段75巷80號,121.3957825,25.07957077,新北市,林口區,高中職
11318,私立徐匯高中,蘆洲校區,私立徐匯高中_蘆洲校區,新北市蘆洲區中山一路一號,121.4799728,25.08026695,新北市,蘆洲區,高中職
11322,財團法人崇光女中,19號校區,財團法人崇光女中_19號校區,新北市新店區三民路18號,121.5399857,24.9713459,新北市,新店區,高中職
11322,財團法人崇光女中,18號校區,財團法人崇光女中_18號校區,新北市新店區三民路18號,121.5390701,24.97176933,新北市,新店區,高中職
11323,私立光仁高中,校本部校區,私立光仁高中_校本部校區,新北市板橋區中山北路2段255巷18號,121.4757767,25.01841354,新北市,板橋區,高中職
11324,私立竹林高中,校本部校區,私立竹林高中_校本部校區,新北市中和區華新街143巷12號,121.5060043,24.97992134,新北市,中和區,高中職
11325,私立及人高中,校本部校區,私立及人高中_校本部校區,新北市新店區安興路1號,121.5148773,24.96628571,新北市,新店區,高中職
11399,私立時雨高中,校本部校區,私立時雨高中_校本部校區,新北市瑞芳區銅山里祈堂路217號,121.8549376,25.10943314,新北市,瑞芳區,高中職
11405,財團法人樹人家商,教學大樓、餐飲大樓、資訊大樓校區,財團法人樹人家商_教學大樓、餐飲大樓、資訊大樓校區,新北市樹林區大安路216號,121.4192505,24.99436378,新北市,樹林區,高中職
11405,財團法人樹人家商,綜合大樓校區,財團法人樹人家商_綜合大樓校區,新北市樹林區大安路216號,121.4202347,24.99499893,新北市,樹林區,高中職
11407,私立復興商工,校本部校區,私立復興商工_校本部校區,新北市永和區秀朗路一段201號,121.5185928,25.00349236,新北市,永和區,高中職
11408,私立南強工商,校本部校區,私立南強工商_校本部校區,新北市新店區文化路42號,121.5448456,24.98086739,新北市,新店區,高中職
11413,私立穀保家商,校本部校區,私立穀保家商_校本部校區,新北市三重區中正北路560巷38號,121.4711456,25.06970978,新北市,三重區,高中職
11419,私立開明工商,校本部校區,私立開明工商_校本部校區,新北市新店區寶中路49號,121.5462265,24.98000145,新北市,新店區,高中職
11420,私立智光商工,校本部校區,私立智光商工_校本部校區,新北市永和區中正路100號,121.5142746,24.99568748,新北市,永和區,高中職
11421,私立清傳高商,校本部校區,私立清傳高商_校本部校區,新北市三重區五谷王北街141巷1號,121.4768677,25.05203629,新北市,三重區,高中職
11426,私立能仁家商,校本部校區,私立能仁家商_校本部校區,新北市新店區文中路53巷10號,121.5407257,24.95838356,新北市,新店區,高中職
11427,私立豫章工商,豫章校區,私立豫章工商_豫章校區,新北市板橋區四川路一段391號,121.4590149,24.99717331,新北市,板橋區,高中職
11431,私立莊敬工家,校本部東校區,私立莊敬工家_校本部東校區,新北市新店區民生路45號,121.5322342,24.98575401,新北市,新店區,高中職
11431,私立莊敬工家,演藝影視西校區,私立莊敬工家_演藝影視西校區,新北市新店區民生路45號,121.5316696,24.98623466,新北市,新店區,高中職
11432,私立中華商海,校本部校區,私立中華商海_校本部校區,新北市萬里區瑪鍊路15號,121.6852188,25.17809868,新北市,萬里區,高中職
011B12,私立崇義高中進修學校,,私立崇義高中進修學校_,新北市汐止區大同路三段68號,121.6690063,25.07688713,新北市,汐止區,高中職
011B14,私立中華高中進修學校,,私立中華高中進修學校_,新北市土城區城林路2號,121.4379196,24.9759922,新北市,土城區,高中職
011B15,私立東海高中進修學校,,私立東海高中進修學校_,新北市三重區忠孝路三段93巷12號,121.4783096,25.06460571,新北市,三重區,高中職
011B16,私立格致高中進修學校,,私立格致高中進修學校_,新北市三重區大智街260號,121.4884262,25.0735836,新北市,三重區,高中職
011C05,私立樹人家商進修學校,,私立樹人家商進修學校_,新北市樹林區大安路216號,121.4192276,24.99438667,新北市,樹林區,高中職
011C05,私立樹人家商進修學校,教學大樓、資訊大樓、餐飲大樓,私立樹人家商進修學校_教學大樓、資訊大樓、餐飲大樓,新北市樹林區大安路216號,121.4192276,24.99438667,新北市,樹林區,高中職
011C05,私立樹人家商進修學校,教學大樓、餐飲大樓、資訊大樓,私立樹人家商進修學校_教學大樓、餐飲大樓、資訊大樓,新北市樹林區大安路216號,121.4192276,24.99438667,新北市,樹林區,高中職
011C07,私立復興商工進修學校,,私立復興商工進修學校_,新北市永和區秀朗路一段201號,121.5188065,25.00338554,新北市,永和區,高中職
011C08,私立南強工商進修學校,,私立南強工商進修學校_,新北市新店區文化路42號,121.5455399,24.98093605,新北市,新店區,高中職
011C13,私立穀保家商進修學校,,私立穀保家商進修學校_,新北市三重區中正北路560巷38號,121.4716797,25.06894112,新北市,三重區,高中職
011C19,私立開明工商進修學校,,私立開明工商進修學校_,新北市新店區寶中路49號,121.5461197,24.98010445,新北市,新店區,高中職
011C20,私立智光商工進修學校,,私立智光商工進修學校_,新北市永和區中正路100號,121.5144577,24.99471664,新北市,永和區,高中職
011C21,私立清傳高商進修學校,,私立清傳高商進修學校_,新北市三重區五谷王北街141巷1號,121.4769211,25.05179977,新北市,三重區,高中職
011C26,私立能仁家商進修學校,,私立能仁家商進修學校_,新北市新店區文中路53巷10號,121.5410614,24.95843697,新北市,新店區,高中職
011C27,私立豫章工商進修學校,,私立豫章工商進修學校_,新北市板橋區四川路一段391號,121.4591217,24.99716377,新北市,板橋區,高中職
011C31,私立莊敬工家進修學校,,私立莊敬工家進修學校_,新北市新店區民生路45號,121.5323639,24.98555183,新北市,新店區,高中職
011C71,私立光華高商進修學校,本校區,私立光華高商進修學校_本校區,新北市板橋區南雅南路二段40號,121.4522171,24.99674034,新北市,板橋區,高中職
011C71,私立光華高商進修學校,第二校區,私立光華高商進修學校_第二校區,新北市板橋區南雅南路二段40號,121.454628,25.00315094,新北市,板橋區,高中職
011C71,私立光華高商進修學校,私立光華高商進修學校,私立光華高商進修學校_私立光華高商進修學校,新北市板橋區南雅南路二段40號,121.4522171,24.99674034,新北市,板橋區,高中職
011C71,私立光華高商進修學校,私立光華高商進修學校校本部,私立光華高商進修學校_私立光華高商進修學校校本部,新北市板橋區南雅南路二段40號,121.4522171,24.99674034,新北市,板橋區,高中職
011C71,私立光華高商進修學校,私立光華高商進修學校校本部,私立光華高商進修學校_私立光華高商進修學校校本部,新北市板橋區南雅南路二段40號,121.4522171,24.99674034,新北市,板橋區,高中職
011C71,私立光華高商進修學校,私立光華高商進修學校校本部,私立光華高商進修學校_私立光華高商進修學校校本部,新北市板橋區南雅南路二段40號,121.4522171,24.99674034,新北市,板橋區,高中職
13303,市立泰山高中,校本部校區,市立泰山高中_校本部校區,新北市泰山區辭修路7號,121.4298665,25.05771869,新北市,泰山區,高中職
13304,市立板橋高中,校本部校區,市立板橋高中_校本部校區,新北市板橋區文化路一段25號,121.4590997,25.01168438,新北市,板橋區,高中職
13335,市立新店高中,校本部校區,市立新店高中_校本部校區,新北市新店區中央路93號,121.5318132,24.9756115,新北市,新店區,高中職
13336,市立中和高中,校本部校區,市立中和高中_校本部校區,新北市中和區連城路460號,121.4783441,24.9939853,新北市,中和區,高中職
13337,市立新莊高中,校本部校區,市立新莊高中_校本部校區,新北市新莊區中平路135號,121.4446584,25.04818434,新北市,新莊區,高中職
13338,市立新北高中,校本部校區,市立新北高中_校本部校區,新北市三重區三信路1號,121.491127,25.08551979,新北市,三重區,高中職
13339,市立林口高中,校本部校區,市立林口高中_校本部校區,新北市林口區仁愛路二段173號,121.3810016,25.07363848,新北市,林口區,高中職
13402,市立瑞芳高工,校本部校區,市立瑞芳高工_校本部校區,新北市瑞芳區瑞芳街60號,121.8047067,25.11072481,新北市,瑞芳區,高中職
13430,市立三重商工,校本部校區,市立三重商工_校本部校區,新北市三重區中正北路163號,121.480073,25.06964853,新北市,三重區,高中職
13433,市立新北高工,校本部校區,市立新北高工_校本部校區,新北市土城區學府路一段241號,121.4503803,24.98330752,新北市,土城區,高中職
13434,市立淡水商工,校本部校區,市立淡水商工_校本部校區,新北市淡水區商工路307號,121.4540261,25.18675959,新北市,淡水區,高中職
14302,市立海山高中,校本部校區,市立海山高中_校本部校區,新北市板橋區漢生東路215號,121.4708862,25.01015282,新北市,板橋區,高中職
14311,市立三重高中,校本部校區,市立三重高中_校本部校區,新北市三重區集美街212號,121.4914703,25.05469322,新北市,三重區,高中職
14315,市立永平高中,校本部校區,市立永平高中_校本部校區,新北市永和區永平路205號,121.5086288,25.01075172,新北市,永和區,高中職
14322,市立樹林高中,校本部校區,市立樹林高中_校本部校區,新北市樹林區中華路8號,121.421875,24.98395538,新北市,樹林區,高中職
14326,市立明德高中,校本部校區,市立明德高中_校本部校區,新北市三峽區中正路二段399號,121.3639069,24.90693283,新北市,三峽區,高中職
14332,市立秀峰高中,校本部校區,市立秀峰高中_校本部校區,新北市汐止區忠孝東路201號,121.6600876,25.06563377,新北市,汐止區,高中職
14338,市立金山高中,校本部校區,市立金山高中_校本部校區,新北市金山區美田里文化二路2號,121.6369324,25.2246685,新北市,金山區,高中職
14343,市立安康高中,校本部校區,市立安康高中_校本部校區,新北市新店區安興路25號,121.5149307,24.96881104,新北市,新店區,高中職
14347,市立雙溪高中,校本部校區,市立雙溪高中_校本部校區,新北市雙溪區梅竹蹊3號,121.8631592,25.03493118,新北市,雙溪區,高中職
14353,市立丹鳳高中,校本部校區,市立丹鳳高中_校本部校區,新北市新莊區龍安路72號,121.4161682,25.02120018,新北市,新莊區,高中職
14356,市立清水高中,校本部校區,市立清水高中_校本部校區,新北市土城區明德路一段72號,121.4652328,24.98252106,新北市,土城區,高中職
14357,市立三民高中,校本部校區,市立三民高中_校本部校區,新北市蘆洲區三民路96號,121.4723282,25.08663368,新北市,蘆洲區,高中職
14362,市立錦和高中,校本部校區,市立錦和高中_校本部校區,新北市中和區錦和路163號,121.4910889,24.99254036,新北市,中和區,高中職
14363,市立光復高中,校本部校區,市立光復高中_校本部校區,新北市板橋區光環路一段7號,121.4822293,25.01660956,新北市,板橋區,高中職
14364,市立竹圍高中,校本部校區,市立竹圍高中_校本部校區,新北市淡水區竹林路35號,121.4616394,25.14604568,新北市,淡水區,高中職
14439,市立鶯歌工商,校本部校區,市立鶯歌工商_校本部校區,新北市鶯歌區中正三路154號,121.3350067,24.93928528,新北市,鶯歌區,高中職
14468,市立樟樹實中,校本部校區,市立樟樹實中_校本部校區,新北市汐止區樟樹二路135號,121.6397042,25.0658264,新北市,汐止區,高中職
14563,市立光復高中,校本部校區,市立光復高中_校本部校區,新北市板橋區光環路一段7號,121.4828339,25.01657295,新北市,板橋區,高中職
014B02,縣立海山高中進修學校,,縣立海山高中進修學校_,新北市板橋區漢生東路215號,121.4715652,25.01049423,新北市,板橋區,高中職
014B11,縣立三重高中進修學校,,縣立三重高中進修學校_,新北市三重區集美街212號,121.4902573,25.08729935,新北市,三重區,高中職
014B15,縣立永平高中進修學校,,縣立永平高中進修學校_,新北市永和區永平路205號,121.5079498,25.01060867,新北市,永和區,高中職
014B22,縣立樹林高中進修學校,,縣立樹林高中進修學校_,新北市樹林區中華路8號,121.4220886,24.9834671,新北市,樹林區,高中職
014B32,縣立秀峰高中進修學校,,縣立秀峰高中進修學校_,新北市汐止區忠孝東路201號,121.6597824,25.06604958,新北市,汐止區,高中職
014B43,縣立安康高中進修學校,,縣立安康高中進修學校_,新北市新店區安興路25號,121.5141678,24.96930122,新北市,新店區,高中職
014B56,縣立清水高中進修學校,,縣立清水高中進修學校_,新北市土城區明德路一段72號,121.4651718,24.98196793,新北市,土城區,高中職
014B57,縣立三民高中進修學校,,縣立三民高中進修學校_,新北市蘆洲區三民路96號,121.4730072,25.08599281,新北市,蘆洲區,高中職
014B62,縣立錦和高中進修學校,,縣立錦和高中進修學校_,新北市中和區錦和路163號,121.4916458,24.99266243,新北市,中和區,高中職
014C39,縣立鶯歌工商進修學校,,縣立鶯歌工商進修學校_,新北市鶯歌區中正三路154號,121.335289,24.93991089,新北市,鶯歌區,高中職
20301,國立蘭陽女中,校本部校區,國立蘭陽女中_校本部校區,宜蘭縣宜蘭市女中路2段355號,121.75354,24.74505424,宜蘭縣,宜蘭市,高中職
20302,國立宜蘭高中,校本部校區,國立宜蘭高中_校本部校區,宜蘭縣宜蘭市復興路三段8號,121.7429733,24.75170135,宜蘭縣,宜蘭市,高中職
20308,國立羅東高中,校本部校區,國立羅東高中_校本部校區,宜蘭縣羅東鎮公正路324號,121.7620621,24.68069839,宜蘭縣,羅東鎮,高中職
20403,國立宜蘭高商,校本部校區,國立宜蘭高商_校本部校區,宜蘭市延平路50號,121.7654953,24.75489235,宜蘭縣,宜蘭市,高中職
20404,國立羅東高商,校本部校區,國立羅東高商_校本部校區,宜蘭縣羅東鎮中山路四段360號,121.7571335,24.6728096,宜蘭縣,羅東鎮,高中職
20405,國立蘇澳海事,校本部校區,國立蘇澳海事_校本部校區,宜蘭縣蘇澳鎮蘇港路213號,121.8456039,24.59414101,宜蘭縣,蘇澳鎮,高中職
20407,國立羅東高工,校本部校區,國立羅東高工_校本部校區,宜蘭縣冬山鄉廣興路117號,121.7510681,24.67027283,宜蘭縣,冬山鄉,高中職
20409,國立頭城家商,校本部校區,國立頭城家商_校本部校區,宜蘭縣頭城鎮新興路111號,121.8170395,24.85128212,宜蘭縣,頭城鎮,高中職
020C01,國立宜蘭大學高工進校,,國立宜蘭大學高工進校_,宜蘭縣宜蘭市神農路1號,121.748085,24.74529648,宜蘭縣,宜蘭市,高中職
020C03,國立宜蘭高商進修學校,,國立宜蘭高商進修學校_,宜蘭縣宜蘭市延平路50號,121.765419,24.75510788,宜蘭縣,宜蘭市,高中職
020C04,國立羅東高商進修學校,,國立羅東高商進修學校_,宜蘭縣羅東鎮中山路4段360號,121.7567902,24.67430305,宜蘭縣,羅東鎮,高中職
020C05,國立蘇澳海事進修學校,,國立蘇澳海事進修學校_,宜蘭縣蘇澳鎮蘇港路213號,121.8442841,24.59308052,宜蘭縣,蘇澳鎮,高中職
020C07,國立羅東高工進修學校,,國立羅東高工進修學校_,宜蘭縣冬山鄉廣興路117號,121.7508926,24.66902542,宜蘭縣,冬山鄉,高中職
020C09,國立頭城家商進修學校,,國立頭城家商進修學校_,宜蘭縣頭城鎮新興路111號,121.8164215,24.85083389,宜蘭縣,頭城鎮,高中職
21301,私立慧燈高中,校本部校區,私立慧燈高中_校本部校區,宜蘭縣員山鄉枕山村枕山路117-60號,121.7155457,24.7765522,宜蘭縣,員山鄉,高中職
21310,私立中道高中,校本部校區,私立中道高中_校本部校區,宜蘭縣壯圍鄉中央路三段312巷7號,121.7937393,24.75936699,宜蘭縣,壯圍鄉,高中職
24322,縣立南澳高中,校本部校區,縣立南澳高中_校本部校區,272宜蘭縣南澳鄉蘇花路2段301號,121.8008041,24.46597099,宜蘭縣,南澳鄉,高中職
24325,縣立慈心華德福實中,校本部校區,縣立慈心華德福實中_校本部校區,宜蘭縣冬山鄉照安路257號,121.7949858,24.62630466,宜蘭縣,冬山鄉,高中職
24699,縣立慈心華德福高中,校本部校區,縣立慈心華德福高中_校本部校區,宜蘭縣冬山鄉香和村照安路257號,121.7949295,24.62630463,宜蘭縣,冬山鄉,高中職
30302,國立龍潭高中,校本部校區,國立龍潭高中_校本部校區,桃園市龍潭區神龍路155號,121.2130869,24.86147318,桃園市,龍潭區,高中職
30304,國立桃園高中,校本部校區,國立桃園高中_校本部校區,桃園區桃園市成功路三段38號,121.326416,24.99934006,桃園市,桃園區,高中職
30305,國立中壢高中,校本部校區,國立中壢高中_校本部校區,中壢市三光路115號,121.21064,24.96133423,桃園市,中壢區,高中職
30306,國立武陵高中,校本部校區,國立武陵高中_校本部校區,桃園縣桃園市中山路889號,121.2856369,24.98822403,桃園市,桃園區,高中職
30316,國立楊梅高中,校本部校區,國立楊梅高中_校本部校區,桃園縣楊梅市高獅路5號,121.1487122,24.92137146,桃園市,楊梅區,高中職
30325,國立陽明高中,校本部校區,國立陽明高中_校本部校區,桃園市桃園區德壽街8號,121.3036499,24.9815197,桃園市,桃園區,高中職
30325,國立陽明高中,,國立陽明高中_,桃園市桃園區德壽街8號,121.3032227,24.98033714,桃園市,桃園區,高中職
30327,國立內壢高中,校本部校區,國立內壢高中_校本部校區,桃園市中壢區成章四街120號,121.2564087,24.9781723,桃園市,中壢區,高中職
30402,國立龍潭農工,校本部校區,國立龍潭農工_校本部校區,桃園縣325龍潭鄉神龍路155號,121.213089,24.86147308,桃園市,龍潭區,高中職
30402,國立龍潭農工,鴻福農場校區,國立龍潭農工_鴻福農場校區,桃園縣325龍潭鄉神龍路155號,121.217598,24.85852242,桃園市,龍潭區,高中職
30402,國立龍潭農工,清德牧場校區,國立龍潭農工_清德牧場校區,桃園縣325龍潭鄉神龍路155號,121.2323837,24.83536911,桃園市,龍潭區,高中職
30403,國立桃園農工,校本部校區,國立桃園農工_校本部校區,桃園市成功路二段144號,121.3206558,24.99385262,桃園市,桃園區,高中職
30407,國立中壢高商,校本部校區,國立中壢高商_校本部校區,中壢市中央西路2段141巷100號,121.2148132,24.96230698,桃園市,中壢區,高中職
30408,國立中壢家商,校本部校區,國立中壢家商_校本部校區,桃園市中壢區德育路36號,121.2200928,24.95299339,桃園市,中壢區,高中職
030C02,國立龍潭農工進修學校,,國立龍潭農工進修學校_,桃園縣龍潭鄉神龍路155號,121.2136993,24.86177635,桃園市,龍潭區,高中職
030C03,國立桃園農工進修學校,,國立桃園農工進修學校_,桃園市成功路二段144號,121.320816,24.99396706,桃園市,桃園區,高中職
030C07,國立中壢高商進修學校,,國立中壢高商進修學校_,桃園縣中壢市中央西路二段141巷100號,121.2140656,24.96335411,桃園市,中壢區,高中職
030C08,國立中壢家商進修學校,,國立中壢家商進修學校_,桃園縣中壢市德育路36號,121.2195053,24.95241356,桃園市,中壢區,高中職
030G92,國立桃園農工進校分校,進校校區,國立桃園農工進校分校_進校校區,桃園市向善街98號,121.3128357,25.01836777,桃園市,桃園區,高中職
31301,泉僑學校財團法人桃園市漢英高級中等學校,校本部校區,泉僑學校財團法人桃園市漢英高級中等學校_校本部校區,桃園縣龍潭鄉中正路佳安段448號,121.2448044,24.84742165,桃園市,龍潭區,高中職
31309,桃園市育達高級中等學校,校本部校區,桃園市育達高級中等學校_校本部校區,桃園市平鎮區育達路160號,121.2091675,24.9522934,桃園市,平鎮區,高中職
31310,私立六和高中,校本部校區,私立六和高中_校本部校區,桃園市平鎮區陸光路180號,121.1852493,24.94544601,桃園市,平鎮區,高中職
31311,私立復旦高中,校本部校區,私立復旦高中_校本部校區,324  桃園市平鎮區復旦路二段122號,121.2025375,24.94851303,桃園市,平鎮區,高中職
31312,私立治平高中,校本部校區,私立治平高中_校本部校區,桃園市楊梅區中興路137號,121.1872101,24.91595078,桃園市,楊梅區,高中職
31313,私立振聲高中,校本部校區,私立振聲高中_校本部校區,桃園縣桃園市復興路439號,121.3014603,24.99063301,桃園市,桃園區,高中職
31317,私立光啟高中,校本部校區,私立光啟高中_校本部校區,桃園縣龜山鄉自由街40號,121.4028549,25.01980209,桃園市,龜山區,高中職
31318,私立啟英高中,校本部校區,私立啟英高中_校本部校區,桃園縣中壢市中園路447號,121.2352676,24.97509766,桃園市,中壢區,高中職
31319,私立清華高中,校本部校區,私立清華高中_校本部校區,桃園市新屋區中華路658號,121.107872,24.98129463,桃園市,新屋區,高中職
31320,私立新興高中,校本部校區,私立新興高中_校本部校區,桃園市八德區永豐路563號,121.2717209,24.97512627,桃園市,八德區,高中職
31324,大興學校財團法人桃園市大興高級中等學校,校本部校區,大興學校財團法人桃園市大興高級中等學校_校本部校區,桃園市大園區永興路142號,121.1924667,25.0619545,桃園市,大園區,高中職
31324,大興學校財團法人桃園市大興高級中等學校,校本部校區,大興學校財團法人桃園市大興高級中等學校_校本部校區,桃園市大園區永興路142號,121.1926117,25.06198883,桃園市,大園區,高中職
31326,私立大華高中,校本部校區,私立大華高中_校本部校區,桃園市楊梅區三民路二段200號,121.1743386,24.88257639,桃園市,楊梅區,高中職
31414,私立成功工商,校本部校區,私立成功工商_校本部校區,桃園市龜山區新興里明德路162巷100號,121.3409424,24.98894501,桃園市,龜山區,高中職
31415,私立方曙商工,校本部校區,私立方曙商工_校本部校區,桃園縣龍潭鄉上林村中原路一段50號,121.2009277,24.85726929,桃園市,龍潭區,高中職
31421,私立永平工商,校本部校區,私立永平工商_校本部校區,桃園縣楊梅市(埔心)永平路480號,121.1738815,24.91947746,桃園市,楊梅區,高中職
031B09,私立育達高中進修學校,,私立育達高中進修學校_,桃園縣平鎮市育達路160號,121.2085037,24.95188713,桃園市,平鎮區,高中職
031B11,私立復旦高中進修學校,,私立復旦高中進修學校_,桃園縣平鎮市復旦路二段122號,121.2027893,24.94888115,桃園市,平鎮區,高中職
031B12,私立治平高中進修學校,,私立治平高中進修學校_,桃園縣楊梅市埔心中興路137號,121.188118,24.91588211,桃園市,楊梅區,高中職
031B13,私立振聲高中進修學校,,私立振聲高中進修學校_,桃園縣桃園市復興路439號,121.3016739,24.99013519,桃園市,桃園區,高中職
031B17,私立光啟高中進修學校,,私立光啟高中進修學校_,桃園縣龜山鄉自由街40號,121.4033356,25.01966095,桃園市,龜山區,高中職
031B18,私立啟英高中進修學校,,私立啟英高中進修學校_,桃園縣中壢市中園路447號,121.2354736,24.97491455,桃園市,中壢區,高中職
031B19,私立清華高中進修學校,,私立清華高中進修學校_,桃園縣新屋鄉中華路658號,121.1083908,24.98188782,桃園市,新屋區,高中職
031B20,私立新興高中進修學校,,私立新興高中進修學校_,桃園縣八德市永豐路563號,121.271431,24.97363472,桃園市,八德區,高中職
031B23,私立至善高中進修學校,,私立至善高中進修學校_,桃園縣大溪鎮康莊路645號,121.2855072,24.86696625,桃園市,大溪區,高中職
031B24,私立大興高中進修學校,,私立大興高中進修學校_,桃園縣大園鄉永興路142號,121.1913986,25.06121635,桃園市,大園區,高中職
031C14,私立成功工商進修學校,,私立成功工商進修學校_,桃園縣龜山鄉新興村明德路162巷100號,121.3413925,24.9882164,桃園市,龜山區,高中職
031C15,私立方曙工家進修學校,,私立方曙工家進修學校_,桃園縣龍潭鄉上林村中原路一段50號,121.2007599,24.85757828,桃園市,龍潭區,高中職
031C21,私立永平工商進修學校,,私立永平工商進修學校_,桃園縣楊梅市(埔心)永平路480號,121.1748505,24.91935158,桃園市,楊梅區,高中職
031G91,私立宏德高商進修學校,校本部校區,私立宏德高商進修學校_校本部校區,桃園縣龜山鄉宏德新村2號,121.3313065,24.98000908,桃園市,龜山區,高中職
34306,市立南崁高中,校本部校區,市立南崁高中_校本部校區,桃園縣蘆竹鄉五福村仁愛路2段1號,121.2975845,25.0524559,桃園市,蘆竹區,高中職
34312,市立大溪高中,校本部校區,市立大溪高中_校本部校區,桃園市大溪區康莊路641號,121.2849884,24.86905289,桃園市,大溪區,高中職
34314,市立壽山高中,校本部校區,市立壽山高中_校本部校區,桃園市龜山區大同路23號,121.3409576,24.9948082,桃園市,龜山區,高中職
34319,市立平鎮高中,校本部校區,市立平鎮高中_校本部校區,平鎮區環南路三段100號,121.2190628,24.93951035,桃園市,平鎮區,高中職
34332,市立觀音高中,校本部校區,市立觀音高中_校本部校區,桃園縣觀音鄉中山路二段519號,121.1336212,25.01568794,桃園市,觀音區,高中職
34335,市立新屋高級中等學校,校本部校區,市立新屋高級中等學校_校本部校區,桃園市新屋區中興路111號,121.1018337,24.97009937,桃園市,新屋區,高中職
34347,市立永豐高中,校本部校區,市立永豐高中_校本部校區,桃園縣八德市永豐路609號,121.2692719,24.97495079,桃園市,八德區,高中職
34399,市立大園國際高中,校本部校區,市立大園國際高中_校本部校區,桃園市大園區橫峰里大成路二段8號,121.2205582,25.02166748,桃園市,大園區,高中職
34535,桃園市立新屋高級中等學校,校本部校區,桃園市立新屋高級中等學校_校本部校區,桃園市新屋區中興路111號,121.1018372,24.9700985,桃園市,新屋區,高中職
40302,國立竹東高中,校本部校區,國立竹東高中_校本部校區,新竹縣竹東鎮大林路2號,121.0868301,24.73256683,新竹縣,竹東鎮,高中職
40304,國立關西高中,校本部校區,國立關西高中_校本部校區,新竹縣關西鎮東安里中山東路2號,121.1854477,24.79002571,新竹縣,關西鎮,高中職
40308,國立竹北高中,校本部校區,國立竹北高中_校本部校區,新竹縣竹北市中央路3號,121.0041199,24.83696365,新竹縣,竹北市,高中職
040B02,國立竹東高中進修學校,,國立竹東高中進修學校_,新竹縣竹東鎮大林路2號,121.0867844,24.73169327,新竹縣,竹東鎮,高中職
41303,私立義民高中,校本部校區,私立義民高中_校本部校區,302新竹縣竹北市中正西路十五號,121.003624,24.83737564,新竹縣,竹北市,高中職
41305,私立忠信高中,校本部校區,私立忠信高中_校本部校區,新竹縣新豐鄉忠信街178號,121.0022278,24.88139915,新竹縣,新豐鄉,高中職
41306,私立東泰高中,校本部校區,私立東泰高中_校本部校區,新竹縣竹東鎮東峰路343號,121.0987778,24.71131325,新竹縣,竹東鎮,高中職
41307,私立仰德高中,校本部校區,私立仰德高中_校本部校區,新竹縣新豐鄉員山村133號,121.0046997,24.88161659,新竹縣,新豐鄉,高中職
41401,私立內思高級工業職業學校,校本部校區,私立內思高級工業職業學校_校本部校區,新竹縣新埔鎮楊新路一段40號,121.0819855,24.82825661,新竹縣,新埔鎮,高中職
041B03,私立義民高中進修學校,,私立義民高中進修學校_,新竹縣竹北市中正西路15號,121.0039597,24.83779716,新竹縣,竹北市,高中職
041B05,私立忠信高中進修學校,,私立忠信高中進修學校_,新竹縣新豐鄉忠信街178號,121.0018768,24.88107872,新竹縣,新豐鄉,高中職
041B06,私立東泰高中進修學校,,私立東泰高中進修學校_,新竹縣竹東鎮東峰路343號,121.098259,24.71418953,新竹縣,竹東鎮,高中職
041B07,私立仰德高中進修學校,,私立仰德高中進修學校_,新竹縣新豐鄉員山村133號,121.0051956,24.88158989,新竹縣,新豐鄉,高中職
041C01,私立內思高工進修學校,,私立內思高工進修學校_,新竹縣新埔鎮楊新路一段40號,121.0825043,24.82866478,新竹縣,新埔鎮,高中職
44320,縣立湖口高中,校本部校區,縣立湖口高中_校本部校區,新竹縣,121.0536346,24.89044762,新竹縣,湖口鄉,高中職
50303,國立苗栗高中,校本部校區,國立苗栗高中_校本部校區,苗栗縣苗栗市至公路183號,120.8160172,24.55904007,苗栗縣,苗栗市,高中職
50310,國立竹南高中,校本部校區,國立竹南高中_校本部校區,苗栗縣竹南鎮中正路98號,120.8741455,24.68523407,苗栗縣,竹南鎮,高中職
50314,國立卓蘭高級中等學校,校本部校區,國立卓蘭高級中等學校_校本部校區,苗栗縣卓蘭鎮老庄里161號,120.8319244,24.3128376,苗栗縣,卓蘭鎮,高中職
50315,國立苑裡高中,校本部校區,國立苑裡高中_校本部校區,苗栗縣苑裡鎮育才街100號,120.6425705,24.4089756,臺中市,大甲區,高中職
50401,國立大湖農工,校本部校區,國立大湖農工_校本部校區,苗栗縣大湖鄉大寮村竹高屋68號,120.861084,24.42013359,苗栗縣,大湖鄉,高中職
50404,國立苗栗農工,經國路校區,國立苗栗農工_經國路校區,苗栗市經國路二段492號,120.8325043,24.55653191,苗栗縣,苗栗市,高中職
50407,國立苗栗高商,校本部校區,國立苗栗高商_校本部校區,苗栗縣苗栗市電台街7號,120.8146973,24.55786514,苗栗縣,苗栗市,高中職
050B14,國立卓蘭高中進修學校,,國立卓蘭高中進修學校_,苗栗縣卓蘭鎮老庄里161號,120.8319626,24.3127079,苗栗縣,卓蘭鎮,高中職
050C07,國立苗栗高商進修學校,,國立苗栗高商進修學校_,苗栗縣苗栗市電台街7號,120.8143997,24.55805397,苗栗縣,苗栗市,高中職
51302,私立君毅高中,校本部校區,私立君毅高中_校本部校區,苗栗縣竹南鎮公義路245號,120.8834763,24.70031929,苗栗縣,竹南鎮,高中職
51305,私立大成高中,校本部校區,私立大成高中_校本部校區,苗栗縣頭份市新華里中正ㄧ路630號,120.9384232,24.68203163,苗栗縣,頭份鎮,高中職
51306,私立建臺高中,校本部校區,私立建臺高中_校本部校區,苗栗縣苗栗市福麗里至公路251號,120.8147583,24.55994225,苗栗縣,苗栗市,高中職
51307,私立全人實驗高中,校本部校區,私立全人實驗高中_校本部校區,苗栗縣卓蘭鎮內灣里11鄰141-3號,120.8625565,24.30510521,苗栗縣,卓蘭鎮,高中職
51408,私立中興商工,校本部校區,私立中興商工_校本部校區,苗栗縣竹南鎮大營路211號,120.8721924,24.68839264,苗栗縣,竹南鎮,高中職
51411,私立育民工家,校本部校區,私立育民工家_校本部校區,苗栗縣苗栗市水源里育民街37號,120.8137817,24.53763962,苗栗縣,苗栗市,高中職
51412,私立賢德工商,校本部校區,私立賢德工商_校本部校區,苗立縣通霄鎮五北里74之1號,120.6754456,24.47555733,苗栗縣,通霄鎮,高中職
51413,私立龍德家商,校本部校區,私立龍德家商_校本部校區,苗栗縣苑裡鎮房裡里南房75之1號,120.6431503,24.42943764,苗栗縣,苑裡鎮,高中職
051B02,私立君毅高中進修學校,,私立君毅高中進修學校_,苗栗縣竹南鎮公義路245號,120.8829269,24.70005417,苗栗縣,竹南鎮,高中職
051B05,私立大成高中進修學校,,私立大成高中進修學校_,苗栗縣頭份鎮新華里下新店65號,120.9377518,24.68213844,苗栗縣,頭份鎮,高中職
051B06,私立建台高中進修學校,,私立建台高中進修學校_,苗栗縣苗栗市福麗里至公路251號,120.8149414,24.56024551,苗栗縣,苗栗市,高中職
051C08,私立中興商工進修學校,,私立中興商工進修學校_,苗栗縣竹南鎮大營路211號,120.8724136,24.68840027,苗栗縣,竹南鎮,高中職
051C11,私立育民工家進修學校,,私立育民工家進修學校_,苗栗縣苗栗市水源里育民街37號,120.8138733,24.53788376,苗栗縣,苗栗市,高中職
54308,縣立三義高中,校本部校區,縣立三義高中_校本部校區,苗栗縣三義鄉廣盛村11鄰122號,120.7658996,24.40991028,苗栗縣,三義鄉,高中職
54309,縣立苑裡高中,校本部校區,縣立苑裡高中_校本部校區,358 苗栗縣苑裡鎮客庄里1鄰2號,120.6493378,24.39857101,臺中市,大甲區,高中職
54309,縣立苑裡高中,客庄校區,縣立苑裡高中_客庄校區,358 苗栗縣苑裡鎮客庄里1鄰2號,120.6411438,24.3993721,臺中市,大甲區,高中職
54317,縣立興華高中,校本部校區,縣立興華高中_校本部校區,苗栗縣頭份鎮中正一路401號,120.9362488,24.68653679,苗栗縣,頭份鎮,高中職
54333,縣立大同高中,校本部校區,縣立大同高中_校本部校區,苗栗縣竹南鎮大埔里六鄰公義路890號,120.8953279,24.70790099,苗栗縣,竹南鎮,高中職
54508,縣立三義高中,校本部校區,縣立三義高中_校本部校區,苗栗縣三義鄉廣盛村11鄰122號,120.7655945,24.41017342,苗栗縣,三義鄉,高中職
60303,國立大甲高中,校本部校區,國立大甲高中_校本部校區,臺中市大甲區中山路一段720號,120.622673,24.34099388,臺中市,大甲區,高中職
60305,國立清水高中,校本部校區,國立清水高中_校本部校區,436  臺中市清水區中山路90號,120.5741119,24.26528358,臺中市,清水區,高中職
60312,國立豐原高中,校本部校區,國立豐原高中_校本部校區,台中市豐原區水源150號,120.7419281,24.25622559,臺中市,豐原區,高中職
60401,國立豐原高商,校本部校區,國立豐原高商_校本部校區,420台中市豐原區圓環南路50號,120.7128296,24.24594116,臺中市,豐原區,高中職
60402,臺中市立大甲高工,校本部校區,臺中市立大甲高工_校本部校區,臺中市大甲區頂店里開元路71號,120.6413498,24.34890175,臺中市,大甲區,高中職
60404,國立東勢高工,校本部校區,國立東勢高工_校本部校區,臺中市東勢區東關路646號,120.8338318,24.24300575,臺中市,東勢區,高中職
60407,臺中市立沙鹿工業高級中等學校,沙鹿校區,臺中市立沙鹿工業高級中等學校_沙鹿校區,臺中市沙鹿區台灣大道七段823號,120.5652313,24.23890305,臺中市,沙鹿區,高中職
60408,臺中市立霧峰農業工業高級中等學校,校本部校區,臺中市立霧峰農業工業高級中等學校_校本部校區,臺中市霧峰區中正路1222號,120.701622,24.07380867,臺中市,霧峰區,高中職
060C01,國立豐原高商進修學校,,國立豐原高商進修學校_,臺中市豐原區圓環南路50號,120.7137833,24.24685669,臺中市,豐原區,高中職
060C02,國立大甲高工進修學校,,國立大甲高工進修學校_,臺中市大甲區頂店里開元路71號,120.6432114,24.34961128,臺中市,大甲區,高中職
060C04,國立東勢高工進修學校,,國立東勢高工進修學校_,臺中市東勢區東關路646號,120.8340454,24.24244881,臺中市,東勢區,高中職
060C07,國立沙鹿高工進修學校,,國立沙鹿高工進修學校_,臺中市沙鹿區中棲路303號,120.5656509,24.23838806,臺中市,沙鹿區,高中職
060C08,國立霧峰農工進修學校,,國立霧峰農工進修學校_,臺中市霧峰區中正路1222號,120.7022934,24.07338142,臺中市,霧峰區,高中職
060C20,國立啟明高商進修學校,行政大樓,國立啟明高商進修學校_行政大樓,臺中市后里區廣福里三豐路72號,120.7235947,24.30607986,臺中市,后里區,高中職
060C20,國立啟明高商進修學校,國立臺中啟明學校,國立啟明高商進修學校_國立臺中啟明學校,臺中市后里區廣福里三豐路72號,120.7221527,24.30508995,臺中市,后里區,高中職
060C20,國立啟明高商進修學校,國立臺中啟明學校,國立啟明高商進修學校_國立臺中啟明學校,臺中市后里區廣福里三豐路72號,120.7221527,24.30508995,臺中市,后里區,高中職
060C20,國立啟明高商進修學校,校本部校區,國立啟明高商進修學校_校本部校區,臺中市后里區廣福里三豐路72號,120.7221527,24.30508995,臺中市,后里區,高中職
060C20,國立啟明高商進修學校,校本部校區,國立啟明高商進修學校_校本部校區,臺中市后里區廣福里三豐路72號,120.7221527,24.30508995,臺中市,后里區,高中職
61301,財團法人常春藤高中,校本部校區,財團法人常春藤高中_校本部校區,臺中市潭子區潭興路一段165巷320號,120.7166748,24.19441223,臺中市,潭子區,高中職
61306,私立明台高中,校本部校區,私立明台高中_校本部校區,臺中市霧峰區萊園路91號,120.7040329,24.06078148,臺中市,霧峰區,高中職
61309,私立致用高中,校本部校區,私立致用高中_校本部校區,臺中市大甲區中山里甲東路512號,120.6308975,24.34086418,臺中市,大甲區,高中職
61310,私立大明高中,大明校區,私立大明高中_大明校區,臺中市大里區新仁路三段210號,120.6856689,24.11658096,臺中市,大里區,高中職
61311,嘉陽高中,校本部校區,嘉陽高中_校本部校區,臺中市清水區中航路三段1號,120.5827103,24.2656765,臺中市,沙鹿區,高中職
61313,私立明道高中,校本部校區,私立明道高中_校本部校區,臺中市烏日區中山路一段497號,120.6362762,24.10572624,臺中市,烏日區,高中職
61314,私立僑泰高中,校本部校區,私立僑泰高中_校本部校區,臺中市大里區樹王路342號,120.6678009,24.11193848,臺中市,大里區,高中職
61315,私立華盛頓高中,校本部校區,私立華盛頓高中_校本部校區,臺中市太平區廓仔坑路26號(原弘仁),120.7453384,24.15831757,臺中市,太平區,高中職
61316,私立青年高中,校本部校區,私立青年高中_校本部校區,臺中市大里區中湖路100號,120.6931,24.08797264,臺中市,大里區,高中職
61318,私立立人高中,校本部校區,私立立人高中_校本部校區,412 臺中市大里區中興路二段380號,120.6908875,24.10548592,臺中市,大里區,高中職
61319,私立玉山高中,校本部校區,私立玉山高中_校本部校區,臺中市東勢區東崎路四段399號,120.8452072,24.25056648,臺中市,東勢區,高中職
61321,私立慈明高中,校本部校區,私立慈明高中_校本部校區,臺中市太平區光德路388號,120.7251892,24.1065464,臺中市,太平區,高中職
061B06,私立明台高中進修學校,,私立明台高中進修學校_,臺中市霧峰區萊園路91號,120.7029877,24.06175995,臺中市,霧峰區,高中職
061B09,私立致用高中進修學校,,私立致用高中進修學校_,臺中市大甲區東陽新村71號,120.6298599,24.34036827,臺中市,大甲區,高中職
061B10,私立大明高中進修學校,,私立大明高中進修學校_,臺中市大里區新仁路三段210號,120.6858749,24.11660957,臺中市,大里區,高中職
061B11,私立嘉陽高中進修學校,,私立嘉陽高中進修學校_,臺中市清水區中清路1號,120.5837631,24.26496696,臺中市,沙鹿區,高中職
061B13,私立明道高中進修學校,,私立明道高中進修學校_,臺中縣烏日鄉中山路一段497號,120.6360168,24.10625076,臺中市,烏日區,高中職
061B14,私立僑泰高中進修學校,,私立僑泰高中進修學校_,臺中市大里區樹王路342號,120.6669617,24.1117897,臺中市,大里區,高中職
061B16,私立青年高中進修學校,,私立青年高中進修學校_,臺中市大里區中湖路100號,120.6935043,24.08791161,臺中市,大里區,高中職
061B19,私立玉山高中進修學校,,私立玉山高中進修學校_,臺中市東勢區東崎街125之5號,120.8438339,24.24998283,臺中市,東勢區,高中職
061B21,私立慈明高中進修學校,,私立慈明高中進修學校_,臺中市太平區光德路388號,120.7272568,24.10520554,臺中市,太平區,高中職
63303,市立大甲高中,校本部校區,市立大甲高中_校本部校區,臺中市大甲區中山路一段720號,120.6216323,24.34205415,臺中市,大甲區,高中職
63305,市立清水高中,校本部校區,市立清水高中_校本部校區,臺中市清水區中山路90號,121.4653115,24.98201347,新北市,土城區,高中職
63312,市立豐原高中,校本部校區,市立豐原高中_校本部校區,臺中市豐原區,120.7419247,24.25622525,臺中市,豐原區,高中職
63401,市立豐原高商,校本部校區,市立豐原高商_校本部校區,臺中市豐原區圓環南路50號,120.7128274,24.24594148,臺中市,豐原區,高中職
63402,市立大甲高工,校本部校區,市立大甲高工_校本部校區,臺中市大甲區頂店里開元路71號,120.6444557,24.34986756,臺中市,大甲區,高中職
63404,市立東勢高工,校本部校區,市立東勢高工_校本部校區,臺中市東勢區東關路6段1328號,120.8338366,24.24300681,臺中市,東勢區,高中職
63407,市立沙鹿高工,校本部校區,市立沙鹿高工_校本部校區,臺中市沙鹿區,120.5651814,24.23895955,臺中市,沙鹿區,高中職
63408,市立霧峰農工,校本部校區,市立霧峰農工_校本部校區,臺中市霧峰區中正路1222號,120.7024329,24.07246735,臺中市,霧峰區,高中職
64308,市立后綜高中,校本部校區,市立后綜高中_校本部校區,臺中市后里區廣福里三豐路三段968號,120.7226181,24.30622482,臺中市,后里區,高中職
64324,市立大里高中,校本部校區,市立大里高中_校本部校區,臺中市大里區國中路365號,120.6787643,24.09327888,臺中市,大里區,高中職
64328,市立新社高中,校本部校區,市立新社高中_校本部校區,臺中市新社區復盛里中和街三段國中巷10號,120.807251,24.23667526,臺中市,新社區,高中職
64336,市立長億高中,校本部校區,市立長億高中_校本部校區,臺中市太平區長億里長億六街1號,120.7216187,24.11306763,臺中市,太平區,高中職
64350,市立龍津高中,校本部校區,市立龍津高中_校本部校區,臺中市龍井區三港路130號,120.5215395,24.20464599,臺中市,龍井區,高中職
64550,臺中市立龍津高級中等學校,校本部校區,臺中市立龍津高級中等學校_校本部校區,臺中市龍井區三港路130號,120.5208817,24.20516014,臺中市,龍井區,高中職
70301,國立彰化女中,校本部校區,國立彰化女中_校本部校區,彰化縣彰化市光復路62號,120.5434799,24.08117867,彰化縣,彰化市,高中職
70304,國立員林高中,校本部校區,國立員林高中_校本部校區,彰化縣員林市靜修路79號,120.563736,23.96097565,彰化縣,員林鎮,高中職
70307,國立彰化高中,校本部校區,國立彰化高中_校本部校區,彰化縣彰化市中興路78號,120.5515289,24.07105064,彰化縣,彰化市,高中職
70316,國立鹿港高中,校本部校區,國立鹿港高中_校本部校區,彰化縣鹿港鎮東石里中山路661號,120.424881,24.06073952,彰化縣,鹿港鎮,高中職
70316,國立鹿港高中,養殖場校區,國立鹿港高中_養殖場校區,彰化縣鹿港鎮東石里中山路661號,120.4194565,24.0682621,彰化縣,鹿港鎮,高中職
70319,國立溪湖高中,校本部校區,國立溪湖高中_校本部校區,51452彰化縣溪湖鎮湖東里大溪路二段86號,120.4871902,23.96801949,彰化縣,溪湖鎮,高中職
70402,國立永靖高工,校本部校區,國立永靖高工_校本部校區,彰化縣永靖鄉永北村永坡路101號,120.5455017,23.92668915,彰化縣,永靖鄉,高中職
70403,國立二林工商,校本部校區,國立二林工商_校本部校區,彰化縣二林鎮豐田里斗苑路4段500號,120.3772659,23.89992142,彰化縣,二林鎮,高中職
70405,國立秀水高工,校本部校區,國立秀水高工_校本部校區,504彰化縣秀水鄉福安村中山路364號,120.4992447,24.03441238,彰化縣,秀水鄉,高中職
70406,國立彰化高商,校本部校區,國立彰化高商_校本部校區,彰化市華陽里南郭路一段326號,120.5526505,24.07282257,彰化縣,彰化市,高中職
70408,國立員林農工,校本部校區,國立員林農工_校本部校區,彰化縣員林鎮員水路二段313號,120.5818253,23.95466042,彰化縣,員林鎮,高中職
70409,國立崇實高工,校本部校區,國立崇實高工_校本部校區,彰化縣員林鎮育英路103號,120.5752945,23.96116066,彰化縣,員林鎮,高中職
70410,國立員林家商,校本部校區,國立員林家商_校本部校區,51045  彰化縣員林市中正路56號,120.5764923,23.95046997,彰化縣,員林鎮,高中職
70415,國立北斗家商,校本部校區,國立北斗家商_校本部校區,彰化縣北斗鎮大道里學府路50號,120.5220795,23.87849998,彰化縣,北斗鎮,高中職
070B16,國立鹿港高中進修學校,,國立鹿港高中進修學校_,彰化縣鹿港鎮東石里中山路661號,120.4234543,24.05994415,彰化縣,鹿港鎮,高中職
070C02,國立永靖高工進修學校,,國立永靖高工進修學校_,彰化縣永靖鄉永北村永坡路101號,120.5447693,23.92602348,彰化縣,永靖鄉,高中職
070C03,國立二林工商進修學校,,國立二林工商進修學校_,彰化縣二林鎮豐田里斗苑路四段500號,120.3773499,23.90060616,彰化縣,二林鎮,高中職
070C05,國立秀水高工進修學校,,國立秀水高工進修學校_,彰化縣秀水鄉福安村中山路364號,120.498703,24.03544235,彰化縣,秀水鄉,高中職
070C06,國立彰化高商進修學校,,國立彰化高商進修學校_,彰化市華陽里南郭路一段326號,120.5528793,24.07225037,彰化縣,彰化市,高中職
070C08,國立員林農工進修學校,,國立員林農工進修學校_,彰化縣員林鎮員水路二段313號,120.5818939,23.95385933,彰化縣,員林鎮,高中職
070C09,國立崇實高工進修學校,,國立崇實高工進修學校_,彰化縣員林鎮育英路103號,120.5752563,23.96141624,彰化縣,員林鎮,高中職
070C10,國立員林家商進修學校,,國立員林家商進修學校_,彰化縣員林鎮中正路56號,120.5772629,23.95052338,彰化縣,員林鎮,高中職
070C15,國立北斗家商進修學校,,國立北斗家商進修學校_,彰化縣北斗鎮大道里學府路50號,120.5223465,23.87869644,彰化縣,北斗鎮,高中職
070G91,國立員林高中進校分校,校本部校區,國立員林高中進校分校_校本部校區,彰化縣田中鎮山腳路五段360巷170號,120.6083298,23.87694359,彰化縣,田中鎮,高中職
070G92,國立二林進修學校分校,校本部校區,國立二林進修學校分校_校本部校區,彰化縣二林鎮豐田里斗苑路四段500號,120.3847733,23.93791008,彰化縣,二林鎮,高中職
71311,私立精誠高中,校本部校區,私立精誠高中_校本部校區,彰化縣彰化市林森路200號,120.5282516,24.07352829,彰化縣,彰化市,高中職
71317,私立文興高中,校本部校區,私立文興高中_校本部校區,彰化縣田中鎮員集路三段93號,120.5865326,23.86746788,彰化縣,田中鎮,高中職
71318,財團法人正德高中,校本部校區,財團法人正德高中_校本部校區,彰化縣彰化市莿桐里彰水路145號,120.5185089,24.05873871,彰化縣,彰化市,高中職
71413,私立大慶商工,校本部校區,私立大慶商工_校本部校區,51060 彰化縣員林鎮山腳路二段206號,120.6010895,23.94834709,彰化縣,員林鎮,高中職
71414,私立達德商工,校本部校區,私立達德商工_校本部校區,彰化縣田中鎮中南路二段277號,120.6085968,23.85280418,彰化縣,田中鎮,高中職
071B18,私立正德高中進修學校,,私立正德高中進修學校_,彰化縣彰化市莿桐里彰水路145號,120.5183334,24.0588398,彰化縣,彰化市,高中職
071C13,私立大慶商工進修學校,,私立大慶商工進修學校_,彰化縣員林鎮山腳路二段206號,120.6010437,23.94816399,彰化縣,員林鎮,高中職
071C14,私立達德商工進修學校,,私立達德商工進修學校_,彰化縣田中鎮中南路二段277號,120.609375,23.85269165,彰化縣,田中鎮,高中職
74308,縣立彰化藝術高中,校本部校區,縣立彰化藝術高中_校本部校區,彰化市卦山路13號,120.5544891,24.07876396,彰化縣,彰化市,高中職
74308,縣立彰化藝術高中,藝術園區,縣立彰化藝術高中_藝術園區,彰化市卦山路13號,120.5566635,24.07698441,彰化縣,彰化市,高中職
74308,縣立彰化藝術高中,語文特區,縣立彰化藝術高中_語文特區,彰化市卦山路13號,120.5555115,24.07715797,彰化縣,彰化市,高中職
74313,縣立二林高中,校本部校區,縣立二林高中_校本部校區,彰化縣二林鎮中西里二城路6號,120.358902,23.89030266,彰化縣,二林鎮,高中職
74323,縣立和美高中,校本部校區,縣立和美高中_校本部校區,彰化縣和美鎮西園路三十一號,120.4935566,24.11300949,彰化縣,和美鎮,高中職
74328,縣立田中高中,校本部校區,縣立田中高中_校本部校區,彰化縣田中鎮南路里文化街23號,120.5887222,23.85496712,彰化縣,田中鎮,高中職
74339,縣立成功高中,校本部校區,縣立成功高中_校本部校區,彰化縣溪湖鎮福德路310號,120.4718933,23.95152092,彰化縣,溪湖鎮,高中職
74523,縣立和美高中,校本部校區,縣立和美高中_校本部校區,彰化縣和美鎮和西里西園路31號,120.4935532,24.11301041,彰化縣,和美鎮,高中職
80302,國立南投高中,校本部校區,國立南投高中_校本部校區,南投縣南投市建國路137號,120.6809158,23.91049957,南投縣,南投市,高中職
80305,國立中興高中,校本部校區,國立中興高中_校本部校區,南投縣南投市中興新村中學路2號,120.6953354,23.95065117,南投縣,南投市,高中職
80307,國立竹山高中,校本部校區,國立竹山高中_校本部校區,南投縣竹山鎮下橫街253號,120.680603,23.76091576,南投縣,竹山鎮,高中職
80401,國立仁愛高農,校本部校區,國立仁愛高農_校本部校區,南投縣仁愛鄉大同村山農巷27號,121.1328278,24.02181435,南投縣,仁愛鄉,高中職
80403,國立埔里高工,校本部校區,國立埔里高工_校本部校區,南投縣埔里鎮中山路一段435號,120.9784546,23.97221756,南投縣,埔里鎮,高中職
80403,國立埔里高工,第二校區,國立埔里高工_第二校區,南投縣埔里鎮中山路一段435號,120.9782791,23.9630127,南投縣,埔里鎮,高中職
80404,國立南投高商,校本部校區,國立南投高商_校本部校區,南投縣南投市彰南路一段993號,120.685318,23.90386391,南投縣,南投市,高中職
80406,國立草屯商工,校本部校區,國立草屯商工_校本部校區,南投縣草屯鎮墩煌路3段188號,120.6664276,23.99687195,南投縣,草屯鎮,高中職
80410,國立水里商工,校本部校區,國立水里商工_校本部校區,南投縣水里鄉南湖路2號,120.8525467,23.80504608,南投縣,水里鄉,高中職
080B05,國立中興高中進修學校,,國立中興高中進修學校_,南投縣南投市中興新村中學路2號,120.6949005,23.95097351,南投縣,南投市,高中職
080B07,國立竹山高中進修學校,,國立竹山高中進修學校_,南投縣竹山鎮下橫街253號,120.6807404,23.76107979,南投縣,竹山鎮,高中職
080C04,國立南投高商進修學校,,國立南投高商進修學校_,南投縣南投市三興里彰南路一段993號,120.6843796,23.90343857,南投縣,南投市,高中職
080C06,國立草屯商工進修學校,,國立草屯商工進修學校_,南投縣草屯鎮墩煌路3段188號,120.666481,23.9978447,南投縣,草屯鎮,高中職
080C10,國立水里商工進修學校,,國立水里商工進修學校_,南投縣水里鄉南湖路1號,120.8521042,23.80506325,南投縣,水里鄉,高中職
81311,私立五育高中,校本部校區,私立五育高中_校本部校區,南投市樂利路200號,120.6719513,23.89271164,南投縣,南投市,高中職
81312,私立三育高中,校本部校區,私立三育高中_校本部校區,南投縣魚池鄉瓊文巷39號,120.9322739,23.90534592,南投縣,魚池鄉,高中職
81313,私立弘明實驗高中,校本部校區,私立弘明實驗高中_校本部校區,551南投縣名間鄉東湖村大老巷102號,120.6975479,23.85780907,南投縣,名間鄉,高中職
81314,私立普台高中,校本部校區,私立普台高中_校本部校區,545南投縣埔里鎮中台路5號,120.9357376,23.99537659,南投縣,埔里鎮,高中職
81409,私立同德家商,校本部校區,私立同德家商_校本部校區,南投縣草屯鎮中正路培英巷8號,120.6951752,23.99903679,南投縣,草屯鎮,高中職
081C09,私立同德家商進修學校,,私立同德家商進修學校_,南投縣草屯鎮中正路培英巷8號,120.6944809,23.99908257,南投縣,草屯鎮,高中職
84309,縣立旭光高中,校本部校區,縣立旭光高中_校本部校區,南投縣草屯鎮中正路568-23號,120.6947403,23.98009682,南投縣,草屯鎮,高中職
90305,國立斗六高中,校本部校區,國立斗六高中_校本部校區,雲林縣斗六市民生路224號,120.5456009,23.71161842,雲林縣,斗六市,高中職
90306,國立北港高中,校本部校區,國立北港高中_校本部校區,雲林縣北港鎮成功路26號,120.3046112,23.57814598,雲林縣,北港鎮,高中職
90315,國立虎尾高中,校本部校區,國立虎尾高中_校本部校區,雲林縣虎尾鎮光復路222號,120.4421005,23.71022987,雲林縣,虎尾鎮,高中職
90401,國立虎尾農工,第一、二校區,國立虎尾農工_第一、二校區,雲林縣虎尾鎮公安里博愛路65號,120.4352493,23.71468544,雲林縣,虎尾鎮,高中職
90402,國立西螺農工,校本部校區,國立西螺農工_校本部校區,雲林縣西螺鎮大同路4號,120.470993,23.79455948,雲林縣,西螺鎮,高中職
90402,國立西螺農工,畜產保健科校區,國立西螺農工_畜產保健科校區,雲林縣西螺鎮大同路4號,120.460083,23.79422379,雲林縣,西螺鎮,高中職
90403,國立斗六家商,校本部校區,國立斗六家商_校本部校區,雲林縣斗六市成功路120號,120.5470047,23.70722008,雲林縣,斗六市,高中職
90404,國立北港農工,校本部校區,國立北港農工_校本部校區,雲林縣北港鎮太平路80號,120.3090363,23.58032227,雲林縣,北港鎮,高中職
90413,國立土庫商工,校本部校區,國立土庫商工_校本部校區,雲林縣土庫鎮中央路2號,120.387558,23.67284966,雲林縣,土庫鎮,高中職
090C02,國立西螺農工進修學校,,國立西螺農工進修學校_,雲林縣西螺鎮大同路4號,120.469841,23.79480171,雲林縣,西螺鎮,高中職
090C03,國立斗六家商進修學校,,國立斗六家商進修學校_,雲林縣斗六市成功路120號,120.5473175,23.70672035,雲林縣,斗六市,高中職
090C13,國立土庫商工進修學校,,國立土庫商工進修學校_,雲林縣土庫鎮中央路2號,120.3873444,23.67311287,雲林縣,土庫鎮,高中職
91307,私立永年高中,校本部校區,私立永年高中_校本部校區,雲林縣土庫鎮建國路13號,120.3994675,23.67928696,雲林縣,土庫鎮,高中職
91308,私立正心高中,校本部校區,私立正心高中_校本部校區,雲林縣斗六市虎溪里正心路1號,120.5273514,23.71377563,雲林縣,斗六市,高中職
91311,私立文生高中,校本部校區,私立文生高中_校本部校區,雲林縣四湖鄉中正路509號,120.2275696,23.63186073,雲林縣,四湖鄉,高中職
91312,私立巨人高中,校本部校區,私立巨人高中_校本部校區,651 雲林縣北港鎮大同路647號,120.2888565,23.5747757,雲林縣,北港鎮,高中職
91316,私立揚子高中,校本部校區,私立揚子高中_校本部校區,雲林縣虎尾鎮潁川里林森路二段541號,120.4239655,23.69639778,雲林縣,虎尾鎮,高中職
91319,私立福智高中,校本部校區,私立福智高中_校本部校區,雲林縣古坑鄉麻園村平和23號,120.5219421,23.63472748,雲林縣,古坑鄉,高中職
91320,私立維多利亞實驗高中,校本部校區,私立維多利亞實驗高中_校本部校區,640 雲林縣斗六市鎮南路 1110 號,120.5513229,23.67951012,雲林縣,斗六市,高中職
91410,私立大成商工,校本部校區,私立大成商工_校本部校區,雲林縣虎尾鎮成平街21號,120.4460068,23.71068573,雲林縣,虎尾鎮,高中職
91414,私立大德工商,校本部校區,私立大德工商_校本部校區,雲林縣斗南鎮大同路400號,120.4739838,23.68577957,雲林縣,斗南鎮,高中職
091B18,私立義峰高中進修學校,,私立義峰高中進修學校_,雲林縣林內鄉烏麻村長源201號,120.5934372,23.75965309,雲林縣,林內鄉,高中職
091C10,私立大成商工進修學校,,私立大成商工進修學校_,雲林縣虎尾鎮成平街21號,120.4461517,23.71086121,雲林縣,虎尾鎮,高中職
091C14,私立大德工商進修學校,,私立大德工商進修學校_,雲林縣斗南鎮大同路400號,120.4724884,23.68586159,雲林縣,斗南鎮,高中職
94301,縣立斗南高中,校本部校區,縣立斗南高中_校本部校區,雲林縣斗南鎮中山路212號,120.4759598,23.68214035,雲林縣,斗南鎮,高中職
94307,縣立麥寮高中,校本部校區,縣立麥寮高中_校本部校區,雲林縣麥寮鄉中興路310號,120.2518387,23.75747108,雲林縣,麥寮鄉,高中職
094B07,縣立麥寮高中進修學校,,縣立麥寮高中進修學校_,雲林縣麥寮鄉中興路310號,120.2516785,23.75924492,雲林縣,麥寮鄉,高中職
0A08,國立虎尾科技大學附進修專校,校本部校區,國立虎尾科技大學附進修專校_校本部校區,雲林縣虎尾鎮文化路六四號,120.4294535,23.7029954,雲林縣,虎尾鎮,高中職
0A09,台中技術學院附進修專校,,台中技術學院附進修專校_,臺中市三民路三段一二九號,120.6839676,24.15002441,臺中市,北區,高中職
0A10,台北商業技院附進修專校,,台北商業技院附進修專校_,臺北市濟南路一段三二一號,121.5256653,25.04189873,臺北市,中正區,高中職
0A11,勤益科技大學附進修專校,,勤益科技大學附進修專校_,臺中市太平區中山路一段215巷35號,120.7323837,24.14340973,臺中市,太平區,高中職
0A12,台北科技大學附進修學院,,台北科技大學附進修學院_,臺北市忠孝東路三段一號,121.5356369,25.04243469,臺北市,大安區,高中職
0A13,高雄應用科大附進修學院,,高雄應用科大附進修學院_,高雄市三民區建工路四一五號,120.3284225,22.64915657,高雄市,三民區,高中職
0A14,虎尾科技大學附進修學院,校本部校區,虎尾科技大學附進修學院_校本部校區,雲林縣虎尾鎮文化路64號,120.4301529,23.70310783,雲林縣,虎尾鎮,高中職
0A15,勤益科技大學附進修學院,,勤益科技大學附進修學院_,臺中市太平區中山路一段215巷35號,120.7323837,24.14340973,臺中市,太平區,高中職
0A16,台中技術學院附進修學院,,台中技術學院附進修學院_,臺中市三民路三段一二九號,120.6839676,24.15002441,臺中市,北區,高中職
100301,國立東石高中,校本部校區,國立東石高中_校本部校區,嘉義縣朴子市大鄉里253號,120.2519073,23.46351814,嘉義縣,朴子市,高中職
100302,國立新港藝術高中,校本部校區,國立新港藝術高中_校本部校區,嘉義縣新港鄉宮後村藝高路1號,120.3490524,23.56050491,嘉義縣,新港鄉,高中職
100402,國立民雄農工,民雄校區,國立民雄農工_民雄校區,嘉義縣民雄鄉文隆村81號,120.4251328,23.53983307,嘉義縣,民雄鄉,高中職
100B01,國立東石高中進修學校,,國立東石高中進修學校_,嘉義縣朴子市大鄉里253號,120.25177,23.46413422,嘉義縣,朴子市,高中職
101303,私立同濟高中,校本部校區,私立同濟高中_校本部校區,嘉義縣大林鎮中興路二段303號,120.4728088,23.60471535,嘉義縣,大林鎮,高中職
101304,私立協同高中,校本部校區,私立協同高中_校本部校區,嘉義縣民雄鄉建國路二段31號,120.4342346,23.5316906,嘉義縣,民雄鄉,高中職
101405,私立協志工商,校本部校區,私立協志工商_校本部校區,嘉義縣民雄鄉東榮村建國路2段285巷11號,120.4312134,23.54893684,嘉義縣,民雄鄉,高中職
101406,私立萬能工商,校本部校區,私立萬能工商_校本部校區,嘉義縣水上鄉萬能路1號,120.3914413,23.43136215,嘉義縣,水上鄉,高中職
101407,私立弘德工商,校本部校區,私立弘德工商_校本部校區,嘉義縣朴子市崁後里54之2號,120.2280807,23.45030975,嘉義縣,朴子市,高中職
101C05,私立協志工商進修學校,,私立協志工商進修學校_,嘉義縣民雄鄉東榮村建國路2段285巷11號,120.4314575,23.54716492,嘉義縣,民雄鄉,高中職
101C07,私立弘德工商進修學校,,私立弘德工商進修學校_,嘉義縣朴子市崁後里54之2號,120.2289047,23.45059013,嘉義縣,朴子市,高中職
104319,縣立竹崎高中,校本部校區,縣立竹崎高中_校本部校區,嘉義縣竹崎鄉文化路23號,120.5531616,23.52139664,嘉義縣,竹崎鄉,高中職
104326,縣立永慶高中,校本部校區,縣立永慶高中_校本部校區,嘉義縣太保市信義二路1號,120.2949982,23.46555519,嘉義縣,太保市,高中職
110302,國立新豐高中,第一、二校區,國立新豐高中_第一、二校區,711臺南市歸仁區中正北路一段148號,120.2955933,22.97200012,臺南市,歸仁區,高中職
110311,國立北門高中,校本部校區,國立北門高中_校本部校區,台南市佳里區六安里269號,120.1763229,23.16786575,臺南市,佳里區,高中職
110312,國立新營高中,校本部校區,國立新營高中_校本部校區,臺南市新營區民權路101號,120.3120575,23.30817032,臺南市,新營區,高中職
110314,國立後壁高中,校本部校區,國立後壁高中_校本部校區,臺南市後壁區嘉苳里下茄苳132號,120.3602905,23.35600281,臺南市,後壁區,高中職
110315,國立善化高中,校本部校區,國立善化高中_校本部校區,臺南市善化區大成路195號,120.3009872,23.12958336,臺南市,善化區,高中職
110317,國立新化高中,校本部校區,國立新化高中_校本部校區,臺南市新化區忠孝街2號,120.3100586,23.04027939,臺南市,新化區,高中職
110328,國立南科國際實驗高中,校本部校區,國立南科國際實驗高中_校本部校區,台南市新市區大順六路12巷6號,120.290184,23.10545921,臺南市,新市區,高中職
110401,國立新化高工,校本部校區,國立新化高工_校本部校區,臺南市新化區東榮里信義路54號,120.3194733,23.03799057,臺南市,新化區,高中職
110401,國立新化高工,國立新化高級工業職業學校,國立新化高工_國立新化高級工業職業學校,臺南市新化區東榮里信義路54號,120.3180084,23.03822517,臺南市,新化區,高中職
110403,國立白河商工,校本部校區,國立白河商工_校本部校區,台南市白河區新興路528號,120.4170303,23.35414696,臺南市,白河區,高中職
110404,國立北門農工,校本部校區,國立北門農工_校本部校區,台南市佳里區六安里117號,120.1807785,23.17718887,臺南市,佳里區,高中職
110405,國立曾文家商,校本部校區,國立曾文家商_校本部校區,臺南市麻豆區和平路9號,120.2456894,23.17796516,臺南市,麻豆區,高中職
110406,國立新營高工,校本部校區,國立新營高工_校本部校區,臺南市新營區中正路68號,120.3168182,23.31336975,臺南市,新營區,高中職
110407,國立玉井工商,校本部校區(南院),國立玉井工商_校本部校區(南院),臺南市玉井區中山路1-1號,120.4591904,23.12075043,臺南市,玉井區,高中職
110407,國立玉井工商,實習工場區校區(北院),國立玉井工商_實習工場區校區(北院),臺南市玉井區中山路1-1號,120.4598465,23.12220764,臺南市,玉井區,高中職
110409,國立臺南高工,校本部校區,國立臺南高工_校本部校區,臺南市永康區中山南路193號,120.2335815,23.01453972,臺南市,永康區,高中職
110410,國立曾文農工,校本部校區,國立曾文農工_校本部校區,臺南市麻豆區南勢里南勢1號,120.2626572,23.18869972,臺南市,麻豆區,高中職
110B02,國立新豐高中進修學校,,國立新豐高中進修學校_,臺南市歸仁區中正北路一段148號,120.2961731,22.97183609,臺南市,歸仁區,高中職
110B12,國立新營高中進修學校,,國立新營高中進修學校_,臺南市新營區民權路101號,120.3109283,23.30802917,臺南市,新營區,高中職
110C01,國立新化高工進修學校,,國立新化高工進修學校_,臺南市新化區東榮里信義路54號,120.3180161,23.03755569,臺南市,新化區,高中職
110C03,國立白河商工進修學校,,國立白河商工進修學校_,臺南市白河區永安里新興路528號,120.4160156,23.3539753,臺南市,白河區,高中職
110C04,國立北門農工進修學校,,國立北門農工進修學校_,臺南市佳里區六安里117號,120.1804581,23.17653275,臺南市,佳里區,高中職
110C05,國立曾文家商進修學校,,國立曾文家商進修學校_,臺南市麻豆區和平路9號,120.244873,23.17777634,臺南市,麻豆區,高中職
110C06,國立新營高工進修學校,,國立新營高工進修學校_,臺南市新營區中正路68號,120.317482,23.3133049,臺南市,新營區,高中職
110C09,國立臺南高工進修學校,國立臺南高工進修學校,國立臺南高工進修學校_國立臺南高工進修學校,臺南市永康區中山南路193號,120.2332077,23.01649666,臺南市,永康區,高中職
111313,私立南光高中,校本部校區,私立南光高中_校本部校區,臺南市新營區中興路62號,120.315239,23.29836082,臺南市,新營區,高中職
111318,私立鳳和高中,校本部校區,私立鳳和高中_校本部校區,臺南市柳營區中山東路二段1330號,120.326004,23.27955627,臺南市,柳營區,高中職
111320,私立港明高中,校本部校區,私立港明高中_校本部校區,臺南市西港區慶安路229號,120.1960297,23.11911392,臺南市,西港區,高中職
111321,私立興國高中,校本部校區,私立興國高中_校本部校區,73048台南市新營區大同路86號,120.322403,23.31267929,臺南市,新營區,高中職
111322,私立明達高中,校本部校區,私立明達高中_校本部校區,臺南市鹽水區橋南里忠孝路73號,120.2746735,23.31002808,臺南市,鹽水區,高中職
111323,私立黎明高中,校本部校區,私立黎明高中_校本部校區,臺南市麻豆區磚井里141號,120.2473679,23.17318726,臺南市,麻豆區,高中職
111325,私立華濟永安高中,校本部校區,私立華濟永安高中_校本部校區,臺南市東山區聖賢里頂窩65號,120.3395996,23.30680084,臺南市,東山區,高中職
111326,私立新榮高中,校本部校區,私立新榮高中_校本部校區,臺南市柳營區光福里132之12號,120.3161774,23.26858711,臺南市,柳營區,高中職
111416,私立天仁工商,校本部校區,私立天仁工商_校本部校區,臺南市學甲區天水路30號,120.178833,23.23702621,臺南市,學甲區,高中職
111419,陽明學校財團法人臺南市陽明高級工商職業學校,校本部校區,陽明學校財團法人臺南市陽明高級工商職業學校_校本部校區,臺南市官田區官田里423號,120.3286438,23.19179535,臺南市,官田區,高中職
111427,私立育德工家,校本部校區,私立育德工家_校本部校區,臺南市新營區健康路211號,120.3119202,23.31625938,臺南市,新營區,高中職
111B20,私立港明高中進修學校,,私立港明高中進修學校_,臺南市西港區慶安路229號,120.1957245,23.11914825,臺南市,西港區,高中職
111B25,私立華濟高中進修學校,,私立華濟高中進修學校_,臺南市東山區聖賢里頂窩65號,120.3395996,23.30680084,臺南市,東山區,高中職
111B26,私立新榮高中進修學校,,私立新榮高中進修學校_,臺南市柳營區光福里132之12號,120.3167953,23.26844025,臺南市,柳營區,高中職
111C16,私立天仁工商進修學校,,私立天仁工商進修學校_,臺南市學甲區天水路30號,120.1784821,23.23722076,臺南市,學甲區,高中職
111C19,私立陽明工商進修學校,,私立陽明工商進修學校_,臺南市官田區官田里423號,120.3289032,23.19183731,臺南市,官田區,高中職
111C27,私立育德工家進修部,,私立育德工家進修部_,臺南市新營區健康路211號,120.3116837,23.31647491,臺南市,新營區,高中職
111G91,私立樹德高中進修學校,校本部校區,私立樹德高中進修學校_校本部校區,臺南市歸仁區武東里明德新村1號,120.269928,22.92598724,臺南市,歸仁區,高中職
114306,市立大灣高中,校本部校區,市立大灣高中_校本部校區,臺南市永康區文賢街68巷1號,120.2726746,23.00632668,臺南市,永康區,高中職
114307,市立永仁高中,校本部校區,市立永仁高中_校本部校區,臺南市永康區忠孝路74號,120.2402191,23.00331497,臺南市,永康區,高中職
120303,國立鳳山高中,校本部校區,國立鳳山高中_校本部校區,高雄市鳳山區光復路二段130號,120.345726,22.6299057,高雄市,鳳山區,高中職
120304,國立岡山高中,校本部校區,國立岡山高中_校本部校區,高雄市岡山區公園路52號,120.2901688,22.79741669,高雄市,岡山區,高中職
120311,國立旗美高中,校本部校區,國立旗美高中_校本部校區,高雄市旗山區東平里樹人路21號,120.4939575,22.88600159,高雄市,旗山區,高中職
120319,國立鳳新高中,鳳新高中,國立鳳新高中_鳳新高中,高雄市鳳山區新富路257號,120.3431854,22.61342049,高雄市,鳳山區,高中職
120401,國立旗山農工,校本部校區,國立旗山農工_校本部校區,高雄市旗山區旗甲路一段195號,120.4827118,22.90155602,高雄市,旗山區,高中職
120402,國立岡山農工,校本部校區,國立岡山農工_校本部校區,高雄市岡山區岡山路533號,120.2894669,22.80256844,高雄市,岡山區,高中職
120409,國立鳳山商工,校本部校區,國立鳳山商工_校本部校區,高雄市鳳山區文衡路51號,120.3571548,22.63367844,高雄市,鳳山區,高中職
120C02,國立岡山農工進修學校,,國立岡山農工進修學校_,高雄市岡山區壽天里岡山路533號,120.2899551,22.80247307,高雄市,岡山區,高中職
120C09,國立鳳山商工進修學校,,國立鳳山商工進修學校_,高雄市鳳山區文衡路51號,120.3569565,22.63417435,高雄市,鳳山區,高中職
121306,財團法人新光高中,校本部校區,財團法人新光高中_校本部校區,高雄市大寮區後庄村鳳屏一路217號,120.3900604,22.63531876,高雄市,大寮區,高中職
121318,私立正義高中,校本部校區,私立正義高中_校本部校區,高雄市鳳山區正義里南江街183號,120.3397522,22.60265541,高雄市,鳳山區,高中職
121320,私立義大國際高中,校本部校區,私立義大國際高中_校本部校區,高雄市大樹區學城路1段6號,120.4045486,22.72802925,高雄市,大樹區,高中職
121405,私立中山工商,校本部校區,私立中山工商_校本部校區,高雄市大寮區會社里正氣路79號,120.3925552,22.59986496,高雄市,大寮區,高中職
121410,私立旗美商工,校本部校區,私立旗美商工_校本部校區,高雄市美濃區中興路二段275號,120.5200119,22.88467979,高雄市,美濃區,高中職
121413,私立高英工商,校本部校區,私立高英工商_校本部校區,高雄市大寮區鳳林三路19巷44號,120.4003983,22.59436035,高雄市,大寮區,高中職
121415,私立華德工家,校本部校區,私立華德工家_校本部校區,高雄市茄萣區濱海路四段六六號,120.1812057,22.90779305,高雄市,茄萣區,高中職
121417,私立高苑工商,校本部校區,私立高苑工商_校本部校區,高雄市橋頭區東林里芋寮路1號,120.2919464,22.75806236,高雄市,橋頭區,高中職
121B06,私立新光高中進修學校,,私立新光高中進修學校_,高雄市大寮區鳳屏一路217號,120.3901596,22.63575745,高雄市,大寮區,高中職
121C05,私立中山工商進修學校,,私立中山工商進修學校_,高雄市大寮區會社村正氣路79號,120.3933487,22.6000061,高雄市,大寮區,高中職
121C10,私立旗美商工進修學校,,私立旗美商工進修學校_,高雄市美濃區中興路二段275號,120.5198212,22.88402939,高雄市,美濃區,高中職
121C13,私立高英工商進修學校,,私立高英工商進修學校_,高雄市大寮區鳳林三路19巷44號,120.3998795,22.59417152,高雄市,大寮區,高中職
121C15,私立華德工家進修學校,,私立華德工家進修學校_,高雄市茄萣區濱海路四段66號,120.1812134,22.90761375,高雄市,茄萣區,高中職
121C17,私立高苑工商進修學校,,私立高苑工商進修學校_,高雄市橋頭區東林里芋寮路1號,120.2921524,22.75783539,高雄市,橋頭區,高中職
124302,市立文山高中,校本部校區,市立文山高中_校本部校區,高雄市鳥松區大埤路31號,120.3527832,22.64818954,高雄市,鳥松區,高中職
124311,市立林園高中,校本部校區,市立林園高中_校本部校區,高雄市林園區林園北路481號,120.3949203,22.51374817,高雄市,林園區,高中職
124313,市立仁武高中,校本部校區,市立仁武高中_校本部校區,高雄市仁武區文武里仁林路20號,120.3563156,22.70245552,高雄市,仁武區,高中職
124322,市立路竹高中,校本部校區,市立路竹高中_校本部校區,高雄市路竹區中華路292號,120.2522125,22.85538483,高雄市,路竹區,高中職
124333,市立六龜高中,校本部校區,市立六龜高中_校本部校區,高雄市六龜區義寶里光復路212號,120.634613,22.99313927,高雄市,六龜區,高中職
124340,市立福誠高中,校本部校區,市立福誠高中_校本部校區,高雄市鳳山區五甲三路176號,120.3238831,22.59048653,高雄市,鳳山區,高中職
130302,國立屏東女中,校本部校區,國立屏東女中_校本部校區,屏東市仁愛路94號,120.4942093,22.67527008,屏東縣,屏東市,高中職
130306,國立潮州高中,校本部校區,國立潮州高中_校本部校區,屏東縣潮洲鎮中山路11號,120.544693,22.54950333,屏東縣,潮州鎮,高中職
130322,國立屏北高中,校本部校區,國立屏北高中_校本部校區,屏東縣鹽埔鄉彭厝村莒光路168號,120.5449829,22.75963593,屏東縣,鹽埔鄉,高中職
130401,國立內埔農工,校本部校區,國立內埔農工_校本部校區,屏東縣內埔鄉水門村成功路83號,120.6422958,22.70897293,屏東縣,內埔鄉,高中職
130403,國立屏東高工,校本部校區,國立屏東高工_校本部校區,屏東縣屏東市建國路25號,120.4862442,22.66314125,屏東縣,屏東市,高中職
130404,國立佳冬高農,校本部校區,國立佳冬高農_校本部校區,屏東縣佳冬鄉佳冬村佳農街67號,120.5640488,22.41363525,屏東縣,佳冬鄉,高中職
130410,國立東港海事,校本部校區,國立東港海事_校本部校區,屏東縣東港鎮豐漁街66號,120.4421692,22.46536064,屏東縣,東港鎮,高中職
130417,國立恆春工商,校本部校區,國立恆春工商_校本部校區,屏東縣恆春鎮恆南路38號,120.7494278,21.99378395,屏東縣,恆春鎮,高中職
130C03,國立屏東高工進修學校,,國立屏東高工進修學校_,屏東縣屏東市建國路25號,120.4868469,22.66308975,屏東縣,屏東市,高中職
130C04,國立佳冬高農進修學校,,國立佳冬高農進修學校_,屏東縣佳冬鄉佳冬村佳農路67號,120.5642853,22.41308594,屏東縣,佳冬鄉,高中職
130C17,國立恆春工商進修學校,,國立恆春工商進修學校_,屏東縣恆春鎮恆南路38號,120.7492371,21.99383736,屏東縣,恆春鎮,高中職
131307,財團法人屏榮高中,校本部校區,財團法人屏榮高中_校本部校區,屏東縣屏東市豐田里民學路100號,120.5040817,22.67427063,屏東縣,屏東市,高中職
131308,私立陸興高中,校本部校區,私立陸興高中_校本部校區,屏東縣屏東市豐田里廣東路150號,120.5002747,22.67461014,屏東縣,屏東市,高中職
131311,私立美和高中,校本部校區,私立美和高中_校本部校區,屏東縣內埔鄉美和村學人路323號,120.559166,22.60109329,屏東縣,內埔鄉,高中職
131409,私立民生家商,校本部校區,私立民生家商_校本部校區,屏東市民生東路12號,120.5135498,22.65882111,屏東縣,屏東市,高中職
131416,私立華洲工家,校本部校區,私立華洲工家_校本部校區,屏東市歸心里歸仁路63巷99號,120.4996872,22.6535511,屏東縣,屏東市,高中職
131418,私立日新工商,校本部校區,私立日新工商_校本部校區,屏東縣潮州鎮太平路224號,120.536293,22.55701828,屏東縣,潮州鎮,高中職
131B07,私立屏榮高中進修學校,,私立屏榮高中進修學校_,屏東縣屏東市豐田里民學路100號,120.5040207,22.67695045,屏東縣,屏東市,高中職
131B12,私立新基高中進修學校,,私立新基高中進修學校_,屏東縣東港鎮新基街128號,120.4535141,22.46972656,屏東縣,東港鎮,高中職
131C09,私立民生家商進修學校,,私立民生家商進修學校_,屏東市民生東路12號,120.5138702,22.65894699,屏東縣,屏東市,高中職
131C16,私立華洲工家進修學校,,私立華洲工家進修學校_,屏東市歸心里歸仁路63巷99號,120.4995651,22.65355682,屏東縣,屏東市,高中職
131C18,私立日新工商進修學校,,私立日新工商進修學校_,屏東縣潮州鎮太平路224號,120.536293,22.5569725,屏東縣,潮州鎮,高中職
134304,縣立大同高中,校本部校區,縣立大同高中_校本部校區,屏東縣屏東市和平路429號,120.477684,22.67804909,屏東縣,屏東市,高中職
134321,縣立枋寮高中,校本部校區,縣立枋寮高中_校本部校區,屏東縣枋寮鄉義民路3號,120.5907593,22.37109184,屏東縣,枋寮鄉,高中職
134321,縣立枋寮高中,正成校區,縣立枋寮高中_正成校區,屏東縣枋寮鄉義民路3號,120.6611176,22.26416206,屏東縣,枋山鄉,高中職
134324,縣立東港高中,校本部校區,縣立東港高中_校本部校區,屏東縣東港鎮船頭路1號,120.4554825,22.46518707,屏東縣,東港鎮,高中職
134334,縣立來義高中,屏東縣立來義高中,縣立來義高中_屏東縣立來義高中,屏東縣來義鄉古樓村中正路147號,120.6866379,22.50241089,屏東縣,來義鄉,高中職
140222,國立臺東專科學校附設進修學校,校本部校區,國立臺東專科學校附設進修學校_校本部校區,臺東縣臺東市正氣北路889號,121.124397,22.757993,臺東縣,臺東市,高中職
140301,國立臺東大學附屬體育高中,校本部校區,國立臺東大學附屬體育高中_校本部校區,臺東縣臺東市體中路1號,121.0752335,22.76448441,臺東縣,臺東市,高中職
140302,國立臺東女中,校本部校區,國立臺東女中_校本部校區,臺東縣臺東市四維路一段690號,121.1534958,22.76089287,臺東縣,臺東市,高中職
140303,國立臺東高中,校本部校區,國立臺東高中_校本部校區,臺東市中華路1段721號,121.1466064,22.74776268,臺東縣,臺東市,高中職
140404,國立關山工商,校本部校區,國立關山工商_校本部校區,臺東縣關山鎮民權路58號,121.1592178,23.04794693,臺東縣,關山鎮,高中職
140405,國立臺東高商,校本部校區,國立臺東高商_校本部校區,臺東縣臺東市正氣路440號,121.1448212,22.75762177,臺東縣,臺東市,高中職
140408,國立成功商水,校本部校區,國立成功商水_校本部校區,臺東縣成功鎮太平路52號,121.3820343,23.10552979,臺東縣,成功鎮,高中職
140C01,國立臺東專科學校附設農工進修學校,,國立臺東專科學校附設農工進修學校_,臺東縣臺東市正氣北路889號,121.1238937,22.75692558,臺東縣,臺東市,高中職
140C05,國立臺東高商進修學校,,國立臺東高商進修學校_,臺東縣臺東市正氣路440號,121.1449051,22.75761414,臺東縣,臺東市,高中職
140C08,國立成功商水進修學校,,國立成功商水進修學校_,臺東縣成功鎮太平路52號,121.3819809,23.10448456,臺東縣,成功鎮,高中職
141301,臺東縣均一高中,校本部校區,臺東縣均一高中_校本部校區,臺東縣臺東市中興路二段366巷36號,121.1263346,22.76988496,臺東縣,臺東市,高中職
141307,私立育仁高中,校本部校區,私立育仁高中_校本部校區,臺東縣臺東市中興路四段485號,121.0930557,22.77416611,臺東縣,臺東市,高中職
141406,私立公東高工,校本部校區,私立公東高工_校本部校區,臺東縣臺東市中興路一段560號,121.135231,22.76729584,臺東縣,臺東市,高中職
141501,均一學校財團法人臺東縣均一高級中等學校,校本部校區,均一學校財團法人臺東縣均一高級中等學校_校本部校區,臺東縣臺東市中興路2段366巷36號,121.1263657,22.76977539,臺東縣,臺東市,高中職
144322,縣立蘭嶼高中,校本部校區,縣立蘭嶼高中_校本部校區,臺東縣蘭嶼鄉椰油村37號,121.5113373,22.04892349,臺東縣,蘭嶼鄉,高中職
144B22,縣立蘭嶼高中進修學校,,縣立蘭嶼高中進修學校_,臺東縣蘭嶼鄉椰油村37號,121.5112381,22.0488739,臺東縣,蘭嶼鄉,高中職
150302,國立花蓮女中,校本部校區,國立花蓮女中_校本部校區,花蓮縣花蓮市菁華街2號,121.6152267,23.97944832,花蓮縣,花蓮市,高中職
150303,國立花蓮高中,校本部校區,國立花蓮高中_校本部校區,970花蓮縣花蓮市民權路42號,121.6259384,23.98672104,花蓮縣,花蓮市,高中職
150309,國立玉里高中,校本部校區,國立玉里高中_校本部校區,花蓮縣玉里鎮中華路424號,121.3190994,23.34701729,花蓮縣,玉里鎮,高中職
150401,國立花蓮高農,校本部校區,國立花蓮高農_校本部校區,花蓮縣花蓮市建國路161號,121.5980988,23.98256111,花蓮縣,花蓮市,高中職
150401,國立花蓮高農,畜牧場校區,國立花蓮高農_畜牧場校區,花蓮縣花蓮市建國路161號,121.5860062,23.95651054,花蓮縣,吉安鄉,高中職
150401,國立花蓮高農,林場辦公室校區,國立花蓮高農_林場辦公室校區,花蓮縣花蓮市建國路161號,121.4983139,23.86548233,花蓮縣,壽豐鄉,高中職
150404,國立花蓮高工,校本部校區,國立花蓮高工_校本部校區,花蓮市府前路27號,121.6199188,23.99871826,花蓮縣,花蓮市,高中職
150405,國立花蓮高商,校本部校區,國立花蓮高商_校本部校區,花蓮市中山路418號,121.602478,23.98652267,花蓮縣,花蓮市,高中職
150411,國立光復高級商工職業學校,校本部校區,國立光復高級商工職業學校_校本部校區,花蓮縣光復鄉林森路100號,121.4271698,23.66734695,花蓮縣,光復鄉,高中職
150B09,國立玉里高中進修學校,,國立玉里高中進修學校_,花蓮縣玉里鎮中華路424號,121.3185654,23.34602737,花蓮縣,玉里鎮,高中職
150C04,國立花蓮高工進修學校,國立花蓮高工進修學校,國立花蓮高工進修學校_國立花蓮高工進修學校,花蓮縣花蓮市府前路27號,121.6189804,23.99891281,花蓮縣,花蓮市,高中職
150C05,國立花蓮高商進修學校,,國立花蓮高商進修學校_,花蓮市中山路418號,121.6033401,23.98680305,花蓮縣,花蓮市,高中職
150C11,國立光復商工進修學校,,國立光復商工進修學校_,花蓮縣光復鄉林森路100號,121.4275665,23.66705322,花蓮縣,光復鄉,高中職
151306,私立海星高中,校本部校區,私立海星高中_校本部校區,花蓮縣新城鄉嘉新村嘉新路36號,121.6136093,24.00737381,花蓮縣,新城鄉,高中職
151307,私立四維高中,校本部校區,私立四維高中_校本部校區,花蓮市中山路一段200號,121.5915604,24.00041008,花蓮縣,花蓮市,高中職
151408,私立國光商工,校本部校區,私立國光商工_校本部校區,花蓮縣花蓮市中正路108號,121.5978165,23.96939087,花蓮縣,花蓮市,高中職
151410,私立上騰工商,校本部校區,私立上騰工商_校本部校區,花蓮縣吉安鄉吉興四街101號,121.5586472,23.97210693,花蓮縣,吉安鄉,高中職
151C08,私立國光商工進修學校,校本部校區,私立國光商工進修學校_校本部校區,花蓮縣花蓮市中正路108號,121.5975647,23.96945763,花蓮縣,花蓮市,高中職
151C10,私立上騰工商進修學校,,私立上騰工商進修學校_,花蓮縣吉安鄉吉安村吉興四街101號,121.5589066,23.97203445,花蓮縣,吉安鄉,高中職
151G91,私立正德高中進修學校,校本部校區,私立正德高中進修學校_校本部校區,花蓮縣吉安鄉吉安路6段700號,121.5275269,23.94852829,花蓮縣,吉安鄉,高中職
154301,花蓮縣立體育高級中等學校,校本部校區,花蓮縣立體育高級中等學校_校本部校區,花蓮市達固湖灣大路21號,121.5842819,24.00297737,花蓮縣,花蓮市,高中職
160302,國立馬公高中,校本部校區,國立馬公高中_校本部校區,澎湖縣馬公市中華路369號,119.5803833,23.57110977,澎湖縣,馬公市,高中職
160401,國立澎湖海事水產,校本部校區,國立澎湖海事水產_校本部校區,澎湖縣馬公市民族路63號,119.5643768,23.57094574,澎湖縣,馬公市,高中職
170301,國立基隆女中,校本部校區,國立基隆女中_校本部校區,基隆市信義區東信路324號,121.7594757,25.12935066,基隆市,信義區,高中職
170302,國立基隆高中,校本部校區,國立基隆高中_校本部校區,基隆市暖暖區源遠路20號,121.7329178,25.10769272,基隆市,暖暖區,高中職
170403,國立基隆海事,校本部校區,國立基隆海事_校本部校區,基隆市中正區祥豐街246號,121.7714767,25.14803696,基隆市,中正區,高中職
170404,國立基隆商工,校本部校區,國立基隆商工_校本部校區,基隆市七堵區東新街22號,121.717308,25.09489632,基隆市,七堵區,高中職
170B01,國立基隆女中進修學校,,國立基隆女中進修學校_,基隆市信義區東信路324號,121.7593155,25.12893867,基隆市,信義區,高中職
170C03,國立基隆海事進修學校,,國立基隆海事進修學校_,基隆市中正區祥豐街246號,121.7713165,25.14752007,基隆市,中正區,高中職
170C04,國立基隆商工進修學校,,國立基隆商工進修學校_,基隆市七堵區東新街22號,121.7171783,25.09402275,基隆市,七堵區,高中職
171306,私立二信高中,校本部校區,私立二信高中_校本部校區,基隆市中正區立德路243號,121.771225,25.14426041,基隆市,中正區,高中職
171405,光隆家商,校本部校區,光隆家商_校本部校區,基隆市信義區信二路264號,121.7494431,25.12995911,基隆市,信義區,高中職
171407,私立培德工家,校本部校區,私立培德工家_校本部校區,基隆市信義區培德路73號,121.7705307,25.1305809,基隆市,信義區,高中職
171B08,私立聖心高中進修學校,,私立聖心高中進修學校_,基隆市中山區西定路166號,121.7344742,25.13590813,基隆市,中山區,高中職
171C05,私立光隆家商進修學校,,私立光隆家商進修學校_,基隆市信義區信二路264號,121.7497253,25.13016129,基隆市,信義區,高中職
173304,市立中山高中,大德校區,市立中山高中_大德校區,基隆市中山區文化路162號,121.734581,25.1402359,基隆市,中山區,高中職
173304,市立中山高中,校本部,市立中山高中_校本部,基隆市中山區文化路162號,121.7309647,25.1537838,基隆市,中山區,高中職
173306,市立安樂高中,校本部校區,市立安樂高中_校本部校區,基隆市安一路360號,121.7300873,25.13519859,基隆市,安樂區,高中職
173307,市立暖暖高中,校本部校區,市立暖暖高中_校本部校區,205 基隆市暖暖區暖中路112號,121.7376022,25.10793877,基隆市,暖暖區,高中職
173314,市立八斗高中,校本部校區,市立八斗高中_校本部校區,基隆市中正區新豐街100號,121.7885012,25.14005893,基隆市,中正區,高中職
173514,市立八斗高中,校本部校區,市立八斗高中_校本部校區,基隆市中正區新豐街100號,121.787941,25.14030838,基隆市,中正區,高中職
180301,國立科學工業園區實驗高中,校本部校區,國立科學工業園區實驗高中_校本部校區,新竹市介壽路300號,121.0161896,24.77739716,新竹市,東區,高中職
180302,國立新竹女中,校本部校區,國立新竹女中_校本部校區,新竹市東區中華路二段270號,120.9757767,24.80505371,新竹市,東區,高中職
180309,國立新竹高中,校本部校區,國立新竹高中_校本部校區,新竹市東區學府路36號,120.9801788,24.79515266,新竹市,東區,高中職
180403,國立新竹高商,校本部校區,國立新竹高商_校本部校區,新竹市東區學府路128號,120.9844894,24.79578209,新竹市,東區,高中職
180404,國立新竹高工,校本部校區,國立新竹高工_校本部校區,新竹市東區中華路二段2號,120.9830475,24.80942917,新竹市,東區,高中職
180C03,國立新竹高商進修學校,,國立新竹高商進修學校_,新竹市東區學府路128號,120.9842606,24.7951088,新竹市,東區,高中職
180C04,國立新竹高工進修學校,,國立新竹高工進修學校_,新竹市東區中華路二段2號,120.9836197,24.81061172,新竹市,東區,高中職
181305,私立光復高中,校本部校區,私立光復高中_校本部校區,新竹市東區光復路二段153號,120.993042,24.7987442,新竹市,東區,高中職
181306,私立曙光女中,校本部校區,私立曙光女中_校本部校區,新竹市北大路61號,120.9727173,24.81195641,新竹市,東區,高中職
181307,私立磐石高中,校本部校區,私立磐石高中_校本部校區,新竹市北區西大路683號,120.9569626,24.81089973,新竹市,北區,高中職
181307,私立磐石高中,國中校區,私立磐石高中_國中校區,新竹市北區西大路683號,120.9561081,24.80888939,新竹市,北區,高中職
181308,私立世界高中,校本部校區,私立世界高中_校本部校區,新竹市東區光復路一段257號,121.0194702,24.78112984,新竹市,東區,高中職
181B05,私立光復高中進修學校,,私立光復高中進修學校_,新竹市東區光復路二段153號,120.9932632,24.79810715,新竹市,東區,高中職
181B07,私立磐石高中進修學校,,私立磐石高中進修學校_,新竹市北區西大路683號,120.9570389,24.81080437,新竹市,北區,高中職
181B08,私立世界高中進修學校,,私立世界高中進修學校_,新竹市東區光復路一段257號,121.0198059,24.7807045,新竹市,東區,高中職
183306,市立成德高中,校本部校區,市立成德高中_校本部校區,新竹市北區崧嶺路128巷38號,120.9532089,24.79094887,新竹市,北區,高中職
183307,市立香山高中,校本部校區,市立香山高中_校本部校區,300新竹市香山區元培街124號,120.9303741,24.78503418,新竹市,香山區,高中職
183313,市立建功高中,校本部校區,市立建功高中_校本部校區,新竹市建功2路17號,121.002182,24.79790878,新竹市,東區,高中職
183B07,市立香山高中進修學校,,市立香山高中進修學校_,新竹市香山區元培街124號,120.9294586,24.78527069,新竹市,香山區,高中職
190301,臺中市立臺中女子高級中等學校,校本部校區,臺中市立臺中女子高級中等學校_校本部校區,臺中市西區自由路一段95號,120.6773758,24.1359024,臺中市,西區,高中職
190302,臺中市立臺中一中,校本部校區,臺中市立臺中一中_校本部校區,臺中市北區育才街2號,120.6869888,24.14917755,臺中市,北區,高中職
190303,臺中市立臺中第二高級中等學校,校本部校區,臺中市立臺中第二高級中等學校_校本部校區,臺中市北區英士路109號,120.6752014,24.15319252,臺中市,北區,高中職
190315,臺中市立文華高級中等學校,校本部校區,臺中市立文華高級中等學校_校本部校區,臺中市407西屯區寧夏路240號,120.6601105,24.17018127,臺中市,西屯區,高中職
190404,市立臺中家商,校本部校區,市立臺中家商_校本部校區,401臺中市和平街50號,120.6846085,24.13351822,臺中市,東區,高中職
190406,國立中興大學附屬臺中高級農業職業學校,校本部校區,國立中興大學附屬臺中高級農業職業學校_校本部校區,臺中市東區台中路283號,120.6859818,24.12750816,臺中市,東區,高中職
190406,國立中興大學附屬臺中高級農業職業學校,第二校區,國立中興大學附屬臺中高級農業職業學校_第二校區,臺中市東區台中路283號,120.6480255,24.16583061,臺中市,西屯區,高中職
190406,國立中興大學附屬臺中高級農業職業學校,第三校區,國立中興大學附屬臺中高級農業職業學校_第三校區,臺中市東區台中路283號,120.685173,24.12873077,臺中市,東區,高中職
190407,國立臺中高工,校本部校區,國立臺中高工_校本部校區,臺中市南區高工路191號,120.6614761,24.11443901,臺中市,南區,高中職
190C01,國立臺中技院附高商進校,,國立臺中技院附高商進校_,臺中市北區三民路三段129號,120.6830139,24.15039063,臺中市,北區,高中職
190C04,國立臺中家商進修學校,,國立臺中家商進修學校_,臺中市東區和平街50號,120.6857605,24.13327789,臺中市,東區,高中職
190C06,國立臺中高農進修學校,,國立臺中高農進修學校_,臺中市東區台中路283號,120.6847916,24.12796593,臺中市,東區,高中職
190C07,國立臺中高工進修學校,,國立臺中高工進修學校_,臺中市南區高工路191號,120.6615143,24.11677361,臺中市,南區,高中職
191301,財團法人東海大學附屬高級中等學校高中部,校本部校區,財團法人東海大學附屬高級中等學校高中部_校本部校區,臺中市西屯區臺灣大道四段1727號,120.6053085,24.18240929,臺中市,西屯區,高中職
191302,私立葳格高中,校本部校區,私立葳格高中_校本部校區,臺中市北屯區軍福十八路328號,120.7115631,24.17897987,臺中市,北屯區,高中職
191305,私立新民高中,校本部校區,私立新民高中_校本部校區,臺中市北區健行路111號,120.6867905,24.15744972,臺中市,北區,高中職
191308,私立宜寧高中,校本部校區,私立宜寧高中_校本部校區,臺中市西屯區東大路一段555號,120.6594696,24.119524,臺中市,南區,高中職
191311,私立衛道高中,校本部校區,私立衛道高中_校本部校區,臺中市北屯區四平路161號,120.6745605,24.18393898,臺中市,北屯區,高中職
191313,私立曉明女中,校本部校區,私立曉明女中_校本部校區,404臺中市北區中清路一段606號,120.6737213,24.16828918,臺中市,北區,高中職
191314,私立嶺東高中,校本部校區,私立嶺東高中_校本部校區,台中市南屯區嶺東路2號,120.6102676,24.13729477,臺中市,南屯區,高中職
191412,光華學校財團法人臺中市光華高級工業職業學校工,校本部校區,光華學校財團法人臺中市光華高級工業職業學校工_校本部校區,台中市太平區東平路18號,120.7369537,24.13763046,臺中市,太平區,高中職
191B05,私立新民高中進修學校,,私立新民高中進修學校_,臺中市北區三民路三段289號,120.6869965,24.1569519,臺中市,北區,高中職
191B14,私立嶺東高中進修學校,,私立嶺東高中進修學校_,臺中市南屯區春社里嶺東路2號,120.6102829,24.13809586,臺中市,南屯區,高中職
191C12,私立光華高工進修學校,,私立光華高工進修學校_,臺中市北區進化路515號,120.6941757,24.15822411,臺中市,北區,高中職
193301,市立臺中女中,校本部校區,市立臺中女中_校本部校區,臺中市西區自由路一段95號,120.6773754,24.1358947,臺中市,西區,高中職
193302,市立臺中一中,校本部校區,市立臺中一中_校本部校區,臺中市北區育才街2號,120.6869878,24.14916971,臺中市,北區,高中職
193303,市立忠明高中,校本部校區,市立忠明高中_校本部校區,台中市西區博館路166號,120.6637192,24.15786743,臺中市,西區,高中職
193313,市立西苑高中,校本部校區,市立西苑高中_校本部校區,臺中市西屯區西苑路268號,120.6428833,24.18610191,臺中市,西屯區,高中職
193315,市立東山高中,校本部校區,市立東山高中_校本部校區,406 臺中市北屯區景賢六路一段200號,120.7128525,24.16614151,臺中市,北屯區,高中職
193316,市立惠文高中,校本部校區,市立惠文高中_校本部校區,台中市南屯區公益路二段298號,120.6398468,24.15192413,臺中市,南屯區,高中職
193404,市立臺中家商,校本部校區,市立臺中家商_校本部校區,臺中市東區和平街50號,120.6846095,24.13350992,臺中市,東區,高中職
193407,市立臺中高工,校本部校區,市立臺中高工_校本部校區,臺中市南區高工路191號,120.6614789,24.11443832,臺中市,南區,高中職
194303,市立臺中二中,校本部校區,市立臺中二中_校本部校區,臺中市北區英士路109號,120.6752002,24.15318486,臺中市,北區,高中職
194315,市立文華高中,校本部校區,市立文華高中_校本部校區,臺中市西屯區寧夏路240號,120.6601115,24.17017354,臺中市,西屯區,高中職
1A01,高苑科技大學附進修專校,,高苑科技大學附進修專校_,高雄市路竹區中山路一八二一號,120.2601013,22.85924911,高雄市,路竹區,高中職
1A02,和春技術學院附進修專校,,和春技術學院附進修專校_,高雄市大寮區信義路40號,120.3915863,22.63396263,高雄市,大寮區,高中職
1A03,環球科技大學附進修專校,,環球科技大學附進修專校_,雲林縣斗六市嘉東里鎮南路1221號,120.5556335,23.68036652,雲林縣,斗六市,高中職
1A04,永達技術學院附進修專校,校本部校區,永達技術學院附進修專校_校本部校區,屏東縣麟洛鄉麟蹄村中山路三一六號,120.8898926,24.4762764,苗栗縣,獅潭鄉,高中職
1A05,景文科技大學附進修專校,,景文科技大學附進修專校_,新北市新店區安忠路九九號,121.5092773,24.95295715,新北市,新店區,高中職
1A06,中州科技大學附進修專校,,中州科技大學附進修專校_,彰化縣員林鎮山腳路三段二巷六號,120.6040344,23.95757484,彰化縣,員林鎮,高中職
1A07,美和科技大學附進修專校,,美和科技大學附進修專校_,屏東縣內埔鄉屏光路二三號,120.5603638,22.60336685,屏東縣,內埔鄉,高中職
1A08,南開科技大學附進修專校,,南開科技大學附進修專校_,南投縣草屯鎮中正路568號,120.6967239,23.9810791,南投縣,草屯鎮,高中職
1A09,東方技術學院附進修專校,,東方技術學院附進修專校_,高雄市湖內區東方路一一○號,120.2454071,22.88069916,高雄市,湖內區,高中職
1A10,遠東科技大學附進修專校,,遠東科技大學附進修專校_,臺南市新市區中華路四九號,120.2925873,23.08218765,臺南市,新市區,高中職
1A11,吳鳳技術學院附進修專校,,吳鳳技術學院附進修專校_,嘉義縣民雄鄉建國路二段一一七號,120.4361496,23.53581429,嘉義縣,民雄鄉,高中職
1A12,臺灣觀光學院附進修專校,,臺灣觀光學院附進修專校_,花蓮縣壽豐鄉豐山村中興街268號,121.4881973,23.8596859,花蓮縣,壽豐鄉,高中職
1A13,亞太創意技術學院附進修專校,,亞太創意技術學院附進修專校_,苗栗縣頭份鎮珊瑚里學府路110號,120.9693909,24.6833992,苗栗縣,頭份鎮,高中職
1A14,醒吾技術學院附進修專校,,醒吾技術學院附進修專校_,新北市林口區粉寮路1段101號,121.3966675,25.08075714,新北市,林口區,高中職
1A15,蘭陽技術學院附進修專校,,蘭陽技術學院附進修專校_,宜蘭縣頭城鎮復興路七九號,121.8175888,24.86401176,宜蘭縣,頭城鎮,高中職
1A16,修平科技大學附進修專校,,修平科技大學附進修專校_,臺中市大里區工業路一一號,120.713768,24.09531212,臺中市,大里區,高中職
1A17,嶺東科技大學附進修專校,,嶺東科技大學附進修專校_,臺中市南屯區嶺東路一號,120.6096725,24.13780785,臺中市,南屯區,高中職
1A18,崑山科技大學附進修專校,,崑山科技大學附進修專校_,臺南市永康區大灣路九四九號,120.25383,22.99620438,臺南市,永康區,高中職
1A19,萬能科技大學附進修專校,,萬能科技大學附進修專校_,桃園縣中壢市水尾里萬能路一號,121.231163,24.99180031,桃園市,中壢區,高中職
1A20,中國科技大學附進修專校,,中國科技大學附進修專校_,臺北市興隆路三段五六號,121.5553741,24.9991436,臺北市,文山區,高中職
1A21,中華科技大學附進修專校,,中華科技大學附進修專校_,臺北市南港區研究院路三段二四五號,121.6132813,25.03396988,臺北市,南港區,高中職
1A22,正修科技大學附進修專校,,正修科技大學附進修專校_,高雄市鳥松區澄清路八四○號,120.3492737,22.65056992,高雄市,鳥松區,高中職
1A23,龍華科技大學附進修專校,校本部校區,龍華科技大學附進修專校_校本部校區,桃園市龜山區萬壽路一段三○○號,121.3996652,25.0192663,桃園市,龜山區,高中職
1A24,德明財經科技大學附進修專校,,德明財經科技大學附進修專校_,臺北市內湖區環山路一段五六號,121.565506,25.08653259,臺北市,內湖區,高中職
1A25,致理科技大學附進修專校,,致理科技大學附進修專校_,新北市板橋區文化路一段三一三號,121.4651947,25.02100182,新北市,板橋區,高中職
1A26,東南科技大學附進修專校,,東南科技大學附進修專校_,新北市深坑區北深路三段一五二號,121.6044464,25.0032959,新北市,深坑區,高中職
1A27,明新科技大學附進修專校,,明新科技大學附進修專校_,新竹縣新豐鄉新興路一號,120.9912186,24.86385155,新竹縣,新豐鄉,高中職
1A28,南亞技術學院附進修專校,,南亞技術學院附進修專校_,桃園縣中壢市中山東路三段四一四號,121.2512665,24.93592072,桃園市,中壢區,高中職
1A29,北台灣科技院附進修專校,,北台灣科技院附進修專校_,臺北市北投區學園路2號,121.4688797,25.1336174,臺北市,北投區,高中職
1A30,大同技術學院附進修專校,,大同技術學院附進修專校_,嘉義市東區彌陀路二五三號,120.4648666,23.46971703,嘉義市,東區,高中職
1A31,大仁科技大學附進修專校,,大仁科技大學附進修專校_,屏東縣鹽埔鄉維新路二○號,120.542717,22.72602654,屏東縣,鹽埔鄉,高中職
1A32,聖約翰科技大學附進修專校,校本部校區,聖約翰科技大學附進修專校_校本部校區,新北市淡水區淡金路四段四九九號,121.450531,25.22733,新北市,淡水區,高中職
1A33,崇右技術學院附進修專校,,崇右技術學院附進修專校_,基隆市義七路四○號,121.7542572,25.13236046,基隆市,信義區,高中職
1A34,健行科技大學附進修專校,校本部校區,健行科技大學附進修專校_校本部校區,桃園市中壢區健行路二二九號,121.229674,24.947326,桃園市,中壢區,高中職
1A35,亞東技術學院附進修專校,校本部校區,亞東技術學院附進修專校_校本部校區,新北市板橋區四川路二段五八號,121.453057,24.995282,新北市,板橋區,高中職
1A36,經國管理暨健康學院附進修專校,,經國管理暨健康學院附進修專校_,基隆市中山區復興路三三六號,121.7269363,25.14125252,基隆市,中山區,高中職
1A37,建國科技大學附進修專校,,建國科技大學附進修專校_,彰化縣彰化市介壽北路一號,120.5500565,24.06624603,彰化縣,彰化市,高中職
1A38,中華科技大學附進修學院,,中華科技大學附進修學院_,臺北市南港區研究院路三段二四五號,121.6132813,25.03396988,臺北市,南港區,高中職
1A39,正修科技大學附進修學院,,正修科技大學附進修學院_,高雄市鳥松區澄清路八四○號,120.3492737,22.65056992,高雄市,鳥松區,高中職
1A40,嶺東科技大學附進修學院,,嶺東科技大學附進修學院_,臺中市南屯區嶺東路一號,120.6096725,24.13780785,臺中市,南屯區,高中職
1A41,高苑科技大學附進修學院,,高苑科技大學附進修學院_,高雄市路竹區中山路一八二一號,120.2601013,22.85924911,高雄市,路竹區,高中職
1A42,建國科技大學附進修學院,,建國科技大學附進修學院_,彰化縣彰化市介壽北路一號,120.5500565,24.06624603,彰化縣,彰化市,高中職
1A43,明志科技大學附進修學院,校本部校區,明志科技大學附進修學院_校本部校區,新北市泰山區貴子里工專路八四號,121.422162,25.040668,新北市,泰山區,高中職
1A44,和春技術學院附進修學院,,和春技術學院附進修學院_,高雄市大寮區信義路40號,120.3915863,22.63396263,高雄市,大寮區,高中職
1A45,龍華科技大學附進修學院,校本部校區,龍華科技大學附進修學院_校本部校區,桃園市龜山區萬壽路一段三○○號,121.4011542,25.0188492,桃園市,龜山區,高中職
1A46,景文科技大學附進修學院,,景文科技大學附進修學院_,新北市新店區安忠路九九號,121.5092773,24.95295715,新北市,新店區,高中職
1A47,南台科技大學附進修學院,校本部校區,南台科技大學附進修學院_校本部校區,臺南市永康區尚頂里南台街一號,120.2209968,23.0245799,臺南市,永康區,高中職
1A48,北台灣科技院附進修學院,,北台灣科技院附進修學院_,臺北市北投區學園路2號,121.4688797,25.1336174,臺北市,北投區,高中職
1A49,德明財經科技大學附進修學院,,德明財經科技大學附進修學院_,臺北市內湖區環山路一段五六號,121.565506,25.08653259,臺北市,內湖區,高中職
1A50,中國科技大學附進修學院,,中國科技大學附進修學院_,臺北市興隆路三段五六號,121.5553741,24.9991436,臺北市,文山區,高中職
1A51,致理科技大學附進修學院,,致理科技大學附進修學院_,新北市板橋區文化路一段三一三號,121.4651947,25.02100182,新北市,板橋區,高中職
1A52,醒吾技術學院附進修學院,,醒吾技術學院附進修學院_,新北市林口區粉寮路1段101號,121.3966675,25.08075714,新北市,林口區,高中職
1A53,萬能科技大學附進修學院,,萬能科技大學附進修學院_,桃園縣中壢市水尾里萬能路一號,121.231163,24.99180412,桃園市,中壢區,高中職
1A54,南亞技術學院附進修學院,,南亞技術學院附進修學院_,桃園縣中壢市中山東路三段四一四號,121.2512665,24.93592072,桃園市,中壢區,高中職
1A55,清雲科技大學附進修學院,,清雲科技大學附進修學院_,桃園縣中壢市健行路二二九號,121.2302246,24.94747353,桃園市,中壢區,高中職
1A56,明新科技大學附進修學院,,明新科技大學附進修學院_,新竹縣新豐鄉新興路一號,120.9912186,24.86385155,新竹縣,新豐鄉,高中職
1A57,修平科技大學附進修學院,,修平科技大學附進修學院_,臺中市大里區工業路一一號,120.713768,24.09531212,臺中市,大里區,高中職
1A58,環球科技大學附進修學院,,環球科技大學附進修學院_,雲林縣斗六市嘉東里鎮南路1221號,120.5556335,23.68036652,雲林縣,斗六市,高中職
1A59,吳鳳技術學院附進修學院,,吳鳳技術學院附進修學院_,嘉義縣民雄鄉建國路二段一一七號,120.4361496,23.53581429,嘉義縣,民雄鄉,高中職
1A60,崑山科技大學附進修學院,,崑山科技大學附進修學院_,臺南市永康區大灣路九四九號,120.25383,22.99620438,臺南市,永康區,高中職
1A61,遠東科技大學附進修學院,,遠東科技大學附進修學院_,臺南市新市區中華路四九號,120.2925873,23.08218765,臺南市,新市區,高中職
1A62,美和科技大學附進修學院,,美和科技大學附進修學院_,屏東縣內埔鄉屏光路二三號,120.5603638,22.60336685,屏東縣,內埔鄉,高中職
1A63,大仁科技大學附進修學院,,大仁科技大學附進修學院_,屏東縣鹽埔鄉維新路二○號,120.5430756,22.72678566,屏東縣,鹽埔鄉,高中職
1A64,蘭陽技術學院附進修學院,,蘭陽技術學院附進修學院_,宜蘭縣頭城鎮復興路七九號,121.8175888,24.86401176,宜蘭縣,頭城鎮,高中職
1A65,經國管理暨健康學院附進修學院,,經國管理暨健康學院附進修學院_,基隆市中山區復興路三三六號,121.7269363,25.14125252,基隆市,中山區,高中職
1A66,東南科技大學附進修學院,,東南科技大學附進修學院_,新北市深坑區北深路三段一五二號,121.6044464,25.0032959,新北市,深坑區,高中職
1A67,崇右技術學院附進修學院,,崇右技術學院附進修學院_,基隆市義七路四○號,121.7542572,25.13236046,基隆市,信義區,高中職
1A68,南開科技大學附進修學院,,南開科技大學附進修學院_,南投縣草屯鎮中正路568號,120.6967239,23.9810791,南投縣,草屯鎮,高中職
1A69,永達技術學院附進修學院,校本部校區,永達技術學院附進修學院_校本部校區,屏東縣麟洛鄉麟蹄村中山路三一六號,120.5337601,22.64580917,屏東縣,麟洛鄉,高中職
1A70,亞太創意技術學院附進修學院,,亞太創意技術學院附進修學院_,苗栗縣頭份鎮珊瑚里學府路110號,120.9693909,24.6833992,苗栗縣,頭份鎮,高中職
1A71,嘉南藥理科大附進修學院,,嘉南藥理科大附進修學院_,臺南市仁德區保安里二仁路一段六○號,120.2248383,22.92166519,臺南市,仁德區,高中職
1A72,元培科技大學附進修學院,,元培科技大學附進修學院_,新竹市香山區元培街三○六號,120.9408264,24.77750015,新竹市,香山區,高中職
1A73,台北海洋技術學院附進修專校,,台北海洋技術學院附進修專校_,臺北市士林延平北路九段二一二號,121.4712753,25.10808563,臺北市,士林區,高中職
1A74,樹人醫護管理專校附進修專校,,樹人醫護管理專校附進修專校_,高雄市路竹區環球路四五二號,120.3043594,22.87584496,高雄市,路竹區,高中職
1A75,元培科技大學附進修專校,,元培科技大學附進修專校_,新竹市香山區元培街三○六號,120.9290695,24.78671074,新竹市,香山區,高中職
1A76,東方技術學院附進修學院,,東方技術學院附進修學院_,高雄市湖內區東方路一一○號,120.2454071,22.88069916,高雄市,湖內區,高中職
1A77,華夏技術學院附進修學院,,華夏技術學院附進修學院_,新北市中和區工專路111號,121.507515,24.98108864,新北市,中和區,高中職
1A78,華夏技術學院附進修專校,,華夏技術學院附進修專校_,新北市中和區工專路111號,121.507515,24.98108864,新北市,中和區,高中職
1A79,樹德科技大學附進修專校,,樹德科技大學附進修專校_,高雄市燕巢區橫山里橫山路五九號,120.3764725,22.76406097,高雄市,燕巢區,高中職
1A80,中臺科技大學附進修學院,校本部校區,中臺科技大學附進修學院_校本部校區,臺中市北屯區大坑廓子里一一號,120.7333648,24.1738033,臺中市,北屯區,高中職
1A81,台北海洋技術學院附進修學院,,台北海洋技術學院附進修學院_,臺北市士林延平北路九段二一二號,121.4712753,25.10808563,臺北市,士林區,高中職
1A82,慈濟技術學院附進修學院,,慈濟技術學院附進修學院_,花蓮縣花蓮市建國路二段八八○號,121.5649185,23.99730492,花蓮縣,花蓮市,高中職
1A83,台北海洋科技大學附進修專校,校本部校區,台北海洋科技大學附進修專校_校本部校區,新北市淡水區濱海路三段150號,121.427129,25.191458,新北市,淡水區,高中職
1A84,台北海洋科技大學附進修學院,校本部校區,台北海洋科技大學附進修學院_校本部校區,新北市淡水區濱海路三段150號,121.427129,25.191458,新北市,淡水區,高中職
200302,國立嘉義女中,校本部校區,國立嘉義女中_校本部校區,嘉義市西區垂楊路243號,120.4503326,23.47360039,嘉義市,西區,高中職
200303,國立嘉義高中,校本部校區,國立嘉義高中_校本部校區,嘉義市東區大雅路二段738號,120.4647675,23.47697067,嘉義市,東區,高中職
200401,國立華南高商,校本部校區,國立華南高商_校本部校區,嘉義市東區光彩街69號,120.4590225,23.47901917,嘉義市,東區,高中職
200405,國立嘉義高工,校本部校區,國立嘉義高工_校本部校區,嘉義市東區彌陀路174號,120.464119,23.47212029,嘉義市,東區,高中職
200406,國立嘉義高商,校本部校區,國立嘉義高商_校本部校區,嘉義市東區中山路7號,120.462822,23.48245049,嘉義市,東區,高中職
200407,國立嘉義家職,校本部校區,國立嘉義家職_校本部校區,嘉義市東區體育路7號,120.4584885,23.47340965,嘉義市,東區,高中職
200B03,國立嘉義高中進修學校,,國立嘉義高中進修學校_,嘉義市東區大雅路二段738號,120.4639282,23.47858047,嘉義市,東區,高中職
200C05,國立嘉義高工進修學校,,國立嘉義高工進修學校_,嘉義市東區彌陀路174號,120.46521,23.47183037,嘉義市,東區,高中職
200C06,國立嘉義高商進修學校,,國立嘉義高商進修學校_,嘉義市東區中山路7號,120.4622116,23.48169899,嘉義市,東區,高中職
200C07,國立嘉義家職進修學校,,國立嘉義家職進修學校_,嘉義市東區市宅街57號,120.4587936,23.47253036,嘉義市,東區,高中職
201304,私立興華高中,校本部校區,私立興華高中_校本部校區,嘉義市東區林森東路239號,120.4648132,23.48947906,嘉義市,東區,高中職
201309,私立仁義高中,校本部校區,私立仁義高中_校本部校區,嘉義市東區鹿寮里紅毛埤125之1號,120.4866486,23.45962906,嘉義市,東區,高中職
201310,私立嘉華高中,校本部校區,私立嘉華高中_校本部校區,嘉義市民權東路45號,120.4772797,23.48315048,嘉義市,東區,高中職
201312,私立輔仁高中,校本部校區,私立輔仁高中_校本部校區,嘉義市東區吳鳳南路270號,120.4570389,23.46068001,嘉義市,東區,高中職
201313,私立宏仁女中,校本部校區,私立宏仁女中_校本部校區,嘉義市忠孝路667號,120.4455032,23.50585938,嘉義市,東區,高中職
201314,私立立仁高中,校本部校區,私立立仁高中_校本部校區,嘉義市立仁高中235號,120.4592819,23.46310043,嘉義市,東區,高中職
201408,私立東吳工家,校本部校區,私立東吳工家_校本部校區,嘉義市宣信街252號,120.46035,23.46882057,嘉義市,東區,高中職
201411,私立大同高商,校本部校區,私立大同高商_校本部校區,嘉義市彌陀路255號,120.4644012,23.47031975,嘉義市,東區,高中職
201B09,私立仁義高中進修學校,,私立仁義高中進修學校_,嘉義市東區鹿寮里紅毛埤125之1號,120.4865646,23.45935822,嘉義市,東區,高中職
201C08,私立東吳工家進修學校,,私立東吳工家進修學校_,嘉義市東區宣信街252號,120.4615097,23.46902657,嘉義市,東區,高中職
210303,國立臺南二中,校本部校區,國立臺南二中_校本部校區,台南市北區北門路二段125號,120.2127151,23.00557518,臺南市,北區,高中職
210305,國立臺南一中,校本部、二部,國立臺南一中_校本部、二部,台南市東區民族路一段一號,120.2169266,22.99386215,臺南市,東區,高中職
210306,國立臺南女中,校本部校區,國立臺南女中_校本部校區,臺南市中區大埔街97號,120.2066574,22.9863224,臺南市,中西區,高中職
210309,國立臺南家齊高級中等學校,校本部校區,國立臺南家齊高級中等學校_校本部校區,臺南市中西區健康路一段342號,120.2008133,22.98190308,臺南市,中西區,高中職
210408,國立臺南高商,校本部校區,國立臺南高商_校本部校區,702  臺南市南區健康路一段327號,120.2021408,22.98070526,臺南市,南區,高中職
210416,國立臺南海事,校本部校區,國立臺南海事_校本部校區,台南市安平區世平路1號,120.1504745,22.99318123,臺南市,安平區,高中職
210B05,國立臺南一中進修學校,,國立臺南一中進修學校_,臺南市東區民族路一段1號,120.2163467,22.99477959,臺南市,東區,高中職
210B09,國立家齊女中進修學校,,國立家齊女中進修學校_,臺南市中區健康路一段342號,120.2006531,22.98191452,臺南市,中西區,高中職
210C01,國立成功大學附設高級工業職業進修學校,國立成功大學光復校區,國立成功大學附設高級工業職業進修學校_國立成功大學光復校區,臺南市東區大學路1號(光復校區，唯農大樓),120.2192764,22.99402618,臺南市,東區,高中職
210C08,國立臺南高商進修學校,,國立臺南高商進修學校_,臺南市南區健康路一段327號,120.2025986,22.9805069,臺南市,南區,高中職
211301,私立長榮高中,校本部校區,私立長榮高中_校本部校區,臺南市東區林森路二段79號,120.2221222,22.98918343,臺南市,東區,高中職
211302,私立長榮女中,校本部校區,私立長榮女中_校本部校區,臺南市東區長榮路二段135號,120.2197266,22.99112892,臺南市,東區,高中職
211304,財團法人聖功女中,校本部校區,財團法人聖功女中_校本部校區,臺南市北區北園街87巷64號,120.2229004,23.01534271,臺南市,北區,高中職
211310,私立光華高中,校本部校區,私立光華高中_校本部校區,臺南市東區勝利路41號,120.2168961,22.98908234,臺南市,東區,高中職
211314,私立六信高中,校本部校區,私立六信高中_校本部校區,臺南市南區新都路20號,120.2024994,22.97403526,臺南市,南區,高中職
211315,私立瀛海高中,校本部校區,私立瀛海高中_校本部校區,臺南市安南區長溪路一段76號,120.2113571,23.03575516,臺南市,安南區,高中職
211317,私立崑山高中,校本部校區,私立崑山高中_校本部校區,臺南市北區開元路444號,120.2276001,23.01073074,臺南市,北區,高中職
211318,私立德光高中,校本部校區,私立德光高中_校本部校區,臺南市東區德光街106號,120.2211075,22.97934151,臺南市,東區,高中職
211320,財團法人慈濟高中,中學部校區,財團法人慈濟高中_中學部校區,臺南市安平區建平五街111號,120.179039,22.98648262,臺南市,安平區,高中職
211320,財團法人慈濟高中,小學部校區,財團法人慈濟高中_小學部校區,臺南市安平區建平五街111號,120.1764908,22.98634338,臺南市,安平區,高中職
211407,私立南英商工,校本部校區,私立南英商工_校本部校區,臺南市中西區永福路一段149號,120.199913,22.98588753,臺南市,中西區,高中職
211412,私立亞洲餐旅,校本部校區,私立亞洲餐旅_校本部校區,臺南市南區大成路一段5號,120.2029266,22.9748497,臺南市,南區,高中職
211419,私立慈幼工商,校本部校區,私立慈幼工商_校本部校區,臺南市東區裕農路801號,120.2401581,22.99004745,臺南市,東區,高中職
211B01,私立長榮高中進修學校,,私立長榮高中進修學校_,臺南市東區林森路二段79號,120.2221527,22.98902893,臺南市,東區,高中職
211B02,私立長榮女中進修學校,,私立長榮女中進修學校_,臺南市東區長榮路二段135號,120.2193527,22.99177742,臺南市,東區,高中職
211B14,私立六信高中進修學校,,私立六信高中進修學校_,臺南市南區新都路20號,120.2027054,22.97423553,臺南市,南區,高中職
211B17,私立崑山高中進修學校,,私立崑山高中進修學校_,臺南市北區開元路444號,120.2271805,23.0106163,臺南市,北區,高中職
211C07,私立南英商工進修學校,,私立南英商工進修學校_,臺南市中區永福路一段149號,120.1989594,22.98561668,臺南市,中西區,高中職
211C12,私立亞洲工商進修學校,,私立亞洲工商進修學校_,臺南市南區大成路一段5號,120.2029419,22.97492409,臺南市,南區,高中職
211C19,私立慈幼工商進修學校,,私立慈幼工商進修學校_,臺南市東區裕農路801號,120.2387924,22.99097824,臺南市,東區,高中職
213303,市立南寧高中,校本部校區,市立南寧高中_校本部校區,臺南市南區萬年路167號,120.1863785,22.93527794,臺南市,南區,高中職
311401,私立育達家商,校本部校區,私立育達家商_校本部校區,臺北市松山區美仁里寧安街12號,121.5543289,25.04962158,臺北市,松山區,高中職
311C01,私立育達家商進修學校,,私立育達家商進修學校_,臺北市松山區美仁里寧安街12號,121.5538406,25.04982567,臺北市,松山區,高中職
313301,市立西松高中,校本部校區,市立西松高中_校本部校區,臺北市松山區鵬程里健康路325巷7號,121.5670776,25.05555153,臺北市,松山區,高中職
313302,市立中崙高中,校本部校區,市立中崙高中_校本部校區,臺北市八德路四段101號,121.5609894,25.04862976,臺北市,松山區,高中職
321402,臺北市協和祐德高中,校本部校區,臺北市協和祐德高中_校本部校區,臺北市信義區忠孝東路5段790巷27號,121.5834885,25.04258919,臺北市,信義區,高中職
321C02,私立協和工商進修學校,,私立協和工商進修學校_,臺北市信義區忠孝東路5段790巷27號,121.5833969,25.0424366,臺北市,信義區,高中職
323301,市立松山高中,校本部校區,市立松山高中_校本部校區,臺北市信義區基隆路一段156號,121.5658035,25.04385948,臺北市,信義區,高中職
323302,市立永春高中,校本部校區,市立永春高中_校本部校區,臺北市信義區松隆里松山路654號,121.5786438,25.03269196,臺北市,信義區,高中職
323401,市立松山家商,校本部校區,市立松山家商_校本部校區,臺北市信義區松山路655號,121.5801468,25.03481293,臺北市,信義區,高中職
323402,市立松山工農,校本部校區,市立松山工農_校本部校區,臺北市信義區忠孝東路5段236巷15號,121.5720215,25.03983498,臺北市,信義區,高中職
323402,市立松山工農,實習農場校區,市立松山工農_實習農場校區,臺北市信義區忠孝東路5段236巷15號,121.5722809,25.01861191,臺北市,信義區,高中職
331302,私立金甌女中,校本部校區,私立金甌女中_校本部校區,臺北市大安區杭州南路2段1號,121.5242233,25.03491211,臺北市,大安區,高中職
331302,私立金甌女中,,私立金甌女中_,臺北市大安區杭州南路2段1號,121.5193939,25.01566315,新北市,永和區,高中職
331304,私立復興實驗高中,校本部校區,私立復興實驗高中_校本部校區,台北市敦化南路一段262號,121.5483932,25.03927612,臺北市,大安區,高中職
331402,私立東方工商,校本部校區,私立東方工商_校本部校區,臺北市大安區信義路四段186巷8號,121.5514755,25.03212738,臺北市,大安區,高中職
331403,私立喬治工商,校本部校區,私立喬治工商_校本部校區,臺北市信義區基隆路2段155號,121.5547562,25.02653885,臺北市,大安區,高中職
331403,私立喬治工商,二校區,私立喬治工商_二校區,臺北市信義區基隆路2段155號,121.554512,25.02662086,臺北市,大安區,高中職
331404,私立開平餐飲,校本部校區,私立開平餐飲_校本部校區,臺北市大安區復興南路2段148巷24號,121.5423813,25.02851295,臺北市,大安區,高中職
331B02,私立金甌女中進修學校,,私立金甌女中進修學校_,臺北市大安區光明里杭州南路2段1號,121.5244827,25.0349102,臺北市,大安區,高中職
331C02,私立東方工商進修學校,,私立東方工商進修學校_,臺北市大安區信義路四段186巷8號,121.5512543,25.03221321,臺北市,大安區,高中職
331C03,私立喬治工商進修學校,,私立喬治工商進修學校_,臺北市大安區基隆路2段172號,121.5548401,25.02662849,臺北市,大安區,高中職
331C04,私立開平餐飲進修學校,,私立開平餐飲進修學校_,臺北市大安區復興南路2段148巷24號,121.5419235,25.02877045,臺北市,大安區,高中職
333301,市立和平高中,校本部校區,市立和平高中_校本部校區,臺北市大安區芳和里臥龍街100號,121.5481415,25.01950645,臺北市,大安區,高中職
333401,市立大安高工,校本部校區,市立大安高工_校本部校區,10674臺北市大安區復興南路2段52號,121.5432816,25.03195381,臺北市,大安區,高中職
333C01,市立大安高工進修學校,,市立大安高工進修學校_,臺北市大安區龍圖里復興南路2段52號,121.5422897,25.03213692,臺北市,大安區,高中職
341302,私立大同高中,校本部校區,私立大同高中_校本部校區,臺北市中山區集英里中山北路3段40號,121.5222626,25.06686783,臺北市,中山區,高中職
341402,私立稻江護家,校本部校區,私立稻江護家_校本部校區,臺北市中山區新生北路三段55號,121.5285645,25.0653553,臺北市,中山區,高中職
341C02,私立稻江護家進修學校,,私立稻江護家進修學校_,臺北市中山區新生北路三段55號,121.5285873,25.06534767,臺北市,中山區,高中職
343301,市立中山女中,校本部校區,市立中山女中_校本部校區,104臺北市中山區力行里長安東路2段141號,121.5380859,25.04918671,臺北市,中山區,高中職
343301,市立中山女中,校本部,市立中山女中_校本部,104臺北市中山區力行里長安東路2段141號,121.5372086,25.04851151,臺北市,中山區,高中職
343302,市立大同高中,校本部校區,市立大同高中_校本部校區,臺北市中山區中央里長春路167號,121.5350876,25.05496597,臺北市,中山區,高中職
343303,市立大直高中,校本部校區,市立大直高中_校本部校區,臺北市中山區劍潭里北安路420號,121.5428314,25.07941246,臺北市,中山區,高中職
350C01,國立北商技院附高商進校,,國立北商技院附高商進校_,臺北市中正區濟南路一段321號,121.5255127,25.04192734,臺北市,中正區,高中職
351402,私立開南商工,校本部校區,私立開南商工_校本部校區,臺北市中正區東門里濟南路1段6號,121.5218201,25.04239845,臺北市,中正區,高中職
351B09,私立南華高中進修學校,,私立南華高中進修學校_,臺北市中正區富水里汀州路3段58號,121.5312881,25.01548958,臺北市,中正區,高中職
351B09,私立南華高中進修學校,南華高中,私立南華高中進修學校_南華高中,臺北市中正區富水里汀州路3段58號,121.5312881,25.01548958,臺北市,中正區,高中職
351B09,私立南華高中進修學校,南華高中,私立南華高中進修學校_南華高中,臺北市中正區富水里汀州路3段58號,121.5312881,25.01548958,臺北市,中正區,高中職
351B09,私立南華高中進修學校,南華高中教學行政大樓,私立南華高中進修學校_南華高中教學行政大樓,臺北市中正區富水里汀州路3段58號,121.5312881,25.01548958,臺北市,中正區,高中職
351C02,私立開南商工進修學校,,私立開南商工進修學校_,臺北市中正區東門里濟南路1段6號,121.5219269,25.04160881,臺北市,中正區,高中職
353303,市立北一女中,校本部校區,市立北一女中_校本部校區,臺北市中正區建國里重慶南路1段165號,121.5130005,25.03858757,臺北市,中正區,高中職
361301,私立靜修女中,校本部校區,私立靜修女中_校本部校區,臺北市大同區雙連里寧夏路59號,121.5158081,25.05797386,臺北市,大同區,高中職
361401,台北市私立稻江高級商業職業學校,校本部校區,台北市私立稻江高級商業職業學校_校本部校區,臺北市大同區國昌里民權西路225巷24號,121.5119247,25.06426048,臺北市,大同區,高中職
361C01,私立稻江高商進修學校,,私立稻江高商進修學校_,臺北市大同區國昌里民權西路225巷24號,121.5120163,25.06417847,臺北市,大同區,高中職
363301,市立明倫高中,校本部校區,市立明倫高中_校本部校區,臺北市大同區重慶里承德路3段336號,121.5198746,25.07551193,臺北市,大同區,高中職
363302,市立成淵高中,校本部校區,市立成淵高中_校本部校區,臺北市大同區承德路二段235號,121.5185089,25.0612545,臺北市,大同區,高中職
371301,私立立人高中,校本部校區,私立立人高中_校本部校區,台北市萬華區桂林路171號,121.4964447,25.03872871,臺北市,萬華區,高中職
373301,市立華江高中,校本部校區,市立華江高中_校本部校區,臺北市萬華區西藏路213號,121.4961548,25.02850723,臺北市,萬華區,高中職
373302,市立大理高中,校本部校區,市立大理高中_校本部校區,臺北市萬華區綠堤里長順街2號,121.4912796,25.03084755,臺北市,萬華區,高中職
381301,私立東山高中,校本部校區,私立東山高中_校本部校區,臺北市私立東山高級中學,121.5609283,24.97416115,臺北市,文山區,高中職
381302,私立滬江高中,校本部校區,私立滬江高中_校本部校區,臺北市文山區羅斯福路六段336號,121.5391464,24.98976326,臺北市,文山區,高中職
381303,私立大誠高中,校本部校區,私立大誠高中_校本部校區,臺北市文山區萬興里秀明路2段175號,121.577301,24.99039841,臺北市,文山區,高中職
381305,私立景文高中,校本部校區,私立景文高中_校本部校區,臺北市文山區保儀路127號,121.5673752,24.98534966,臺北市,文山區,高中職
381B05,私立景文高中進修學校,,私立景文高中進修學校_,臺北市文山區木新里保儀路127號,121.5684509,24.98504829,臺北市,文山區,高中職
383301,市立景美女中,校本部校區,市立景美女中_校本部校區,台北市文山區木新路3段312號,121.5562134,24.98072243,臺北市,文山區,高中職
383302,市立萬芳高中,校本部校區,市立萬芳高中_校本部校區,臺北市文山區興隆路3段115巷1號,121.5590744,25.00118256,臺北市,文山區,高中職
383401,市立木柵高工,校本部校區,市立木柵高工_校本部校區,臺北市文山區萬芳里木柵路4段77號,121.5718613,24.99586868,臺北市,文山區,高中職
393301,市立南港高中,校本部校區,市立南港高中_校本部校區,臺北市南港區西新里向陽路21號,121.5950317,25.05246544,臺北市,南港區,高中職
393302,市立育成高中,校本部校區,市立育成高中_校本部校區,臺北市南港區重陽路366號,121.6091537,25.05866623,臺北市,南港區,高中職
393401,市立南港高工,校本部校區,市立南港高工_校本部校區,臺北市南港區南港里興中路29號,121.6086655,25.05643654,臺北市,南港區,高中職
393401,市立南港高工,南港高工,市立南港高工_南港高工,臺北市南港區南港里興中路29號,121.60746,25.05623055,臺北市,南港區,高中職
401301,私立文德女中,校本部校區,私立文德女中_校本部校區,臺北市內湖區紫陽里成功路3段70號,121.5891037,25.07769203,臺北市,內湖區,高中職
401303,私立達人女中,校本部校區,私立達人女中_校本部校區,內湖區內湖路2段314號,121.5876083,25.0812397,臺北市,內湖區,高中職
403301,市立內湖高中,校本部校區,市立內湖高中_校本部校區,臺北市內湖區紫陽里文德路218號,121.5865021,25.0783844,臺北市,內湖區,高中職
403302,市立麗山高中,校本部校區,市立麗山高中_校本部校區,臺北市內湖區環山路二段100號,121.5779114,25.08409309,臺北市,內湖區,高中職
403303,市立南湖高中,校本部校區,市立南湖高中_校本部校區,臺北市內湖區康寧路三段220號,121.6097183,25.06651878,臺北市,內湖區,高中職
403401,市立內湖高工,校本部校區,市立內湖高工_校本部校區,臺北市內湖路一段520號,121.5754242,25.07971764,臺北市,內湖區,高中職
411301,私立泰北高中,校本部校區,私立泰北高中_校本部校區,臺北市士林區福林里福林路240號,121.5340363,25.09746783,臺北市,士林區,高中職
411302,私立衛理女中,校本部校區,私立衛理女中_校本部校區,臺北市士林區臨溪里至善路2段321號,121.5522461,25.10170364,臺北市,士林區,高中職
411401,私立華岡藝校,校本部校區,私立華岡藝校_校本部校區,臺北市士林區建業路73巷8號,121.5489578,25.1370697,臺北市,士林區,高中職
413301,市立陽明高中,校本部校區,市立陽明高中_校本部校區,臺北市士林區後港里中正路510號,121.517189,25.09183121,臺北市,士林區,高中職
413302,市立百齡高中,校本部校區,市立百齡高中_校本部校區,臺北市士林區承德路四段177號,121.5230331,25.08699417,臺北市,士林區,高中職
413302,市立百齡高中,百齡高中全校區平面圖,市立百齡高中_百齡高中全校區平面圖,臺北市士林區承德路四段177號,121.5229874,25.08704948,臺北市,士林區,高中職
413401,市立士林高商,校本部校區,市立士林高商_校本部校區,臺北市士林區士商路150號,121.5163269,25.09497261,臺北市,士林區,高中職
421301,私立薇閣高中,校本部校區,私立薇閣高中_校本部校區,臺北市北投區中心里珠海路50號,121.5045471,25.13993835,臺北市,北投區,高中職
421302,私立十信高中,校本部校區,私立十信高中_校本部校區,臺北市北投區北投路二段55號,121.4967041,25.13360214,臺北市,北投區,高中職
421404,私立惇敘工商,校本部校區,私立惇敘工商_校本部校區,台北市北投區泉源路221號,121.5263138,25.14479256,臺北市,北投區,高中職
421C04,私立惇敘工商進修學校,,私立惇敘工商進修學校_,臺北市北投區泉源路221號,121.5269775,25.14484787,臺北市,北投區,高中職
423301,市立復興高中,校本部校區,市立復興高中_校本部校區,臺北市北投區復興四路70號,121.5017853,25.14368439,臺北市,北投區,高中職
423302,市立中正高中,校本部,市立中正高中_校本部,台北市北投區文林北路77號,121.5166092,25.10441208,臺北市,北投區,高中職
521301,私立明誠高中,校本部校區,私立明誠高中_校本部校區,高雄市鼓山區中華一路97號,120.2918854,22.66688538,高雄市,鼓山區,高中職
521303,私立大榮高中,校本部校區,私立大榮高中_校本部校區,高雄市鼓山區大榮街1號,120.2801743,22.65359879,高雄市,鼓山區,高中職
521401,私立中華藝校,南校區,私立中華藝校_南校區,高雄市鼓山區美術館路89號,120.2890701,22.65534592,高雄市,鼓山區,高中職
521401,私立中華藝校,北校區,私立中華藝校_北校區,高雄市鼓山區美術館路89號,120.2889404,22.65443611,高雄市,鼓山區,高中職
521B03,私立大榮高中進修學校,,私立大榮高中進修學校_,高雄市鼓山區大榮街1號,120.2804108,22.6526947,高雄市,鼓山區,高中職
523301,市立鼓山高中,校本部校區,市立鼓山高中_校本部校區,高雄市鼓山區明德路2號,120.2746277,22.65140724,高雄市,鼓山區,高中職
533301,市立左營高中,校本部校區,市立左營高中_校本部校區,高雄市左營區海功路55號,120.2963791,22.69268417,高雄市,左營區,高中職
533302,市立新莊高中,校本部校區,市立新莊高中_校本部校區,高雄市左營區文慈路99號,120.3175278,22.68120766,高雄市,左營區,高中職
533401,市立海青工商,校本部校區,市立海青工商_校本部校區,高雄市左營區左營大路1號,120.2855682,22.67515373,高雄市,左營區,高中職
533402,市立三民家商,校本部校區,市立三民家商_校本部校區,高雄市左營區裕誠路1102號,120.3012161,22.66601944,高雄市,左營區,高中職
533B01,市立左營高中進修學校,,市立左營高中進修學校_,高雄市左營區海功路55號,120.2961578,22.6934166,高雄市,左營區,高中職
533C01,市立海青工商進修學校,,市立海青工商進修學校_,高雄市左營區左營大路1號,120.2847595,22.67520523,高雄市,左營區,高中職
540301,國立中山大學附屬國光高中,校本部校區,國立中山大學附屬國光高中_校本部校區,高雄市楠梓區後昌路512號,120.3048401,22.70820808,高雄市,楠梓區,高中職
543301,市立中山高中,校本部校區,市立中山高中_校本部校區,高雄市楠梓區藍昌路416號,120.2929001,22.72846794,高雄市,楠梓區,高中職
543302,市立楠梓高中,校本部校區,市立楠梓高中_校本部校區,高雄市楠梓區清豐路19號,120.3323669,22.74325752,高雄市,楠梓區,高中職
551301,私立立志高中,校本部校區,私立立志高中_校本部校區,高雄市三民區立志街42號,120.3262863,22.65281677,高雄市,三民區,高中職
551402,私立樹德家商,校本部校區,私立樹德家商_校本部校區,高雄市三民區建興路116號,120.3284988,22.64355278,高雄市,三民區,高中職
551B01,私立立志高中進修學校,,私立立志高中進修學校_,高雄市三民區大昌一路98號,120.3262329,22.65277672,高雄市,三民區,高中職
551C02,私立樹德家商進修學校,,私立樹德家商進修學校_,高雄市三民區建興路116號,120.3283539,22.64352989,高雄市,三民區,高中職
553302,市立三民高中,校本部校區,市立三民高中_校本部校區,高雄市三民區金鼎路81號,120.3267212,22.66310883,高雄市,三民區,高中職
553401,高雄市立高雄高級工業職業學校,校本部校區,高雄市立高雄高級工業職業學校_校本部校區,高雄市三民區建工路419號,120.3264542,22.65063477,高雄市,三民區,高中職
553C01,市立高雄高工進修學校,,市立高雄高工進修學校_,高雄市三民區建工路419號,120.3265076,22.64995193,高雄市,三民區,高中職
563301,市立新興高中,校本部校區,市立新興高中_校本部校區,高雄市新興區五福二路218號,120.3040543,22.62440109,高雄市,新興區,高中職
563401,市立高雄高商,校本部校區,市立高雄高商_校本部校區,高雄市新興區五福二路3號,120.3094406,22.62570572,高雄市,新興區,高中職
563C01,市立高雄高商進修學校,,市立高雄高商進修學校_,高雄市新興區五福二路3號,120.3101273,22.62458611,高雄市,新興區,高中職
573301,市立高雄女中,校本部校區,市立高雄女中_校本部校區,高雄市前金區五福三路122號,120.2926712,22.62091827,高雄市,前金區,高中職
581301,私立復華高中,校本部校區,私立復華高中_校本部校區,高雄市苓雅區民權一路42號,120.3140564,22.62136459,高雄市,苓雅區,高中職
581401,國際學校財團法人高雄市國際商工高級中等學校,校本部校區,國際學校財團法人高雄市國際商工高級中等學校_校本部校區,高雄市苓雅區三多二路84號,120.3261795,22.6212635,高雄市,苓雅區,高中職
581402,私立三信家商,校本部校區,私立三信家商_校本部校區,高雄市苓雅區三多一路186號,120.3287811,22.62224579,高雄市,苓雅區,高中職
581B01,私立復華高中進修學校,,私立復華高中進修學校_,高雄市苓雅區民權一路42號,120.3138351,22.62138367,高雄市,苓雅區,高中職
581C01,私立國際商工進修學校,,私立國際商工進修學校_,高雄市苓雅區三多二路84號,120.3256226,22.6221962,高雄市,苓雅區,高中職
581C02,私立三信家商進修學校,,私立三信家商進修學校_,高雄市苓雅區三多一路186號,120.3287811,22.62205124,高雄市,苓雅區,高中職
583301,市立中正高中,校本部校區,市立中正高中_校本部校區,高雄市苓雅區中正一路8號,120.3387527,22.62676811,高雄市,苓雅區,高中職
593301,市立前鎮高中,校本部校區,市立前鎮高中_校本部校區,高雄市前鎮區鎮中路132號,120.3198853,22.58702469,高雄市,前鎮區,高中職
593302,市立瑞祥高中,校本部校區,市立瑞祥高中_校本部校區,高雄市前鎮區班超路63號,120.3246918,22.60219002,高雄市,前鎮區,高中職
593401,高雄市立中正高級工業職業學校,校本部校區,高雄市立中正高級工業職業學校_校本部校區,806高雄市前鎮區光華二路80號,120.3176346,22.61059952,高雄市,前鎮區,高中職
593C01,市立中正高工進修學校,,市立中正高工進修學校_,高雄市前鎮區光華二路80號,120.317543,22.61063957,高雄市,前鎮區,高中職
611401,私立高鳳工家,校本部校區,私立高鳳工家_校本部校區,高雄市小港區高松里松崗路119號,120.3762131,22.57616425,高雄市,小港區,高中職
611C01,私立高鳳工家進修學校,,私立高鳳工家進修學校_,高雄市小港區高松里松崗路119號,120.3759384,22.57573128,高雄市,小港區,高中職
613301,市立小港高中,校本部校區,市立小港高中_校本部校區,812高雄市小港區學府路117號,120.3568497,22.56527328,高雄市,小港區,高中職
710301,國立金門高中,校本部校區,國立金門高中_校本部校區,金門縣金城鎮光前路94號,118.3141098,24.4352951,金門縣,金城鎮,高中職
710401,國立金門農工,校本部校區,國立金門農工_校本部校區,金門縣金湖鎮新市里復興路1之11號,118.423233,24.44214439,金門縣,金湖鎮,高中職
720301,國立馬祖高中,校本部校區,國立馬祖高中_校本部校區,連江縣馬祖南竿介壽村374號,119.9498062,26.15431976,連江縣,南竿鄉,高中職
70401,國立彰師附工,校本部校區,,彰化縣彰化市和調里工校街1號,120.5559845,24.0825882,彰化縣,彰化市,高職
  070C01,國立彰化師大附工進校,,,彰化縣彰化市和調里工校街1號,120.5582657,24.08113289,彰化縣,彰化市,高職
  070F01,國立和美實驗學校,校本部校區,,彰化縣和美鎮鹿和路六段115號,120.4919357,24.10521507,彰化縣,和美鎮,高職
  0A17,台北商技附空中進院,,,臺北市濟南路一段三二一號,121.5256653,25.04189873,臺北市,中正區,高職
  0A18,台中技院附空中進院,,,臺中市三民路三段一二九號,120.6839676,24.15002441,臺中市,北區,高職
191315,私立磊川華德福實驗教育學校,校本部校區,,臺中市北屯區松竹五路233號及366號,120.713014,24.18033148,臺中市,北屯區,國(中)小、高中
