code,name,campus,location_name,address,lon,lat,city,town,education_stage
10301,國立華僑中學,校本部校區,國立華僑中學_校本部校區,新北市板橋區大觀路一段32號,121.4476089,25.00753212,新北市,板橋區,國中
010301j,國立華僑中學附設國中,校本部校區,國立華僑中學附設國中_校本部校區,台北縣板橋市大觀路一段32號,121.4475632,25.00728798,新北市,板橋區,國中
011301j,私立淡江高中附設國中,校本部校區,私立淡江高中附設國中_校本部校區,台北縣淡水鎮真理街26號,120.6736374,24.15941429,臺中市,北區,國中
011302j,財團法人康橋實驗高中附設國中,校本部校區,財團法人康橋實驗高中附設國中_校本部校區,臺北縣新店市華城路800號,121.4967117,24.91139221,新北市,新店區,國中
011306j,私立金陵女中附設國中,校本部校區,私立金陵女中附設國中_校本部校區,台北縣三重市重新路五段656號,120.6828308,24.17301941,臺中市,北屯區,國中
011309j,私立南山高中附設國中,校本部校區,私立南山高中附設國中_校本部校區,台北縣中和市廣福路41號,120.7013474,24.17160225,臺中市,北屯區,國中
011310j,私立恆毅高中附設國中,校本部校區,私立恆毅高中附設國中_校本部校區,台北縣新莊市中正路108號,121.4537277,25.03659248,新北市,新莊區,國中
011311j,私立聖心女中附設國中,校本部校區,私立聖心女中附設國中_校本部校區,台北縣八里鄉龍米路一段263號,120.6716156,24.18003082,臺中市,北屯區,國中
011312j,私立崇義高中附設國中,校本部校區,私立崇義高中附設國中_校本部校區,台北縣汐止市大同路三段68號,120.6917191,24.16302681,臺中市,北屯區,國中
011316j,私立格致高中附設國中,校本部校區,私立格致高中附設國中_校本部校區,台北縣三重市大智街260號,120.6780243,24.19314766,臺中市,北屯區,國中
011317j,私立醒吾高中附設國中,校本部校區,私立醒吾高中附設國中_校本部校區,台北縣林口鄉粉寮路一段75巷80號,120.6090775,24.19357872,臺中市,西屯區,國中
011318j,私立徐匯高中附設國中,校本部校區,私立徐匯高中附設國中_校本部校區,台北縣蘆洲市中山一路1號,121.4801254,25.08010674,新北市,蘆洲區,國中
011322j,私立崇光女中附設國中,校本部校區,私立崇光女中附設國中_校本部校區,台北縣新店市三民路18號,121.5390778,24.97180939,新北市,新店區,國中
011323j,私立光仁高中附設國中,校本部校區,私立光仁高中附設國中_校本部校區,台北縣板橋市中山路二段255巷18號,120.6404648,24.17923546,臺中市,西屯區,國中
011324j,私立竹林高中附設國中,校本部校區,私立竹林高中附設國中_校本部校區,台北縣中和市華新街143巷12號,121.5060272,24.97991753,新北市,中和區,國中
011325j,私立及人高中附設國中,校本部校區,私立及人高中附設國中_校本部校區,台北縣新店市安興路1號,121.5148926,24.96679878,新北市,新店區,國中
11329,辭修學校財團法人私立辭修高級中學,校本部校區,辭修學校財團法人私立辭修高級中學_校本部校區,新北市三峽區溪東路251號,121.4087753,24.93223953,新北市,三峽區,國中
011329j,私立辭修高中附設國中,校本部校區,私立辭修高中附設國中_校本部校區,台北縣三峽鎮溪東路251號,121.4092941,24.93193626,新北市,三峽區,國中
11501,私立時雨中學,校本部校區,私立時雨中學_校本部校區,新北市瑞芳區銅山里祈堂路217號,121.8555298,25.10932541,新北市,瑞芳區,國中
11503,私立裕德國中(小),校本部校區,私立裕德國中(小)_校本部校區,新北市土城區擺接堡路1號,121.4401093,24.98303795,新北市,土城區,國中
014302j,縣立海山高中附設國中,校本部校區,縣立海山高中附設國中_校本部校區,台北縣板橋市漢生東路215號,120.6648254,24.17699242,臺中市,西屯區,國中
014311j,縣立三重高中附設國中,校本部校區,縣立三重高中附設國中_校本部校區,台北縣三重市集美街212號,120.6580582,24.16754913,臺中市,西屯區,國中
014315j,縣立永平高中附設國中,校本部校區,縣立永平高中附設國中_校本部校區,台北縣永和市永平路205號,120.6432877,24.17368126,臺中市,西屯區,國中
014322j,縣立樹林高中附設國中,校本部校區,縣立樹林高中附設國中_校本部校區,台北縣樹林市中華路8號,120.6488647,24.19739532,臺中市,西屯區,國中
014326j,縣立明德高中附設國中,校本部校區,縣立明德高中附設國中_校本部校區,台北縣三峽鎮中正路二段399號,121.3639221,24.90685081,新北市,三峽區,國中
014332j,縣立秀峰高中附設國中,校本部校區,縣立秀峰高中附設國中_校本部校區,臺北縣汐止市忠孝東路201號,120.6339951,24.15772247,臺中市,南屯區,國中
014338j,縣立金山高中附設國中,校本部校區,縣立金山高中附設國中_校本部校區,台北縣金山鄉美田村文化二路2號,120.6153946,24.14933586,臺中市,南屯區,國中
014343j,縣立安康高中附設國中,校本部校區,縣立安康高中附設國中_校本部校區,台北縣新店市安興路25號,120.629097,24.1215744,臺中市,南屯區,國中
014347j,縣立雙溪高中附設國中,校本部校區,縣立雙溪高中附設國中_校本部校區,台北縣雙溪鄉梅竹蹊3號,120.7198029,24.15477562,臺中市,太平區,國中
14348,新北市立石碇高級中學,校本部校區,新北市立石碇高級中學_校本部校區,新北市石碇區隆盛里八分寮45號,121.6425934,25.012743,新北市,石碇區,國中
014348j,縣立石碇高中附設國中,校本部校區,縣立石碇高中附設國中_校本部校區,台北縣石碇鄉隆盛村八分寮45號,120.7372971,24.14513588,臺中市,太平區,國中
014353j,市立丹鳳高中附設國中,校本部校區,市立丹鳳高中附設國中_校本部校區,台北縣新莊市龍安路72號,120.731926,24.10994911,臺中市,太平區,國中
014356j,縣立清水高中附設國中,校本部校區,縣立清水高中附設國中_校本部校區,台北縣土城市明德路一段72號,120.5518646,22.4214592,屏東縣,佳冬鄉,國中
014357j,縣立三民高中附設國中,校本部校區,縣立三民高中附設國中_校本部校區,台北縣蘆洲市三民路96號,120.7278595,24.10472679,臺中市,太平區,國中
014362j,縣立錦和高中附設國中,校本部校區,縣立錦和高中附設國中_校本部校區,台北縣中和市錦和路163號,121.4910812,24.99254417,新北市,中和區,國中
14381,市立北大高級中學,校本部校區,市立北大高級中學_校本部校區,新北市三峽區大義路277號,121.3761056,24.94860801,新北市,三峽區,國中
14501,市立板橋國中,校本部校區,市立板橋國中_校本部校區,新北市板橋區中正路437號,121.4541626,25.02400017,新北市,板橋區,國中
14503,市立重慶國中,校本部校區,市立重慶國中_校本部校區,新北市板橋區國慶路221號,121.4631577,24.99818993,新北市,板橋區,國中
14504,市立江翠國中,校本部校區,市立江翠國中_校本部校區,新北市板橋區松江街63號,121.4684372,25.02894402,新北市,板橋區,國中
14505,市立中山國中,校本部校區,市立中山國中_校本部校區,新北市板橋區文化路一段188巷56號,121.4680405,25.01758575,新北市,板橋區,國中
14506,市立新埔國中,校本部校區,市立新埔國中_校本部校區,新北市板橋區新海路181號,121.4596558,25.02489662,新北市,板橋區,國中
14507,市立新莊國中,校本部校區,市立新莊國中_校本部校區,新北市新莊區中正路211號,121.4524841,25.03593826,新北市,新莊區,國中
14508,市立新泰國中,校本部校區,市立新泰國中_校本部校區,新北市新莊區新泰路359號,121.4443741,25.04259491,新北市,新莊區,國中
14509,市立福營國中,校本部校區,市立福營國中_校本部校區,新北市新莊區富國路105號,121.4225082,25.02532387,新北市,新莊區,國中
14510,市立頭前國中,校本部校區,市立頭前國中_校本部校區,新北市新莊區中原路2號,121.4594803,25.05518341,新北市,新莊區,國中
14512,新北市立光榮國民中學,校本部校區,新北市立光榮國民中學_校本部校區,新北市三重區介壽路26號,121.4999237,25.07045555,新北市,三重區,國中
14513,市立明志國中,校本部校區,市立明志國中_校本部校區,新北市三重區中正北路107號,121.4890594,25.06347847,新北市,三重區,國中
14514,市立碧華國中,校本部校區,市立碧華國中_校本部校區,新北市三重區自強路五段66號,121.4944,25.08262062,新北市,三重區,國中
14516,市立永和國中,校本部校區,市立永和國中_校本部校區,新北市永和區國中路111號,121.5233154,25.00668907,新北市,永和區,國中
14517,市立福和國中,校本部校區,市立福和國中_校本部校區,新北市永和區永利路71號,121.5208588,25.0039978,新北市,永和區,國中
14518,市立中和國中,校本部校區,市立中和國中_校本部校區,新北市中和區興南路二段3巷17號,121.5085373,24.98617554,新北市,中和區,國中
14519,市立積穗國中,校本部校區,市立積穗國中_校本部校區,新北市中和區民安街66號,121.4797821,25.00039864,新北市,中和區,國中
14520,市立漳和國中,校本部校區,市立漳和國中_校本部校區,新北市中和區廣福路39號,121.5055313,25.0026722,新北市,中和區,國中
14521,市立鶯歌國中,校本部校區,市立鶯歌國中_校本部校區,新北市鶯歌區尖山埔路108號,121.3448257,24.95041084,新北市,鶯歌區,國中
14523,市立柑園國中,校本部校區,市立柑園國中_校本部校區,新北市樹林區柑園街二段125號,121.3843155,24.95392227,新北市,樹林區,國中
14524,市立土城國中,校本部校區,市立土城國中_校本部校區,新北市土城區永寧路18號,121.4295578,24.96295547,新北市,土城區,國中
14525,市立三峽國中,校本部校區,市立三峽國中_校本部校區,新北市三峽區復興路238號,121.369072,24.9390583,新北市,三峽區,國中
14527,市立八里國中,校本部校區,市立八里國中_校本部校區,新北市八里區荖阡坑路15號,121.4012833,25.13990021,新北市,八里區,國中
14528,市立泰山國中,校本部校區,市立泰山國中_校本部校區,新北市泰山區泰林路二段498號,121.4245453,25.06401443,新北市,泰山區,國中
14528,市立泰山國中,勤學樓,市立泰山國中_勤學樓,新北市泰山區泰林路二段498號,121.4245453,25.06401443,新北市,泰山區,國中
14529,市立五股國中,校本部校區,市立五股國中_校本部校區,新北市五股區成泰路二段49巷15號,121.4357224,25.08327293,新北市,五股區,國中
14530,市立蘆洲國中,校本部校區,市立蘆洲國中_校本部校區,新北市蘆洲區中正路265號,121.4663849,25.08708763,新北市,蘆洲區,國中
14531,市立林口國中,校本部校區,市立林口國中_校本部校區,新北市林口區民治路25號,121.3768997,25.07685852,新北市,林口區,國中
14533,新北市立汐止國民中學,校本部校區,新北市立汐止國民中學_校本部校區,新北市汐止區禮門里大同路二段394號,121.6583939,25.06694984,新北市,汐止區,國中
14534,市立淡水國中,校本部校區,市立淡水國中_校本部校區,新北市淡水區文化里真理街10號,121.4367218,25.17471886,新北市,淡水區,國中
14536,市立三芝國中,校本部校區,市立三芝國中_校本部校區,新北市三芝區淡金路一段38號,121.5018539,25.2593708,新北市,三芝區,國中
14536,市立三芝國中,三芝國中,市立三芝國中_三芝國中,新北市三芝區淡金路一段38號,121.5018539,25.2593708,新北市,三芝區,國中
14537,市立石門國中,校本部校區,市立石門國中_校本部校區,新北市石門區中央路1之9號,121.564537,25.29121971,新北市,石門區,國中
14539,市立萬里國中,校本部校區,市立萬里國中_校本部校區,新北市萬里區獅頭路24號,121.6950073,25.17751122,新北市,萬里區,國中
14540,市立坪林國中,校本部校區,市立坪林國中_校本部校區,新北市坪林區國中路四號,121.712822,24.93800735,新北市,坪林區,國中
14541,市立文山國中,校本部校區,市立文山國中_校本部校區,新北市新店區文中路38號,121.5391541,24.95674896,新北市,新店區,國中
14542,市立五峰國中,校本部校區,市立五峰國中_校本部校區,新北市新店區中興路一段253號,121.5439987,24.96637535,新北市,新店區,國中
14544,新北市立瑞芳國民中學,校本部校區,新北市立瑞芳國民中學_校本部校區,新北市立瑞芳區三爪子坑路1號,121.8154144,25.10774422,新北市,瑞芳區,國中
14544,新北市立瑞芳國民中學,新北市立瑞芳國民中學,新北市立瑞芳國民中學_新北市立瑞芳國民中學,新北市立瑞芳區三爪子坑路1號,121.8145218,25.10744476,新北市,瑞芳區,國中
14545,市立欽賢國中,鼻頭校區,市立欽賢國中_鼻頭校區,新北市瑞芳區崙頂路3之1號,121.8869324,25.12061882,新北市,瑞芳區,國中
14545,市立欽賢國中,九份校區,市立欽賢國中_九份校區,新北市瑞芳區崙頂路3之1號,121.8457489,25.10497475,新北市,瑞芳區,國中
14546,市立貢寮國中,校本部校區,市立貢寮國中_校本部校區,新北市貢寮區嵩陽街42號,121.9070892,25.0164032,新北市,貢寮區,國中
14549,市立深坑國中,校本部校區,市立深坑國中_校本部校區,新北市深坑區深坑里文化街41號,121.6182632,25.00174141,新北市,深坑區,國中
14550,市立平溪國中,校本部校區,市立平溪國中_校本部校區,新北市平溪區靜安路二段295號,121.7332382,25.02432823,新北市,平溪區,國中
14551,市立烏來國中(小),校本部校區,市立烏來國中(小)_校本部校區,新北市烏來區啦卡路5號,121.5540695,24.8631916,新北市,烏來區,國中
14552,市立溪崑國中,校本部校區,市立溪崑國中_校本部校區,新北市板橋區大觀路三段50巷30號,121.4312744,24.9984169,新北市,板橋區,國中
14554,市立自強國中,校本部校區,市立自強國中_校本部校區,新北市中和區莒光路191號,121.4730988,24.99724388,新北市,中和區,國中
14555,市立中正國中,校本部校區,市立中正國中_校本部校區,新北市土城區金城路二段247號,121.4568405,24.98345566,新北市,土城區,國中
14558,市立義學國中,校本部校區,市立義學國中_校本部校區,新北市泰山區民生路33號,121.4306641,25.05124474,新北市,泰山區,國中
14559,市立中平國中,校本部校區,市立中平國中_校本部校區,新北市新莊區中平路385號,121.4445343,25.05375671,新北市,新莊區,國中
14560,市立鳳鳴國中,校本部校區,市立鳳鳴國中_校本部校區,新北市鶯歌區永和街33號,121.3317719,24.96707344,新北市,鶯歌區,國中
14561,市立三和國中,校本部校區,市立三和國中_校本部校區,新北市三重區三和路四段216號,121.4865036,25.07657814,新北市,三重區,國中
14565,市立尖山國中,校本部校區,市立尖山國中_校本部校區,新北市鶯歌區國中街1號,121.3421936,24.94365883,新北市,鶯歌區,國中
14566,市立正德國中,校本部校區,市立正德國中_校本部校區,新北市淡水區北新路109號/新北市淡水區賢孝里後洲子11號,121.4468536,25.17848206,新北市,淡水區,國中
14566,市立正德國中,賢孝校區,市立正德國中_賢孝校區,新北市淡水區北新路109號/新北市淡水區賢孝里後洲子11號,121.4467239,25.22587585,新北市,淡水區,國中
14567,新北市立安溪國中,校本部校區(三峽校區),新北市立安溪國中_校本部校區(三峽校區),新北市三峽區大同路135號,121.3727646,24.92656708,新北市,三峽區,國中
14568,市立樟樹國中,校本部校區,市立樟樹國中_校本部校區,新北市汐止區樟樹二路135號,121.6397018,25.06582642,新北市,汐止區,國中
14569,市立育林國中,校本部校區,市立育林國中_校本部校區,新北市樹林區復興路395號,121.4153137,24.98507118,新北市,樹林區,國中
14570,市立青山國中(小),校本部校區,市立青山國中(小)_校本部校區,新北市汐止區莊敬街33號,121.6568451,25.06071281,新北市,汐止區,國中
14571,市立崇林國中,校本部校區,市立崇林國中_校本部校區,新北市林口區文化一路一段20號,121.3702774,25.06811142,新北市,林口區,國中
14572,市立二重國中,校本部校區,市立二重國中_校本部校區,新北市三重區忠孝路三段89號,121.4804764,25.06571198,新北市,三重區,國中
14573,市立大觀國中,校本部校區,市立大觀國中_校本部校區,新北市板橋區僑中一街1號,121.4485245,25.01125145,新北市,板橋區,國中
14574,市立三多國中,校本部校區,市立三多國中_校本部校區,新北市樹林區三多路101號,121.4139938,25.00610542,新北市,樹林區,國中
14575,市立忠孝國中,校本部校區,市立忠孝國中_校本部校區,新北市板橋區成都街30號,121.461647,25.00484085,新北市,板橋區,國中
14576,市立鷺江國中,校本部校區,市立鷺江國中_校本部校區,新北市蘆洲區長樂路235號,121.4617691,25.09033966,新北市,蘆洲區,國中
14577,市立桃子腳國中(小),校本部校區,市立桃子腳國中(小)_校本部校區,新北市樹林區學勤路555號,121.3827286,24.94898033,新北市,樹林區,國中
14578,市立豐珠國中(小),校本部校區,市立豐珠國中(小)_校本部校區,新北市貢寮區美豐里雞母嶺街6-6號,121.9015198,25.06580734,新北市,貢寮區,國中
14579,市立佳林國中,校本部校區,市立佳林國中_校本部校區,新北市林口區中山路268號,121.3843842,25.08119965,新北市,林口區,國中
14580,市立達觀國中(小),校本部校區,市立達觀國中(小)_校本部校區,新北市新店區僑信路1號,121.5008469,24.95322227,新北市,新店區,國中
14581,新北市立北大高級中學,校本部校區,新北市立北大高級中學_校本部校區,新北市三峽區大義路277號,121.3758011,24.9484272,新北市,三峽區,國中
014D01,縣立新莊國中補校,,縣立新莊國中補校_,新北市新莊區中正路211號,121.4519882,25.03582954,新北市,新莊區,國中
014D02,縣立積穗國中補校,,縣立積穗國中補校_,新北市中和區民安街66號,121.4796982,25.00031281,新北市,中和區,國中
014D03,縣立明志國中補校,,縣立明志國中補校_,新北市三重區中正北路107號,121.4890213,25.06347847,新北市,三重區,國中
014D04,縣立中和國中補校,,縣立中和國中補校_,新北市中和區興南路二段3巷17號,121.5086365,24.9862442,新北市,中和區,國中
014D05,縣立蘆洲國中補校,,縣立蘆洲國中補校_,新北市蘆洲區中正路265號,121.4662018,25.08738518,新北市,蘆洲區,國中
014D06,縣立文山國中補校,,縣立文山國中補校_,新北市新店區文中路38號,121.5389328,24.95670509,新北市,新店區,國中
014D07,縣立光榮國中補校,,縣立光榮國中補校_,新北市三重區介壽路26號,121.4993362,25.07026863,新北市,三重區,國中
014D08,縣立瑞芳國中補校,,縣立瑞芳國中補校_,新北市瑞芳區三爪子坑路1號,121.8148422,25.10793495,新北市,瑞芳區,國中
014D09,縣立淡水國中補校,,縣立淡水國中補校_,新北市淡水區文化里真理街10號,121.436615,25.17444229,新北市,淡水區,國中
014D10,縣立鶯歌國中補校,,縣立鶯歌國中補校_,新北市鶯歌區尖山埔路108號,121.3448639,24.95046234,新北市,鶯歌區,國中
014D12,縣立三峽國中補校,,縣立三峽國中補校_,新北市三峽區復興路238號,121.3691254,24.93905258,新北市,三峽區,國中
014D13,縣立褔和國中補校,,縣立褔和國中補校_,新北市永和區永利路71號,121.5215607,25.00491142,新北市,永和區,國中
014D14,縣立樹林高中附國中補校,,縣立樹林高中附國中補校_,新北市樹林區中華路8號,121.4220886,24.9834671,新北市,樹林區,國中
014D18,縣立林口國中補校,,縣立林口國中補校_,新北市林口區民治路25號,121.377037,25.07704926,新北市,林口區,國中
014D19,縣立新泰國中補校,,縣立新泰國中補校_,新北市新莊區新泰路359號,121.4440842,25.04296303,新北市,新莊區,國中
014D20,縣立海山高中附國中補校,,縣立海山高中附國中補校_,新北市板橋區漢生東路215號,121.4715652,25.01049423,新北市,板橋區,國中
014D21,縣立五峰國中補校,,縣立五峰國中補校_,新北市新店區中興路一段253號,121.5441589,24.96672249,新北市,新店區,國中
014D25,縣立新埔國中補校,,縣立新埔國中補校_,新北市板橋區新海路181號,121.4597473,25.02479362,新北市,板橋區,國中
014D28,縣立三民高中附國中補校,,縣立三民高中附國中補校_,新北市蘆洲區三民路96號,121.4730072,25.08599281,新北市,蘆洲區,國中
014D30,縣立五股國中補校,,縣立五股國中補校_,新北市五股區成泰路二段49巷15號,121.4355621,25.08171844,新北市,五股區,國中
014D32,縣立碧華國中補校,,縣立碧華國中補校_,新北市三重區自強路五段66號,121.4950714,25.08230591,新北市,三重區,國中
014D34,縣立萬里國中補校,,縣立萬里國中補校_,新北市萬里區獅頭路24號,121.6945572,25.17777252,新北市,萬里區,國中
014D37,縣立福營國中補校,,縣立福營國中補校_,新北市新莊區富國路105號,121.4235611,25.02566147,新北市,新莊區,國中
014D39,縣立八里國中補校,,縣立八里國中補校_,新北市八里區荖阡坑路15號,121.4011688,25.13905334,新北市,八里區,國中
014D41,縣立秀峰高中附國中補校,,縣立秀峰高中附國中補校_,新北市汐止區忠孝東路201號,121.6597824,25.06604958,新北市,汐止區,國中
014D42,縣立丹鳳國中補校,,縣立丹鳳國中補校_,新北市新莊區龍安路72號,121.4155579,25.02132416,新北市,新莊區,國中
014D44,縣立中正國中補校,,縣立中正國中補校_,新北市土城區金城路二段247號,121.4567566,24.98352051,新北市,土城區,國中
014D45,縣立漳和國中補校,,縣立漳和國中補校_,新北市中和區廣福路39號,121.5059204,25.00296974,新北市,中和區,國中
014D47,縣立中山國中補校,,縣立中山國中補校_,新北市板橋區文化路一段188巷56號,121.4675674,25.01845169,新北市,板橋區,國中
014D48,縣立中平國中補校,,縣立中平國中補校_,新北市新莊區中平路385號,121.4445419,25.05349731,新北市,新莊區,國中
014D49,縣立二重國中補校,,縣立二重國中補校_,新北市三重區忠孝路三段89號,121.4799805,25.06608009,新北市,三重區,國中
014D50,縣立樟樹國中補校,,縣立樟樹國中補校_,新北市汐止區樟樹二路135號,121.6400909,25.06637955,新北市,汐止區,國中
021301j,私立慧燈高中附設國中,校本部校區,私立慧燈高中附設國中_校本部校區,宜蘭縣員山鄉枕山路117-60號,121.715538,24.77718735,宜蘭縣,員山鄉,國中
021310j,私立中道高中附設國中,校本部校區,私立中道高中附設國中_校本部校區,宜蘭縣壯圍鄉功勞村功勞路12號,121.7933197,24.75943565,宜蘭縣,壯圍鄉,國中
024322j,縣立南澳高中附設國中,校本部校區,縣立南澳高中附設國中_校本部校區,宜蘭縣南澳鄉蘇花路二段301號,121.2176971,24.86266327,桃園市,龍潭區,國中
24501,縣立宜蘭國中,校本部校區,縣立宜蘭國中_校本部校區,宜蘭市樹人路37號,121.7582016,24.76202393,宜蘭縣,宜蘭市,國中
24502,縣立中華國中,校本部校區,縣立中華國中_校本部校區,宜蘭縣宜蘭市女中路一段100號,121.7668686,24.75050926,宜蘭縣,宜蘭市,國中
24503,縣立復興國中,校本部校區,縣立復興國中_校本部校區,宜蘭縣宜蘭市復興路二段77號,121.7476349,24.74889183,宜蘭縣,宜蘭市,國中
24504,縣立羅東國中,校本部校區,縣立羅東國中_校本部校區,宜蘭縣羅東鎮中華路99號,121.7680893,24.68239784,宜蘭縣,羅東鎮,國中
24505,縣立東光國中,校本部校區,縣立東光國中_校本部校區,宜蘭縣羅東鎮興東南路201號,121.7663269,24.6715374,宜蘭縣,羅東鎮,國中
24506,縣立國華國中,校本部校區,縣立國華國中_校本部校區,宜蘭縣羅東鎮國華街101號,121.7611923,24.67764091,宜蘭縣,羅東鎮,國中
24507,縣立頭城國中,校本部校區,縣立頭城國中_校本部校區,宜蘭縣頭城鎮復興路145號,121.8215408,24.86499977,宜蘭縣,頭城鎮,國中
24508,縣立蘇澳國中,校本部校區,縣立蘇澳國中_校本部校區,宜蘭縣蘇澳鎮中山路二段1號,121.8354263,24.59527206,宜蘭縣,蘇澳鎮,國中
24509,縣立文化國中,校本部校區,縣立文化國中_校本部校區,宜蘭縣蘇澳鎮永榮里新馬路2號,121.8332672,24.61860275,宜蘭縣,蘇澳鎮,國中
24510,縣立南安國中,校本部校區,縣立南安國中_校本部校區,宜蘭縣蘇澳鎮南建里學府路117號,121.8687515,24.57495689,宜蘭縣,蘇澳鎮,國中
24511,縣立三星國中,校本部校區,縣立三星國中_校本部校區,宜蘭縣三星鄉月眉街54號,121.6530991,24.66806602,宜蘭縣,三星鄉,國中
24512,縣立礁溪國中,校本部校區,縣立礁溪國中_校本部校區,宜蘭縣礁溪鄉礁溪路4段23號,121.7677383,24.8171711,宜蘭縣,礁溪鄉,國中
24513,縣立吳沙國中,校本部校區,縣立吳沙國中_校本部校區,宜蘭縣礁溪鄉育英路79號,121.7590561,24.78574944,宜蘭縣,礁溪鄉,國中
24514,縣立冬山國中,校本部校區,縣立冬山國中_校本部校區,宜蘭縣冬山鄉南興村照安路26號,121.7928314,24.63164139,宜蘭縣,冬山鄉,國中
24515,縣立順安國中,校本部校區,縣立順安國中_校本部校區,宜蘭縣冬山鄉順安村永興路一段359號,121.7656097,24.65415764,宜蘭縣,冬山鄉,國中
24516,縣立五結國中,校本部校區,縣立五結國中_校本部校區,宜蘭縣五結鄉大吉村大吉5路58號,121.8006516,24.69669342,宜蘭縣,五結鄉,國中
24517,縣立興中國中,校本部校區,縣立興中國中_校本部校區,宜蘭縣五結鄉上四村中正東路50號,121.7711792,24.69946671,宜蘭縣,五結鄉,國中
24518,縣立利澤國中,校本部校區,縣立利澤國中_校本部校區,宜蘭縣五結鄉利寶路99號,121.8289871,24.66503143,宜蘭縣,五結鄉,國中
24519,縣立員山國中,校本部校區,縣立員山國中_校本部校區,宜蘭縣員山鄉溫泉路92號,121.7146683,24.75037384,宜蘭縣,員山鄉,國中
24521,縣立壯圍國中,校本部校區,縣立壯圍國中_校本部校區,宜蘭縣壯圍鄉富祥路588號,121.7885056,24.74932098,宜蘭縣,壯圍鄉,國中
24523,縣立大同國中,校本部校區,縣立大同國中_校本部校區,宜蘭縣大同鄉太平村一鄰泰雅路四段35號,121.4779282,24.57426262,宜蘭縣,大同鄉,國中
24524,縣立凱旋國中,校本部校區,縣立凱旋國中_校本部校區,260宜蘭縣宜蘭市縣政七街50巷1號,121.7562332,24.72590446,宜蘭縣,宜蘭市,國中
24525,縣立慈心華德福實驗國中(小),冬山校區,縣立慈心華德福實驗國中(小)_冬山校區,宜蘭縣冬山鄉香和村照安路257號,121.7947083,24.62638474,宜蘭縣,冬山鄉,國中
24526,縣立人文國中(小),校本部校區,縣立人文國中(小)_校本部校區,宜蘭縣頭城鎮拔雅里文雅路150號,121.8198853,24.86051941,宜蘭縣,頭城鎮,國中
024D01,縣立蘇澳國中補校,,縣立蘇澳國中補校_,宜蘭縣蘇澳鎮中山路二段1號,121.8354645,24.59635735,宜蘭縣,蘇澳鎮,國中
024D02,縣立頭城國中補校,,縣立頭城國中補校_,宜蘭縣頭城鎮復興路145號,121.8213196,24.86421585,宜蘭縣,頭城鎮,國中
024D03,縣立復興國中補校,,縣立復興國中補校_,宜蘭縣宜蘭市復興路二段77號,121.7472076,24.74910545,宜蘭縣,宜蘭市,國中
024D04,縣立東光國中補校,,縣立東光國中補校_,宜蘭縣羅東鎮興東南路201號,121.7668991,24.67188835,宜蘭縣,羅東鎮,國中
031310j,私立六和高中附設國中,校本部校區,私立六和高中附設國中_校本部校區,桃園縣平鎮市陸光路180號,121.1859512,24.94522858,桃園市,平鎮區,國中
031311j,私立復旦高中附設國中,校本部校區,私立復旦高中附設國中_校本部校區,桃園縣平鎮市復旦路二段122號,121.2030792,24.948349,桃園市,平鎮區,國中
031312j,私立治平高中附設國中,校本部校區,私立治平高中附設國中_校本部校區,桃園縣楊梅鎮埔心中興路137號,121.1880417,24.91550064,桃園市,楊梅區,國中
031313j,私立振聲高中附設國中,校本部校區,私立振聲高中附設國中_校本部校區,桃園縣桃園市復興路439號,121.3022614,24.99051476,桃園市,桃園區,國中
031319j,私立清華高中附設國中,校本部校區,私立清華高中附設國中_校本部校區,桃園縣新屋鄉中華路658號,121.1081314,24.98184395,桃園市,新屋區,國中
031320j,私立新興高中附設國中,校本部校區,私立新興高中附設國中_校本部校區,桃園縣桃園市富國路437號,121.2837448,25.01565933,桃園市,桃園區,國中
31323,桃園縣至善高級中學,校本部校區,桃園縣至善高級中學_校本部校區,桃園市大溪區康莊路645號,121.2844391,24.8672142,桃園市,大溪區,國中
031326j,私立大華高中附設國中,校本部校區,私立大華高中附設國中_校本部校區,桃園縣楊梅鎮三民路二段200號,121.1744385,24.88273239,桃園市,楊梅區,國中
31502,私立有得國中(小),校本部校區,私立有得國中(小)_校本部校區,桃園市中壢區長春一路288號,121.2518258,24.98076114,桃園市,中壢區,國中
31503,私立康萊爾國中(小),校本部校區,私立康萊爾國中(小)_校本部校區,桃園市桃園區力行路288巷8號,121.2975059,25.00041708,桃園市,桃園區,國中
034306j,市立南崁高中附設國中,校本部校區,市立南崁高中附設國中_校本部校區,桃園縣蘆竹鄉五福村仁愛路2段1號,121.5647202,22.05676651,臺東縣,蘭嶼鄉,國中
034312j,市立大溪高中附設國中,校本部校區,市立大溪高中附設國中_校本部校區,桃園縣大溪鎮康莊路641號,120.7464523,22.00585938,屏東縣,恆春鎮,國中
034314j,市立壽山高中附設國中,校本部校區,市立壽山高中附設國中_校本部校區,桃園縣龜山鄉大同路23號,120.6389694,24.10988426,臺中市,烏日區,國中
034347j,市立永豐高中附設國中,校本部校區,市立永豐高中附設國中_校本部校區,桃園縣八德市華康街26號,120.6683426,24.03624535,臺中市,霧峰區,國中
34501,市立桃園國中,校本部校區,市立桃園國中_校本部校區,桃園市桃園區莒光街2號,121.3047714,24.99575615,桃園市,桃園區,國中
34502,市立青溪國中,校本部校區,市立青溪國中_校本部校區,桃園市桃園區中山東路124號,121.3198853,24.99716759,桃園市,桃園區,國中
34503,市立文昌國中,校本部校區,市立文昌國中_校本部校區,桃園市桃園區民生路729號,121.3078232,25.01046181,桃園市,桃園區,國中
34504,市立建國國中,校本部校區,市立建國國中_校本部校區,桃園市桃園區介新街20號,121.3058929,24.97777939,桃園市,桃園區,國中
34505,市立中興國中,校本部校區,市立中興國中_校本部校區,桃園市桃園區文中路122號,121.2899475,24.99701118,桃園市,桃園區,國中
34506,市立南崁國中,桃園市立南崁國中,市立南崁國中_桃園市立南崁國中,桃園市蘆竹區五福里五福六路1號,121.2978821,25.05452919,桃園市,蘆竹區,國中
34507,市立山腳國中,校本部校區,市立山腳國中_校本部校區,桃園縣蘆竹鄉海山路319號,121.2786102,25.08816147,桃園市,蘆竹區,國中
34508,市立大竹國中,校本部校區,市立大竹國中_校本部校區,桃園市蘆竹區大竹里四4國中巷35號,121.2580185,25.02227974,桃園市,蘆竹區,國中
34509,市立大園國中,校本部校區,市立大園國中_校本部校區,桃園市大園區中華路298號,121.205719,25.07117844,桃園市,大園區,國中
34510,市立竹圍國中,校本部校區,市立竹圍國中_校本部校區,桃園市大園區沙崙里2鄰海港路2巷87號,121.2386475,25.10970116,桃園市,大園區,國中
34511,市立大溪國中,校本部校區,市立大溪國中_校本部校區,桃園市大溪區民權東路210號,121.2957916,24.87984657,桃園市,大溪區,國中
34513,市立仁和國中,校本部校區,市立仁和國中_校本部校區,桃園市大溪區仁和里仁和七街55號,121.2741394,24.89453888,桃園市,大溪區,國中
34515,市立大崗國中,校本部校區,市立大崗國中_校本部校區,桃園市龜山區文化村文化二路168號,121.371376,25.0520134,桃園市,龜山區,國中
34516,市立八德國中,校本部校區,市立八德國中_校本部校區,桃園市八德市興豐路321號,121.2874451,24.92995453,桃園市,八德區,國中
34517,市立大成國中,校本部校區,市立大成國中_校本部校區,桃園市八德區忠勇街12號,121.3056564,24.95871925,桃園市,八德區,國中
34518,市立中壢國中,校本部校區,市立中壢國中_校本部校區,桃園縣平鎮市延平路一段115號,121.2191925,24.95002365,桃園市,平鎮區,國中
34520,市立平南國中,校本部校區,市立平南國中_校本部校區,桃園市平鎮區中豐路南勢二段340號,121.210968,24.91004944,桃園市,平鎮區,國中
34521,市立新明國中,校本部校區,市立新明國中_校本部校區,桃園市中壢區中正路487巷18號,121.2122955,24.95653152,桃園市,中壢區,國中
34522,市立內壢國中,校本部校區,市立內壢國中_校本部校區,桃園市中壢區復華里復華一街108號,121.2489853,24.97109032,桃園市,中壢區,國中
34523,市立大崙國中,校本部校區,市立大崙國中_校本部校區,桃園市中壢區月眉路一段50號,121.1803131,24.99186897,桃園市,中壢區,國中
34524,市立龍岡國中,校本部校區,市立龍岡國中_校本部校區,桃園市中壢區龍東路147號,121.2518387,24.93005371,桃園市,中壢區,國中
34525,市立興南國中,校本部校區,市立興南國中_校本部校區,桃園市中壢區育英路55號,121.2267303,24.97429848,桃園市,中壢區,國中
34526,市立自強國中,校本部校區,市立自強國中_校本部校區,桃園市中壢區榮民路80號,121.259819,24.96891785,桃園市,中壢區,國中
34527,市立東興國中,校本部校區,市立東興國中_校本部校區,桃園市中壢區廣州路25號,121.2291107,24.95009995,桃園市,中壢區,國中
34528,市立楊梅國中,校本部校區,市立楊梅國中_校本部校區,桃園市楊梅區校前路149號,121.1471634,24.90495491,桃園市,楊梅區,國中
34529,市立仁美國中,校本部校區,市立仁美國中_校本部校區,桃園縣楊梅市高榮里梅獅路539巷1號,121.1833649,24.92437172,桃園市,楊梅區,國中
34530,市立富岡國中,校本部校區,市立富岡國中_校本部校區,桃園縣楊梅市豐野里中正路456號,121.0748138,24.9419136,桃園市,楊梅區,國中
34531,市立瑞原國中,校本部校區,市立瑞原國中_校本部校區,桃園縣楊梅市民豐路69號,121.1217117,24.93340302,桃園市,楊梅區,國中
34533,市立觀音國中,校本部校區,市立觀音國中_校本部校區,桃園市觀音區白玉里下庄子53之1號,121.0803757,25.03927612,桃園市,觀音區,國中
34534,市立草漯國中,校本部校區,市立草漯國中_校本部校區,桃園市觀音區草新里20鄰四維路73號,121.1407242,25.04436111,桃園市,觀音區,國中
34536,市立大坡國中,校本部校區,市立大坡國中_校本部校區,桃園市新屋區民有二路二段100號,121.0400314,24.96209717,桃園市,新屋區,國中
34537,市立永安國中,校本部校區,市立永安國中_校本部校區,桃園縣新屋鄉中山西路三段96號,121.0435638,24.98827934,桃園市,新屋區,國中
34538,市立龍潭國中,龍潭校區,市立龍潭國中_龍潭校區,桃園市龍潭區中正里龍華路460號,121.2159805,24.85568428,桃園市,龍潭區,國中
34539,市立凌雲國中,校本部校區,市立凌雲國中_校本部校區,桃園市龍潭區中豐路上林段418號,121.2024384,24.85894394,桃園市,龍潭區,國中
34540,市立石門國中,校本部校區,市立石門國中_校本部校區,桃園市龍潭區佳安里文化路137號,121.2401047,24.84079742,桃園市,龍潭區,國中
34540,市立石門國中,,市立石門國中_,桃園市龍潭區佳安里文化路137號,121.2404175,24.84070206,桃園市,龍潭區,國中
34541,市立介壽國中,校本部校區,市立介壽國中_校本部校區,桃園縣復興鄉澤仁村中正路248號,121.3515625,24.82019043,桃園市,復興區,國中
34542,市立慈文國中,校本部校區,市立慈文國中_校本部校區,桃園縣桃園市中正路835號,121.3011093,25.00917816,桃園市,桃園區,國中
34543,市立平興國中,校本部校區,市立平興國中_校本部校區,桃園縣平鎮市環南路300號,121.2060471,24.94957733,桃園市,平鎮區,國中
34544,市立楊明國中,校本部校區,市立楊明國中_校本部校區,桃園市楊梅區新農街337號,121.1549072,24.9107933,桃園市,楊梅區,國中
34545,市立龍興國中,校本部校區,市立龍興國中_校本部校區,桃園市中壢區龍勇路100號,121.2359314,24.93878174,桃園市,中壢區,國中
34546,市立福豐國中,桃園市立福豐國民中學,市立福豐國中_桃園市立福豐國民中學,桃園市桃園區延平路326號,121.3144531,24.97643471,桃園市,桃園區,國中
34549,市立東安國中,校本部校區,市立東安國中_校本部校區,桃園市平鎮區平東路168號,121.2494049,24.91682625,桃園市,平鎮區,國中
34550,市立光明國中,校本部校區,市立光明國中_校本部校區,桃園市蘆竹區光明路一段123號,121.2892532,25.04442215,桃園市,蘆竹區,國中
34551,市立同德國中,南平校區,市立同德國中_南平校區,桃園市桃園區南平路487號,121.2936478,25.01564217,桃園市,桃園區,國中
34552,市立幸福國中,校本部校區,市立幸福國中_校本部校區,桃園市龜山區中興路100巷20號,121.3320999,24.98799896,桃園市,龜山區,國中
34554,市立大有國中,校本部校區,市立大有國中_校本部校區,桃園市桃園區大有路215號,121.3195496,25.00929642,桃園市,桃園區,國中
34555,市立龜山國中,校本部校區,市立龜山國中_校本部校區,桃園縣龜山鄉自強西路66號,121.3386536,24.99746895,桃園市,龜山區,國中
34556,市立會稽國中,校本部校區,市立會稽國中_校本部校區,桃園市桃園區大興路222號,121.3143921,25.0163269,桃園市,桃園區,國中
34557,市立楊光國中(小),校本部校區,市立楊光國中(小)_校本部校區,桃園市楊梅區瑞溪路1 段88號,121.1687851,24.90647697,桃園市,楊梅區,國中
34559,市立迴龍國中(小),校本部校區,市立迴龍國中(小)_校本部校區,桃園市龜山區萬壽路一段168號,121.4051056,25.01942635,桃園市,龜山區,國中
34560,市立平鎮國中,校本部校區,市立平鎮國中_校本部校區,桃園市平鎮區新富里振興路2號,121.2182388,24.94499016,桃園市,平鎮區,國中
34561,市立武漢國中,校本部校區,市立武漢國中_校本部校區,桃園市龍潭區武中路227號,121.2316055,24.87877083,桃園市,龍潭區,國中
34562,市立經國國中,校本部校區,市立經國國中_校本部校區,桃園市桃園區經國路276號,121.3036194,25.02148056,桃園市,桃園區,國中
34563,市立過嶺國中,校本部校區,市立過嶺國中_校本部校區,桃園市中壢區松智路2號,121.1748886,24.96039772,桃園市,中壢區,國中
34564,市立瑞坪國中,校本部校區,市立瑞坪國中_校本部校區,桃園巿楊梅區瑞坪里14鄰文化街535號,121.1803589,24.90686417,桃園市,楊梅區,國中
34565,市立青埔國中,校本部校區,市立青埔國中_校本部校區,桃園市中壢區領航北路2段281號,121.2055283,25.01052094,桃園市,中壢區,國中
034D01,市立桃園國中補校,,市立桃園國中補校_,桃園縣桃園市莒光街2號,121.3050766,24.99557495,桃園市,桃園區,國中
034D02,市立青溪國中補校,,市立青溪國中補校_,桃園縣桃園市中山東路124號,121.3196182,24.99731255,桃園市,桃園區,國中
034D04,市立大成國中補校,,市立大成國中補校_,桃園縣八德市大勇村忠勇街12號,121.3050385,24.95827675,桃園市,八德區,國中
034D05,市立內壢國中補校,,市立內壢國中補校_,桃園縣中壢市復華里復華一街108號,121.2488556,24.97104263,桃園市,中壢區,國中
034D06,市立中壢國中補校,,市立中壢國中補校_,桃園縣平鎮市德育路180號,121.2189026,24.95013046,桃園市,平鎮區,國中
034D07,市立龍潭國中補校,,市立龍潭國中補校_,桃園縣龍潭鄉中正村龍華路460號,121.2174454,24.85630035,桃園市,龍潭區,國中
034D08,市立仁美國中補校,,市立仁美國中補校_,桃園縣楊梅市高榮里11鄰東高山頂9-8號,121.1834488,24.92493439,桃園市,楊梅區,國中
034D09,市立楊梅國中補校,,市立楊梅國中補校_,桃園縣楊梅市校前路149號,121.1480408,24.90349579,桃園市,楊梅區,國中
034D10,市立東興國中補校,,市立東興國中補校_,桃園縣中壢市廣州路25號,121.230011,24.94985199,桃園市,中壢區,國中
034D12,市立大園國中補校,,市立大園國中補校_,桃園縣大園鄉中華路298號,121.20504,25.07079506,桃園市,大園區,國中
034D13j,市立南崁高中附設國中補校,,市立南崁高中附設國中補校_,桃園縣桃園市昆明路95號,121.3152466,24.98352051,桃園市,桃園區,國中
034D15,市立平南國中補校,,市立平南國中補校_,桃園縣平鎮市中豐路南勢二段340號,121.2112579,24.90952301,桃園市,平鎮區,國中
034D16,市立龍岡國中補校,,市立龍岡國中補校_,桃園縣中壢市龍東路147號,121.2519531,24.92980194,桃園市,中壢區,國中
034D19,市立觀音國中補校,,市立觀音國中補校_,桃園縣觀音鄉白玉村下庄子53之1號,121.0807037,25.03893661,桃園市,觀音區,國中
034D20,市立八德國中補校,,市立八德國中補校_,桃園縣八德市興豐路321號,121.2868195,24.92943954,桃園市,八德區,國中
034D21,市立大竹國中補校,,市立大竹國中補校_,桃園縣蘆竹鄉大竹村四鄰國中巷35號,121.2584763,25.02277184,桃園市,蘆竹區,國中
034D92,市立文昌國中補校分校,,市立文昌國中補校分校_,桃園縣桃園市民生路729號,121.3079758,25.01049042,桃園市,桃園區,國中
041303j,私立義民高中附設國中,校本部校區,私立義民高中附設國中_校本部校區,新竹縣竹北市中正西路15號,121.0040665,24.83913612,新竹縣,竹北市,國中
041305j,私立忠信高中附設國中,校本部校區,私立忠信高中附設國中_校本部校區,新竹縣新豐鄉忠信街178號,121.0018768,24.88107872,新竹縣,新豐鄉,國中
041306j,私立東泰高中附設國中,校本部校區,私立東泰高中附設國中_校本部校區,新竹縣竹東鎮東峰路343號,121.0983124,24.71157265,新竹縣,竹東鎮,國中
041307j,私立仰德高中附設國中,校本部校區,私立仰德高中附設國中_校本部校區,新竹縣新豐鄉員山村133號,121.0051956,24.88158989,新竹縣,新豐鄉,國中
41501,私立康乃薾國中(小),校本部校區,私立康乃薾國中(小)_校本部校區,新竹縣竹北市六家一路二段115號,121.0359879,24.80509758,新竹縣,竹北市,國中
44311,縣立六家高級中學,校本部校區,縣立六家高級中學_校本部校區,新竹縣竹北市嘉興路356號,121.0319979,24.82093404,新竹縣,竹北市,國中
044320j,縣立湖口高中附設國中,校本部校區,縣立湖口高中附設國中_校本部校區,新竹縣湖口鄉中正路二段263巷21號,121.0523834,24.89085579,新竹縣,湖口鄉,國中
44501,縣立竹東國中,校本部校區,縣立竹東國中_校本部校區,新竹縣竹東鎮公園路8號,121.0871964,24.73605728,新竹縣,竹東鎮,國中
44502,縣立二重國中,校本部校區,縣立二重國中_校本部校區,新竹縣竹東鎮學府路132號,121.0543823,24.76491356,新竹縣,竹東鎮,國中
44503,縣立員東國中,校本部校區,縣立員東國中_校本部校區,新竹縣竹東鎮東峰路521號,121.0979538,24.70729256,新竹縣,竹東鎮,國中
44504,縣立關西國中,校本部校區,縣立關西國中_校本部校區,新竹縣關西鎮北斗里北門口41號,121.1732483,24.79876709,新竹縣,關西鎮,國中
44505,縣立石光國中,校本部校區,縣立石光國中_校本部校區,新竹縣關西鎮石光里308巷44號,121.1298065,24.81479073,新竹縣,關西鎮,國中
44506,縣立富光國中,校本部校區,縣立富光國中_校本部校區,新竹縣關西鎮東光里十六張49號,121.1809082,24.77988815,新竹縣,關西鎮,國中
44507,縣立新埔國中,校本部校區,縣立新埔國中_校本部校區,新竹縣新埔鎮中正路792號,121.0709763,24.82797623,新竹縣,新埔鎮,國中
44508,縣立照門國中,校本部校區,縣立照門國中_校本部校區,新竹縣新埔鎮照門里照鏡7號,121.1127167,24.8493309,新竹縣,新埔鎮,國中
44509,縣立竹北國中,縣立竹北國中,縣立竹北國中_縣立竹北國中,新竹縣竹北市中正西路154號,121.0003052,24.84150696,新竹縣,竹北市,國中
44510,縣立鳳岡國中,校本部校區,縣立鳳岡國中_校本部校區,新竹縣竹北市大義里鳳岡路三段100號,120.9653549,24.86432648,新竹縣,竹北市,國中
44511,新竹縣立六家高級中學(附國中部),校本部校區,新竹縣立六家高級中學(附國中部)_校本部校區,新竹縣竹北市嘉興路356號,121.0326233,24.82061958,新竹縣,竹北市,國中
44512,縣立芎林國中,校本部校區,縣立芎林國中_校本部校區,新竹縣芎林鄉新鳳村74號,121.0913086,24.76209259,新竹縣,芎林鄉,國中
44513,縣立新豐國中,校本部校區,縣立新豐國中_校本部校區,新竹縣新豐鄉成德街36號,120.9909439,24.90214539,新竹縣,新豐鄉,國中
44514,縣立精華國中,校本部校區,縣立精華國中_校本部校區,新竹縣新豐鄉後湖村八鄰166號,121.0187149,24.92616844,新竹縣,新豐鄉,國中
44515,縣立橫山國中,校本部校區,縣立橫山國中_校本部校區,新竹縣橫山鄉中豐路二段415號,121.1467056,24.71820068,新竹縣,橫山鄉,國中
44516,縣立華山國中,校本部校區,縣立華山國中_校本部校區,新竹縣橫山鄉橫山街一段29號,121.1094131,24.71772194,新竹縣,橫山鄉,國中
44517,縣立寶山國中,校本部校區,縣立寶山國中_校本部校區,新竹縣寶山鄉雙溪村三峰路二段600號,120.9913559,24.76469994,新竹縣,寶山鄉,國中
044517c1,縣立寶山國中莒光分部,校本部校區,縣立寶山國中莒光分部_校本部校區,新竹縣寶山鄉寶山村新湖路一段386號,121.0258484,24.73638535,新竹縣,寶山鄉,國中
44518,縣立北埔國中,校本部校區,縣立北埔國中_校本部校區,新竹縣北埔鄉埔尾村141號,121.0474472,24.70450974,新竹縣,北埔鄉,國中
44519,縣立峨眉國中,校本部校區,縣立峨眉國中_校本部校區,新竹縣峨眉鄉峨眉街十鄰54號,121.0180817,24.69080162,新竹縣,峨眉鄉,國中
44521,縣立新湖國中,校本部校區,縣立新湖國中_校本部校區,新竹縣湖口鄉新湖路200號,121.0358734,24.90343666,新竹縣,湖口鄉,國中
44522,縣立中正國中,校本部校區,縣立中正國中_校本部校區,新竹縣湖口鄉鳳凰村仁興路135號,121.0179901,24.87362289,新竹縣,湖口鄉,國中
44523,縣立五峰國中,校本部校區,縣立五峰國中_校本部校區,新竹縣五峰鄉大隘村六鄰113號,121.1187134,24.63253212,新竹縣,五峰鄉,國中
44524,縣立尖石國中,Nahuy校區,縣立尖石國中_Nahuy校區,新竹縣尖石鄉嘉樂村3鄰80號,121.2023239,24.70710182,新竹縣,尖石鄉,國中
44525,縣立忠孝國中,校本部校區,縣立忠孝國中_校本部校區,新竹縣新豐鄉忠孝村孝六街1號,120.9992676,24.87931633,新竹縣,新豐鄉,國中
44526,縣立博愛國中,校本部校區,縣立博愛國中_校本部校區,新竹縣竹北市縣政十三路81號,121.0069351,24.8301239,新竹縣,竹北市,國中
44527,縣立仁愛國中,校本部校區,縣立仁愛國中_校本部校區,新竹縣竹北市三民路239號,121.0144196,24.83223724,新竹縣,竹北市,國中
44528,縣立自強國中,校本部校區,縣立自強國中_校本部校區,新竹縣竹東鎮自強路169號,121.0847397,24.74505997,新竹縣,竹東鎮,國中
44529,縣立成功國中,校本部校區,縣立成功國中_校本部校區,新竹縣竹北市成功八路99號,121.0175171,24.81855392,新竹縣,竹北市,國中
44530,縣立東興國中,校本部校區,縣立東興國中_校本部校區,新竹縣竹北市嘉豐六路一段101號,121.0302525,24.81144966,新竹縣,竹北市,國中
044D02,縣立竹北國中補校,,縣立竹北國中補校_,新竹縣竹北市中正西路154號,121.0005264,24.84107208,新竹縣,竹北市,國中
044D03,縣立竹東國中補校,,縣立竹東國中補校_,新竹縣竹東鎮康寧街45號,121.0867844,24.73169327,新竹縣,竹東鎮,國中
050314j,國立卓蘭實驗高中附設國中,老庄校區,國立卓蘭實驗高中附設國中_老庄校區,苗栗縣卓蘭鎮老庄里161號,120.8319626,24.3127079,苗栗縣,卓蘭鎮,國中
051302j,私立君毅高中附設國中,校本部校區,私立君毅高中附設國中_校本部校區,苗栗縣竹南鎮公義路245號,121.1420898,24.96254921,桃園市,新屋區,國中
051305j,私立大成高中附設國中,校本部校區,私立大成高中附設國中_校本部校區,苗栗縣頭份鎮新華里下新店65號,121.0259323,24.97480392,桃園市,新屋區,國中
051306j,私立建台高中附設國中,校本部校區,私立建台高中附設國中_校本部校區,苗栗縣苗栗市福麗里至公路251號,120.8149414,24.56024551,苗栗縣,苗栗市,國中
051307j,私立全人實驗高中附設國中,校本部校區,私立全人實驗高中附設國中_校本部校區,苗栗縣卓蘭鎮內灣里11鄰141-3號,121.0087357,24.94835091,桃園市,新屋區,國中
054317j,縣立興華高中附設國中,校本部校區,縣立興華高中附設國中_校本部校區,苗栗縣頭份鎮中正一路401號,120.9358673,24.68572426,苗栗縣,頭份鎮,國中
54501,縣立苗栗國中,校本部校區,縣立苗栗國中_校本部校區,苗栗縣苗栗市高苗里木鐸山1號,120.812561,24.55370903,苗栗縣,苗栗市,國中
54502,縣立大倫國中,校本部校區,縣立大倫國中_校本部校區,苗栗縣苗栗市玉清里育英街82號,120.8310471,24.56944084,苗栗縣,苗栗市,國中
54503,縣立明仁國中,校本部校區,縣立明仁國中_校本部校區,苗栗縣苗栗市福麗里電台10號,120.8125153,24.55858421,苗栗縣,苗栗市,國中
54504,縣立頭屋國中,校本部校區,縣立頭屋國中_校本部校區,苗栗縣頭屋鄉中正街86巷14號,120.8495941,24.57894135,苗栗縣,頭屋鄉,國中
54505,縣立公館國中,校本部校區,縣立公館國中_校本部校區,苗栗縣公館鄉館中村大同路3號,120.8267365,24.49810791,苗栗縣,公館鄉,國中
54506,縣立鶴岡國中,鶴岡校區,縣立鶴岡國中_鶴岡校區,苗栗縣公館鄉鶴岡村178號,120.8306122,24.52790833,苗栗縣,公館鄉,國中
54507,縣立文林國中,校本部校區,縣立文林國中_校本部校區,苗栗縣銅鑼鄉朝陽村文化街12號,120.789505,24.49074745,苗栗縣,銅鑼鄉,國中
054507c1,縣立文林國中(文隆分部),文隆校區,縣立文林國中(文隆分部)_文隆校區,366 苗栗縣銅鑼鄉新隆村11-5號,120.8097076,24.43060493,苗栗縣,銅鑼鄉,國中
54510,縣立致民國中,校本部校區,縣立致民國中_校本部校區,苗栗縣苑裡鎮舊社里9鄰96之1號,120.6852417,24.41869545,苗栗縣,苑裡鎮,國中
54511,縣立通霄國中,校本部校區,縣立通霄國中_校本部校區,苗栗縣通霄鎮中山路190巷1號,120.6806564,24.49272346,苗栗縣,通霄鎮,國中
54512,縣立南和國中,校本部校區,縣立南和國中_校本部校區,苗栗縣通霄鎮南和里112之1號,120.7214432,24.44756889,苗栗縣,通霄鎮,國中
54513,縣立烏眉國中,校本部校區,縣立烏眉國中_校本部校區,苗栗縣通霄鎮內湖里1鄰5-1號,120.7159653,24.50633812,苗栗縣,通霄鎮,國中
54514,縣立啟新國中,校本部校區,縣立啟新國中_校本部校區,苗栗縣通霄鎮白東里135之2號,120.7133942,24.56113815,苗栗縣,通霄鎮,國中
54515,縣立西湖國中,西湖國中校區,縣立西湖國中_西湖國中校區,苗栗縣西湖鄉龍洞村一鄰1之1號,120.7578506,24.55543709,苗栗縣,西湖鄉,國中
54516,縣立頭份國中,校本部校區,縣立頭份國中_校本部校區,苗栗縣頭份市中央路275號,120.9010468,24.69148827,苗栗縣,頭份鎮,國中
54518,縣立文英國中,校本部校區,縣立文英國中_校本部校區,苗栗縣頭份市尖下里200號,120.8807602,24.65607643,苗栗縣,頭份鎮,國中
54519,縣立竹南國中,中正路校區,縣立竹南國中_中正路校區,苗栗縣竹南鎮正南里中正路92號,120.8760605,24.68487358,苗栗縣,竹南鎮,國中
54520,縣立照南國中,校本部校區,縣立照南國中_校本部校區,苗栗縣竹南鎮佳興里３鄰公教路2號,120.876976,24.69363022,苗栗縣,竹南鎮,國中
54521,縣立三灣國中,校本部校區,縣立三灣國中_校本部校區,苗栗縣三灣鄉三灣村忠信路17號,120.9536209,24.64988518,苗栗縣,三灣鄉,國中
54522,縣立南庄國中,校本部校區,縣立南庄國中_校本部校區,苗栗縣南庄鄉東村中正路165號,121.0002441,24.60411644,苗栗縣,南庄鄉,國中
54523,縣立造橋國中,校本部校區,縣立造橋國中_校本部校區,苗栗縣造橋鄉造橋村1鄰27號,120.8638077,24.63944817,苗栗縣,造橋鄉,國中
54524,縣立大西國中,校本部校區,縣立大西國中_校本部校區,苗栗縣造橋鄉大中街73號,120.8947601,24.62529755,苗栗縣,造橋鄉,國中
54525,縣立後龍國中,校本部校區,縣立後龍國中_校本部校區,苗栗縣後龍鎮南龍里勝利街250號,120.7851105,24.61723518,苗栗縣,後龍鎮,國中
54526,縣立維真國中,校本部校區,縣立維真國中_校本部校區,苗栗縣後龍鎮大庄里中山路252號,120.794899,24.61291504,苗栗縣,後龍鎮,國中
54527,縣立大湖國中,校本部校區,縣立大湖國中_校本部校區,苗栗縣大湖鄉靜湖村民族路80號,120.8712006,24.42691422,苗栗縣,大湖鄉,國中
54528,苗栗縣立南湖國中,校本部校區,苗栗縣立南湖國中_校本部校區,苗栗縣立大湖鄉義和村3鄰12號,120.8679428,24.39765739,苗栗縣,大湖鄉,國中
54529,縣立獅潭國中,校本部校區,縣立獅潭國中_校本部校區,苗栗縣獅潭鄉新店村21號,120.9231873,24.54522896,苗栗縣,獅潭鄉,國中
54531,縣立泰安國中(小),校本部校區,縣立泰安國中(小)_校本部校區,苗栗縣泰安鄉大興村一鄰32之1號,120.9088211,24.42206573,苗栗縣,泰安鄉,國中
54532,縣立建國國中,校本部校區,縣立建國國中_校本部校區,苗栗縣頭份鎮建國路119號,120.9099197,24.69491959,苗栗縣,頭份鎮,國中
54533,苗栗縣立大同高級中學,校本部校區,苗栗縣立大同高級中學_校本部校區,苗栗縣竹南鎮公義路890號,120.8953247,24.707901,苗栗縣,竹南鎮,國中
54534,縣立福興武術國中(小),校本部校區,縣立福興武術國中(小)_校本部校區,苗栗縣通霄鎮福興里58-2號,120.7277832,24.42551994,苗栗縣,通霄鎮,國中
54535,縣立新港國中(小),校本部校區,縣立新港國中(小)_校本部校區,苗栗縣後龍鎮校椅里校椅二路168號,120.8266081,24.61059419,苗栗縣,後龍鎮,國中
54680,縣立新港國中(小),校本部校區,縣立新港國中(小)_校本部校區,苗栗縣後龍鎮校椅里12鄰校椅二路168號,120.8194351,24.61276627,苗栗縣,後龍鎮,國中
054D01,縣立竹南國中補校,,縣立竹南國中補校_,苗栗縣竹南鎮正南里中正路92號,120.8762054,24.68535995,苗栗縣,竹南鎮,國中
054D04,縣立大倫國中補校,,縣立大倫國中補校_,苗栗縣苗栗市玉清里育英街82號,120.8309097,24.56990051,苗栗縣,苗栗市,國中
60322,國立中興大學附屬高級中學,校本部校區,國立中興大學附屬高級中學_校本部校區,臺中市大里區東榮路369號,120.6828918,24.10926056,臺中市,大里區,國中
60323,國立中科實驗高級中學,校本部校區,國立中科實驗高級中學_校本部校區,台中市大雅區平和路227號,120.6251984,24.22957993,臺中市,大雅區,國中
061301j,私立常春藤高中附設國中,校本部校區,私立常春藤高中附設國中_校本部校區,台中縣潭子鄉潭興路一段165巷320號,120.7514648,24.12321663,臺中市,太平區,國中
061310j,私立大明高中附設國中,校本部校區,私立大明高中附設國中_校本部校區,台中縣大里市新仁路三段210號,120.6859741,24.11649132,臺中市,大里區,國中
061311j,私立嘉陽高中附設國中,校本部校區,私立嘉陽高中附設國中_校本部校區,台中縣清水鎮中清路1號,120.5760727,24.26493835,臺中市,清水區,國中
061313j,私立明道高中附設國中,校本部校區,私立明道高中附設國中_校本部校區,台中縣烏日鄉中山路一段497號,120.6361008,24.10686874,臺中市,烏日區,國中
061314j,私立僑泰高中附設國中,校本部校區,私立僑泰高中附設國中_校本部校區,台中縣大里市樹王路342號,120.6669617,24.1117897,臺中市,大里區,國中
061315j,私立華盛頓高中附設國中,校本部校區,私立華盛頓高中附設國中_校本部校區,台中縣太平市部仔路26號(原弘仁),120.7449493,24.15838242,臺中市,太平區,國中
61317,臺中市私立弘文高級中學,弘文校區,臺中市私立弘文高級中學_弘文校區,臺中市潭子區弘文街100號,120.7043152,24.22623444,臺中市,潭子區,國中
061317j,臺中市私立弘文高級中學,校本部校區,臺中市私立弘文高級中學_校本部校區,臺中市潭子區弘文街100號,120.7042542,24.22638893,臺中市,潭子區,國中
061318j,私立立人高中附設國中,校本部校區,私立立人高中附設國中_校本部校區,台中縣大里市中興路二段380號,120.6908417,24.10569572,臺中市,大里區,國中
061319j,私立玉山高中附設國中(校舍活用),校本部校區,私立玉山高中附設國中(校舍活用)_校本部校區,台中縣東勢鎮東崎街125之5號,120.6897354,24.10068321,臺中市,大里區,國中
61502,私立麗澤國中(小),校本部校區,私立麗澤國中(小)_校本部校區,臺中市西屯區國安二路242巷199號,120.6144409,24.19472122,臺中市,西屯區,國中
63501,臺中市立善水國中(小),校本部校區,臺中市立善水國中(小)_校本部校區,臺中市梧棲區梧南路50號,120.5235596,24.24274635,臺中市,梧棲區,國中
064308j,縣立后綜高中附設國中,校本部校區,縣立后綜高中附設國中_校本部校區,台中縣后里鄉三豐路80號,120.7226181,24.30622482,臺中市,后里區,國中
064324j,縣立大里高中附設國中,校本部校區,縣立大里高中附設國中_校本部校區,台中縣大里市國中路365號,120.6789627,24.09512329,臺中市,大里區,國中
064328j,縣立新社高中附設國中,校本部校區,縣立新社高中附設國中_校本部校區,台中縣新社鄉中和街三段國中巷10號,120.8067093,24.23724174,臺中市,新社區,國中
064336j,縣立長億高中附設國中,校本部校區,縣立長億高中附設國中_校本部校區,台中縣太平市長億里長億六街1號,120.7210083,24.11388016,臺中市,太平區,國中
64342,市立中港高級中學,校本部校區,市立中港高級中學_校本部校區,臺中市梧棲區文昌路400號,120.5421219,24.24479866,臺中市,梧棲區,國中
064342j,縣立中港高中附設國中,校本部校區,縣立中港高中附設國中_校本部校區,台中縣梧棲鎮文昌路400號,120.5420074,24.24419212,臺中市,梧棲區,國中
64501,市立豐原國中,校本部校區,市立豐原國中_校本部校區,420 臺中市豐原區三豐路一段321號,120.7192307,24.26097298,臺中市,豐原區,國中
64502,市立豐東國中,校本部校區,市立豐東國中_校本部校區,臺中市豐原區豐東路75號,120.7289734,24.24739647,臺中市,豐原區,國中
64503,市立豐南國中,校本部校區,市立豐南國中_校本部校區,臺中市豐原區豐南街151號,120.7168503,24.23933792,臺中市,豐原區,國中
64504,市立潭子國中,校本部校區,市立潭子國中_校本部校區,臺中市潭子區潭興路二段419巷1號,120.7079697,24.20906067,臺中市,潭子區,國中
64505,市立大雅國中,校本部校區,市立大雅國中_校本部校區,臺中市大雅區學府路280號,120.6504517,24.22409821,臺中市,大雅區,國中
64506,市立神岡國中,校本部校區,市立神岡國中_校本部校區,臺中市神岡區社南里中山路627號,120.6808701,24.2473793,臺中市,神岡區,國中
64507,市立后里國中,校本部校區,市立后里國中_校本部校區,臺中市后里區眉山里第三鄰中眉路169號,120.6953812,24.30784035,臺中市,后里區,國中
64509,市立外埔國中,校本部校區,市立外埔國中_校本部校區,臺中市外埔區甲后路505號,120.6499634,24.33247948,臺中市,外埔區,國中
64510,市立大甲國中,校本部校區,市立大甲國中_校本部校區,臺中市大甲區育英路186號,120.6227722,24.35430717,臺中市,大甲區,國中
64511,市立日南國中,校本部校區,市立日南國中_校本部校區,臺中市大甲區中山路二段69-11號,120.6516953,24.37735939,臺中市,大甲區,國中
64512,市立大安國中,校本部校區,市立大安國中_校本部校區,台中市大安區大安港路691號,120.6017151,24.36510468,臺中市,大安區,國中
64513,市立清水國中,校本部校區,市立清水國中_校本部校區,臺中市清水區鰲峰路250號,120.5625229,24.26851273,臺中市,清水區,國中
64514,市立清泉國中,校本部校區,市立清泉國中_校本部校區,臺中市清水區菁埔里臨海路27之2號,120.5917511,24.30597115,臺中市,清水區,國中
64515,臺中市立沙鹿國中,校本部校區,臺中市立沙鹿國中_校本部校區,臺中市立沙鹿國民中學,120.5626678,24.2352066,臺中市,沙鹿區,國中
64516,市立梧棲國中,校本部校區,市立梧棲國中_校本部校區,臺中市梧棲區文化里民生街12號,120.5327682,24.25251198,臺中市,梧棲區,國中
64517,市立龍井國中,校本部校區,市立龍井國中_校本部校區,臺中市龍井區觀光路9號,120.5435486,24.19190598,臺中市,龍井區,國中
64518,市立四箴國中,校本部校區,市立四箴國中_校本部校區,臺中市龍井區中沙路2號,120.5765076,24.17945099,臺中市,龍井區,國中
64519,市立大道國中,校本部校區,市立大道國中_校本部校區,台中市大肚區仁德路60號,120.5498428,24.14701843,臺中市,大肚區,國中
64520,市立烏日國中,校本部校區,市立烏日國中_校本部校區,臺中市烏日區新興路457號,120.6173706,24.10466957,臺中市,烏日區,國中
64521,市立溪南國中,校本部校區,市立溪南國中_校本部校區,臺中市烏日區溪南路一段731號,120.6446915,24.07188606,臺中市,烏日區,國中
64522,市立霧峰國中,校本部校區,市立霧峰國中_校本部校區,臺中市霧峰區國中路110號,120.6889572,24.06763458,臺中市,霧峰區,國中
64523,市立光復國中(小),校本部校區,市立光復國中(小)_校本部校區,台中市霧峰區柳豐路535號,120.6895905,24.04284286,臺中市,霧峰區,國中
64525,市立太平國中,校本部校區,市立太平國中_校本部校區,臺中市太平區中山路二段116號,120.7346497,24.14831734,臺中市,太平區,國中
64526,市立中平國中,校本部校區,市立中平國中_校本部校區,臺中市太平區中平里太平路300號,120.7190475,24.12340736,臺中市,太平區,國中
64527,市立石岡國中,校本部校區,市立石岡國中_校本部校區,臺中市石岡區豐勢路梅子里國中巷1號,120.7966919,24.26728821,臺中市,新社區,國中
64529,市立東勢國中,校本部校區,市立東勢國中_校本部校區,臺中市東勢區東崎路5段415號,120.8323288,24.25069618,臺中市,東勢區,國中
64530,市立東華國中,校本部校區,市立東華國中_校本部校區,臺中市東勢區東關路五段500號,120.8398056,24.20524979,臺中市,東勢區,國中
64531,市立東新國中,校本部校區,市立東新國中_校本部校區,臺中市東勢區東新里5鄰東環街123號,120.8294678,24.26335526,臺中市,東勢區,國中
64532,市立成功國中,校本部校區,市立成功國中_校本部校區,臺中市大里區至善路157號,120.6988754,24.09340096,臺中市,大里區,國中
64533,市立和平國中,校本部校區,市立和平國中_校本部校區,臺中市和平區東關路三段崑崙巷62號,120.8824997,24.17868805,臺中市,和平區,國中
64534,市立北勢國中,校本部校區,市立北勢國中_校本部校區,臺中市沙鹿區英才路150號,120.5692444,24.22537994,臺中市,沙鹿區,國中
64535,市立鹿寮國中,校本部校區,市立鹿寮國中_校本部校區,臺中市沙鹿區光華路385號,120.5665894,24.24400902,臺中市,沙鹿區,國中
64537,市立光榮國中,校本部校區,市立光榮國中_校本部校區,臺中市大里區東榮路280號,120.6873856,24.111166,臺中市,大里區,國中
64538,市立潭秀國中,校本部校區,市立潭秀國中_校本部校區,臺中市潭子區雅潭路一段175號,120.6994553,24.2154789,臺中市,潭子區,國中
64539,市立順天國中,校本部校區,市立順天國中_校本部校區,臺中市大甲區大安港路67號,120.6147308,24.34991264,臺中市,大甲區,國中
64540,市立清海國中,校本部校區,市立清海國中_校本部校區,臺中市清水區武鹿里中央路51之60號,120.5536575,24.27642441,臺中市,清水區,國中
64541,市立大華國中,校本部校區,市立大華國中_校本部校區,臺中市大雅區雅環路一段2號,120.6508713,24.2159996,臺中市,大雅區,國中
64543,市立新光國中,校本部校區,市立新光國中_校本部校區,臺中市太平區樹德九街 139 號,120.7093277,24.15790367,臺中市,太平區,國中
64544,市立光正國中,校本部校區,市立光正國中_校本部校區,臺中市大里區鳳凰路68號,120.718399,24.09565735,臺中市,大里區,國中
64545,市立豐陽國中,校本部校區,市立豐陽國中_校本部校區,臺中市豐原區朝陽路33號,120.744957,24.26202774,臺中市,豐原區,國中
64546,市立光德國中,校本部校區,市立光德國中_校本部校區,臺中市烏日區信義街99號,120.6412048,24.10510635,臺中市,烏日區,國中
64547,市立立新國中,校本部校區,市立立新國中_校本部校區,臺中市大里區甲堤路236號,120.6972351,24.10474014,臺中市,大里區,國中
64548,市立爽文國中,校本部校區,市立爽文國中_校本部校區,臺中市大里區永隆三街1號,120.6785202,24.10752869,臺中市,大里區,國中
64549,市立公明國中,校本部校區,市立公明國中_校本部校區,臺中市沙鹿區公明里中清路六段567號,120.5992432,24.24979973,臺中市,沙鹿區,國中
64551,市立神圳國中,校本部校區,市立神圳國中_校本部校區,臺中市神岡區神清路61號,120.6575699,24.26093483,臺中市,神岡區,國中
64552,市立梨山國中(小),校本部校區,市立梨山國中(小)_校本部校區,臺中市和平區梨山里福壽路10號,121.2596817,24.25592613,臺中市,和平區,國中
064D01,縣立東勢國中補校,,縣立東勢國中補校_,臺中市東勢區東崎街385號,120.8327179,24.25094414,臺中市,東勢區,國中
064D02,縣立潭子國中補校,,縣立潭子國中補校_,臺中市潭子區潭興路二段419巷1號,120.7076187,24.20927429,臺中市,潭子區,國中
064D03,縣立大道國中補校,,縣立大道國中補校_,臺中市大肚區仁德路60號,120.5503159,24.14741135,臺中市,大肚區,國中
064D04,縣立大甲國中補校,,縣立大甲國中補校_,臺中市大甲區育英路186號,120.622406,24.35328865,臺中市,大甲區,國中
064D05,縣立清水國中補校,,縣立清水國中補校_,臺中市清水區鰲峰路250號,120.5624542,24.26795959,臺中市,清水區,國中
064D06,縣立沙鹿國中補校,,縣立沙鹿國中補校_,臺中市沙鹿區中正街1號,120.5624847,24.23594284,臺中市,沙鹿區,國中
064D08,縣立后綜國中補校,,縣立后綜國中補校_,臺中市后里區三豐路80號,120.722847,24.3065567,臺中市,后里區,國中
064D09,縣立豐原國中補校,,縣立豐原國中補校_,臺中市豐原區三豐路467號,120.719017,24.2607708,臺中市,豐原區,國中
064D10,縣立大雅國中補校,,縣立大雅國中補校_,臺中市大雅區學府路280號,120.650177,24.22418785,臺中市,大雅區,國中
064D11,縣立光復國中(小)補校,,縣立光復國中(小)補校_,臺中市霧峰區南柳里柳豐路535號,120.6895599,24.04322624,臺中市,霧峰區,國中
064D12,縣立四箴國中補校,,縣立四箴國中補校_,臺中市龍井區中沙路2號,120.5761566,24.18002701,臺中市,龍井區,國中
064D13,縣立成功國中補校,,縣立成功國中補校_,臺中市大里區至善路157號,120.6990128,24.09410667,臺中市,大里區,國中
064D14,縣立中平國中補校,,縣立中平國中補校_,臺中市太平區太平路300號,121.4445419,25.05349731,新北市,新莊區,國中
064D15,縣立溪南國中補校,,縣立溪南國中補校_,臺中市烏日區溪南路一段731號,120.6442642,24.07219315,臺中市,烏日區,國中
064D16,縣立梧棲國中補校,,縣立梧棲國中補校_,臺中市梧棲區文化里民生街12號,120.533226,24.2532711,臺中市,梧棲區,國中
071311j,私立精誠高中附設國中,校本部校區,私立精誠高中附設國中_校本部校區,彰化縣彰化市林森路200號,121.3070908,24.99827576,桃園市,桃園區,國中
071317j,私立文興高中附設國中,校本部校區,私立文興高中附設國中_校本部校區,彰化縣田中鎮員集路三段93號,121.3108368,24.99225616,桃園市,桃園區,國中
074308j,縣立彰化藝術高中附設國中,校本部校區,縣立彰化藝術高中附設國中_校本部校區,彰化縣彰化市公園路一段409號,121.3147964,24.97663307,桃園市,桃園區,國中
074313j,縣立二林高中附設國中,校本部校區,縣立二林高中附設國中_校本部校區,彰化縣二林鎮中西里二城路6號,121.3149796,24.99458885,桃園市,桃園區,國中
74501,縣立北斗國中,校本部校區,縣立北斗國中_校本部校區,彰化縣北斗鎮文苑路一段136號,120.5215836,23.8759346,彰化縣,北斗鎮,國中
74502,縣立鹿港國中,校本部校區,縣立鹿港國中_校本部校區,彰化縣福興鄉橋頭村復興路78號,120.4394608,24.05098343,彰化縣,福興鄉,國中
74503,縣立鹿鳴國中,校本部校區,縣立鹿鳴國中_校本部校區,彰化縣鹿港鎮頭南里頂草路三段167號,120.4689331,24.09848404,彰化縣,鹿港鎮,國中
74504,縣立線西國中,校本部校區,縣立線西國中_校本部校區,彰化縣線西鄉中央路2段145號,120.4683456,24.13168907,彰化縣,線西鄉,國中
74505,縣立陽明國中,校本部校區,縣立陽明國中_校本部校區,500 彰化縣彰化市長順街76號,120.5504608,24.08615112,彰化縣,彰化市,國中
74506,縣立彰安國中,校本部校區,縣立彰安國中_校本部校區,彰化縣彰化市中正路二段530號,120.5352631,24.07066727,彰化縣,彰化市,國中
74507,縣立彰德國中,校本部校區,縣立彰德國中_校本部校區,彰化縣彰化市香山里彰南路二段512巷97號,120.5895309,24.08036041,彰化縣,彰化市,國中
74509,縣立芬園國中,校本部校區,縣立芬園國中_校本部校區,彰化縣芬園鄉彰南路四段27巷80號,120.6263275,24.01193428,彰化縣,芬園鄉,國中
74510,縣立員林國中,校本部校區,縣立員林國中_校本部校區,彰化縣員林鎮南興里南潭路2號,120.5594406,23.96331215,彰化縣,員林鎮,國中
74511,縣立明倫國中,校本部校區,縣立明倫國中_校本部校區,彰化縣員林鎮明倫路2號,120.585556,23.94778061,彰化縣,員林鎮,國中
74512,縣立萬興國中,校本部校區,縣立萬興國中_校本部校區,彰化縣二林鎮萬興里二溪路6段626號,120.4151154,23.95607948,彰化縣,二林鎮,國中
74514,縣立竹塘國中,校本部校區,縣立竹塘國中_校本部校區,彰化縣竹塘鄉竹塘村竹林路一段550號,120.426445,23.86455536,彰化縣,竹塘鄉,國中
74515,縣立大城國中,校本部校區,縣立大城國中_校本部校區,彰化縣大城鄉東城村南平路224號,120.3240204,23.85293961,彰化縣,大城鄉,國中
74516,縣立草湖國中,校本部校區,縣立草湖國中_校本部校區,彰化縣芳苑鄉草湖村功湖路140號,120.3784027,23.95880318,彰化縣,芳苑鄉,國中
74517,縣立芳苑國中,校本部校區,縣立芳苑國中_校本部校區,彰化縣芳苑鄉仁愛村斗苑路芳苑段211號,120.3199081,23.92358208,彰化縣,芳苑鄉,國中
74518,縣立溪湖國中,校本部校區,縣立溪湖國中_校本部校區,彰化縣溪湖鎮彰水路四段60號,120.4804153,23.96687508,彰化縣,溪湖鎮,國中
74519,縣立埔鹽國中,校本部校區,縣立埔鹽國中_校本部校區,彰化縣埔鹽鄉好修村中正路162號,120.4660339,23.99948692,彰化縣,埔鹽鄉,國中
74520,縣立埔心國中,校本部校區,縣立埔心國中_校本部校區,彰化縣埔心鄉義民村忠義北路51號,120.5419312,23.95387268,彰化縣,埔心鄉,國中
74521,縣立福興國中,校本部校區,縣立福興國中_校本部校區,彰化縣福興鄉西勢村員鹿路二段270號,120.4366837,24.04096413,彰化縣,福興鄉,國中
74522,縣立秀水國中,校本部校區,縣立秀水國中_校本部校區,彰化縣秀水鄉安東村中山路202號,120.5052948,24.03620911,彰化縣,秀水鄉,國中
74524,縣立伸港國中,校本部校區,縣立伸港國中_校本部校區,彰化縣伸港鄉新港路280巷101號,120.4853668,24.14930534,彰化縣,伸港鄉,國中
74525,縣立大村國中,校本部校區,縣立大村國中_校本部校區,彰化縣大村鄉村上村中山路二段240號,120.565506,23.98817062,彰化縣,大村鄉,國中
74526,縣立花壇國中,校本部校區,縣立花壇國中_校本部校區,彰化縣花壇鄉長沙村彰員路二段580號,120.5494843,24.02985954,彰化縣,花壇鄉,國中
74527,縣立永靖國中,校本部校區,縣立永靖國中_校本部校區,彰化縣永靖鄉瑚璉村錫壽路123號,120.551178,23.93002892,彰化縣,永靖鄉,國中
74529,縣立二水國中,校本部校區,縣立二水國中_校本部校區,彰化縣二水鄉源泉村月眉巷13號,120.6457825,23.80384827,彰化縣,二水鄉,國中
74530,縣立社頭國中,校本部校區,縣立社頭國中_校本部校區,彰化縣社頭鄉廣興村中興路1號,120.5839539,23.90147591,彰化縣,社頭鄉,國中
74531,縣立田尾國中,校本部校區,縣立田尾國中_校本部校區,彰化縣田尾鄉饒平村中學路二段18號,120.5337982,23.89078331,彰化縣,田尾鄉,國中
74532,縣立溪州國中,校本部校區,縣立溪州國中_校本部校區,彰化縣溪州鄉溪州村中央路三段300號,120.495079,23.85035706,彰化縣,溪州鄉,國中
74533,縣立溪陽國中,校本部校區,縣立溪陽國中_校本部校區,彰化縣溪州鄉成功村下柑路1號,120.5439987,23.82456017,彰化縣,溪州鄉,國中
74534,縣立埤頭國中,校本部校區,縣立埤頭國中_校本部校區,彰化縣埤頭鄉崙腳村中學路67號,120.460495,23.88060951,彰化縣,埤頭鄉,國中
74535,縣立和群國中,校本部校區,縣立和群國中_校本部校區,彰化縣和美鎮柑井里美寮路一段390號,120.5196304,24.11214447,彰化縣,和美鎮,國中
74536,縣立大同國中,校本部校區,縣立大同國中_校本部校區,彰化縣員林鎮大同路一段345號,120.5794449,23.96316528,彰化縣,員林鎮,國中
74537,縣立原斗國中,校本部校區,縣立原斗國中_校本部校區,彰化縣二林鎮原斗里原竹路872號,120.4267044,23.89431381,彰化縣,二林鎮,國中
74538,縣立彰興國中,校本部校區,縣立彰興國中_校本部校區,彰化縣彰化市埔西街107號,120.5382156,24.05950546,彰化縣,彰化市,國中
74540,縣立彰泰國中,校本部校區,縣立彰泰國中_校本部校區,彰化縣彰化市自強路357號,120.5484161,24.09169197,彰化縣,彰化市,國中
74541,縣立信義國中(小),校本部校區,縣立信義國中(小)_校本部校區,彰化縣彰化市向陽里向陽街168號,120.52845,24.06289101,彰化縣,彰化市,國中
074D01,縣立和美國中補校,,縣立和美國中補校_,彰化縣和美鎮和西里西園路31號,120.4932327,24.11302185,彰化縣,和美鎮,國中
074D02,縣立彰安國中補校,,縣立彰安國中補校_,彰化縣彰化市中正路二段530號,120.5355682,24.07060814,彰化縣,彰化市,國中
074D03,縣立鹿港國中補校,,縣立鹿港國中補校_,彰化縣福興鄉橋頭村復興路78號,120.43927,24.05150986,彰化縣,福興鄉,國中
074D04,縣立陽明國中補校,,縣立陽明國中補校_,彰化縣彰化市長順街76號,120.5501862,24.08605385,彰化縣,彰化市,國中
074D05,縣立明倫國中補校,,縣立明倫國中補校_,彰化縣員林鎮萬年里明倫路2號,120.5858459,23.94777489,彰化縣,員林鎮,國中
074D06,縣立田中國中補校,,縣立田中國中補校_,彰化縣田中鎮南路里文化街23號,120.588623,23.85472488,彰化縣,田中鎮,國中
074D07,縣立秀水國中補校,,縣立秀水國中補校_,彰化縣秀水鄉安東村中山路202號,120.5053253,24.03599167,彰化縣,秀水鄉,國中
074D08,縣立芳苑國中補校,,縣立芳苑國中補校_,彰化縣芳苑鄉仁愛村斗苑路芳苑段211號,120.3201447,23.92388153,彰化縣,芳苑鄉,國中
074D10,縣立線西國中補校,,縣立線西國中補校_,彰化縣線西鄉寓埔村中央路二段145號,120.469223,24.13210487,彰化縣,線西鄉,國中
074D13,縣立芬園國中補校,,縣立芬園國中補校_,彰化縣芬園鄉彰南路四段27巷80號,120.6256256,24.01183128,彰化縣,芬園鄉,國中
074D14,縣立北斗國中補校,,縣立北斗國中補校_,彰化縣北斗鎮文苑路一段136號,120.521347,23.87587547,彰化縣,北斗鎮,國中
074D91,縣立田中國中補校分校,,縣立田中國中補校分校_,彰化縣田中鎮南路里文化街23號,120.588623,23.85472488,彰化縣,田中鎮,國中
074D92,縣立伸港國中補校,,縣立伸港國中補校_,彰化縣伸港鄉新港路280巷101號,120.4847031,24.14963341,彰化縣,伸港鄉,國中
074D93,縣立社頭國中補校,,縣立社頭國中補校_,彰化縣社頭鄉廣興村中興路1號,120.5842056,23.90274811,彰化縣,社頭鄉,國中
80308,國立暨大附中,校本部校區,國立暨大附中_校本部校區,南投縣埔里鎮鐵山路1-6號,120.9457626,23.97201157,南投縣,埔里鎮,國中
080B08,國立暨大附中進修學校,,國立暨大附中進修學校_,南投縣埔里鎮鐵山路1-6號,120.9451065,23.97260475,南投縣,埔里鎮,國中
081311j,私立五育高中附設國中,校本部校區,私立五育高中附設國中_校本部校區,南投縣南投市樂利路200號,120.6271057,22.8983326,高雄市,六龜區,國中
081312j,私立三育高中附設國中,校本部校區,私立三育高中附設國中_校本部校區,南投縣魚池鄉瓊文巷39號,120.9349289,23.90385056,南投縣,魚池鄉,國中
081314j,私立普台高中附設國中,校本部校區,私立普台高中附設國中_校本部校區,南投縣埔里鎮中台路3號,120.9456406,24.00219345,南投縣,埔里鎮,國中
81502,私立均頭國中(小),校本部校區,私立均頭國中(小)_校本部校區,南投縣埔里鎮水頭路48號,120.9734802,23.94927216,南投縣,埔里鎮,國中
084309j,縣立旭光高中附設國中,校本部校區,縣立旭光高中附設國中_校本部校區,南投縣草屯鎮中正路568之23號,120.6946869,23.9795475,南投縣,草屯鎮,國中
84501,縣立南投國中,校本部校區,縣立南投國中_校本部校區,南投縣南投市漳和里祖祠路361號,120.6753082,23.9126606,南投縣,南投市,國中
84502,南崗國中,校本部校區,南崗國中_校本部校區,南投縣南投市大庄路94號,120.6833878,23.89529037,南投縣,南投市,國中
84503,縣立中興國中,校本部校區,縣立中興國中_校本部校區,南投縣南投市內興里新興路309號,120.695076,23.93140602,南投縣,南投市,國中
84504,縣立鳳鳴國中,校本部校區,縣立鳳鳴國中_校本部校區,南投縣南投市鳳鳴里八卦路896號,120.6396637,23.92477417,南投縣,南投市,國中
84505,縣立埔里國中,校本部校區,縣立埔里國中_校本部校區,南投縣埔里鎮西安路一段193號,120.9686737,23.96867371,南投縣,埔里鎮,國中
84506,縣立大成國中,校本部校區,縣立大成國中_校本部校區,南投縣埔里鎮大城路169號,120.9526978,23.9720211,南投縣,埔里鎮,國中
84507,縣立宏仁國中,校本部校區,縣立宏仁國中_校本部校區,南投縣埔里鎮東門里公園路20號,120.9720917,23.96167946,南投縣,埔里鎮,國中
84508,縣立草屯國中,南投縣立草屯國民中學,縣立草屯國中_南投縣立草屯國民中學,南投縣草屯鎮炎峰里虎山路808號,120.6859741,23.97720528,南投縣,草屯鎮,國中
84510,縣立日新國中,校本部校區,縣立日新國中_校本部校區,542 南投縣草屯鎮新豐里稻香路45號,120.6769638,23.99533653,南投縣,草屯鎮,國中
84511,縣立竹山國中,校本部校區,縣立竹山國中_校本部校區,南投縣竹山鎮中山里竹山路217號,120.6819916,23.75309753,南投縣,竹山鎮,國中
84512,縣立延和國中,校本部校區,縣立延和國中_校本部校區,南投縣竹山鎮延和里鹿山路40號,120.6953049,23.76031685,南投縣,竹山鎮,國中
84513,縣立社寮國中,校本部校區,縣立社寮國中_校本部校區,南投縣竹山鎮集山路一段1729號,120.72052,23.80947495,南投縣,竹山鎮,國中
84514,縣立瑞竹國中,校本部校區,縣立瑞竹國中_校本部校區,南投縣竹山鎮瑞竹里瑞東巷20號,120.6720047,23.66740608,南投縣,竹山鎮,國中
84515,縣立集集國中,校本部校區,縣立集集國中_校本部校區,南投縣集集鎮集集里成功路200號,120.7844772,23.83189964,南投縣,集集鎮,國中
84516,縣立名間國中,校本部校區,縣立名間國中_校本部校區,南投縣名間鄉中山村彰南路237號,120.6948318,23.84534264,南投縣,名間鄉,國中
84517,縣立三光國中,校本部校區,縣立三光國中_校本部校區,南投縣名間鄉新光村名山路50號,120.6684189,23.85009384,南投縣,名間鄉,國中
84518,縣立鹿谷國中,校本部校區,縣立鹿谷國中_校本部校區,南投縣鹿谷鄉彰雅村仁義路94-1號,120.7595749,23.74896431,南投縣,鹿谷鄉,國中
84519,縣立瑞峰國中,校本部校區,縣立瑞峰國中_校本部校區,南投縣鹿谷鄉仁愛路154之1號,120.775528,23.78286552,南投縣,鹿谷鄉,國中
84520,縣立中寮國中,校本部校區,縣立中寮國中_校本部校區,南投縣中寮鄉復興村初中巷50號,120.7663651,23.88423538,南投縣,中寮鄉,國中
84521,縣立爽文國中,校本部校區,縣立爽文國中_校本部校區,南投縣中寮鄉爽文村4 鄰竹坪巷40號,120.7626877,23.93401337,南投縣,中寮鄉,國中
84522,縣立魚池國中,校本部校區,縣立魚池國中_校本部校區,南投縣魚池鄉魚池村魚池街441-6號,120.9312286,23.89428711,南投縣,魚池鄉,國中
84523,縣立明潭國中,校本部校區,縣立明潭國中_校本部校區,南投縣魚池鄉水社村中山路190號,120.9108353,23.86761856,南投縣,魚池鄉,國中
84524,縣立國姓國中,校本部校區,縣立國姓國中_校本部校區,南投縣國姓鄉石門村國姓路237號,120.8585281,24.04228592,南投縣,國姓鄉,國中
84525,縣立北梅國中,校本部校區,縣立北梅國中_校本部校區,南投縣國姓鄉北港村國姓路62號,120.9129028,24.05708122,南投縣,國姓鄉,國中
84526,縣立北山國中,校本部校區,縣立北山國中_校本部校區,南投縣國姓鄉北山村中正路四段157號,120.873642,23.98054123,南投縣,國姓鄉,國中
84527,縣立水里國中,校本部校區,縣立水里國中_校本部校區,南投縣水里鄉民生路68號,120.8574905,23.81000328,南投縣,水里鄉,國中
84528,縣立民和國中,校本部校區,縣立民和國中_校本部校區,南投縣水里鄉民和村中學路29號,120.9179993,23.79879951,南投縣,水里鄉,國中
84529,縣立信義國中,校本部校區,縣立信義國中_校本部校區,南投縣信義鄉明德村玉山路20號,120.8539505,23.6963253,南投縣,信義鄉,國中
84530,縣立同富國中,校本部校區,縣立同富國中_校本部校區,南投縣信義鄉同富村同和巷7號,120.8867493,23.59543228,南投縣,信義鄉,國中
84531,縣立仁愛國中,校本部校區,縣立仁愛國中_校本部校區,南投縣仁愛鄉大同村信義巷28號,121.1420822,24.03104782,南投縣,仁愛鄉,國中
84532,縣立營北國中,校本部校區,縣立營北國中_校本部校區,南投市營北里向上路2號,120.6877289,23.95239639,南投縣,南投市,國中
084D01,縣立南投國中補校,,縣立南投國中補校_,南投縣南投市漳和里祖祠路361號,120.6752853,23.9129734,南投縣,南投市,國中
084D02,縣立草屯國中補校,,縣立草屯國中補校_,南投縣草屯鎮炎峰里虎山路808號,120.6859894,23.97724915,南投縣,草屯鎮,國中
084D03,縣立埔里國中補校,,縣立埔里國中補校_,南投縣埔里鎮西安路一段193號,120.9682312,23.96780777,南投縣,埔里鎮,國中
084D04,縣立竹山國中補校,,縣立竹山國中補校_,南投縣竹山鎮中山里竹山路217號,120.6816788,23.75330544,南投縣,竹山鎮,國中
084D05,縣立集集國中補校,,縣立集集國中補校_,南投縣集集鎮集集里成功路200號,120.7845383,23.8319664,南投縣,集集鎮,國中
084D06,縣立水里國中補校,,縣立水里國中補校_,南投縣水里鄉民生路2號,120.8590012,23.80795479,南投縣,水里鄉,國中
084D07,縣立國姓國中補校,,縣立國姓國中補校_,南投縣國姓鄉石門村國姓路237號,120.8585815,24.04267883,南投縣,國姓鄉,國中
091307j,私立永年高中附設國中_delete,校本部校區,私立永年高中附設國中_delete_校本部校區,雲林縣土庫鎮建國路13號,121.3152466,24.98352051,桃園市,桃園區,國中
091308j,私立正心高中附設國中,校本部校區,私立正心高中附設國中_校本部校區,雲林縣斗六市虎溪里正心路1號,121.3071442,25.00742722,桃園市,桃園區,國中
091311j,私立文生高中附設國中,校本部校區,私立文生高中附設國中_校本部校區,雲林縣四湖鄉中正路509號,121.7337646,25.13532257,基隆市,中山區,國中
091312j,私立巨人高中附設國中,校本部校區,私立巨人高中附設國中_校本部校區,雲林縣北港鎮大同路647號,120.2894211,23.57547569,雲林縣,北港鎮,國中
091316j,私立揚子高中附設國中,校本部校區,私立揚子高中附設國中_校本部校區,雲林縣虎尾鎮潁川里林森路二段541號,121.3277206,24.99188995,桃園市,龜山區,國中
91318,義峰財團法人雲林縣義峰高級中學,校本部校區,義峰財團法人雲林縣義峰高級中學_校本部校區,雲林縣林內鄉烏麻村長源201號,120.5936813,23.75985146,雲林縣,林內鄉,國中
091319j,私立福智高中附設國中,校本部校區,私立福智高中附設國中_校本部校區,雲林縣古坑鄉麻園村4鄰平和路20號,121.3643494,25.0026741,桃園市,龜山區,國中
091320j,私立維多利亞實驗高中附設國中,校本部校區,私立維多利亞實驗高中附設國中_校本部校區,雲林縣斗六市鎮南路1110號,120.5525055,23.67966843,雲林縣,斗六市,國中
91502,私立淵明國中,校本部校區,私立淵明國中_校本部校區,雲林縣林內鄉林中村公園3號,120.6143875,23.7536869,雲林縣,林內鄉,國中
91503,私立東南國中,校本部校區,私立東南國中_校本部校區,雲林縣西螺鎮東南路326號,120.4517975,23.80308342,雲林縣,西螺鎮,國中
91505,私立福智國中,校本部校區,私立福智國中_校本部校區,雲林縣古坑鄉麻園村4鄰平和路20號,120.5225754,23.63461876,雲林縣,古坑鄉,國中
094301j,縣立斗南高中附設國中,校本部校區,縣立斗南高中附設國中_校本部校區,雲林縣斗南鎮中山路212號,120.4768677,23.67930222,雲林縣,斗南鎮,國中
094307j,縣立麥寮高中附設國中,校本部校區,縣立麥寮高中附設國中_校本部校區,雲林縣麥寮鄉中興路310巷1號,121.3570938,24.98847961,桃園市,龜山區,國中
94308,縣立古坑華德福實驗高級中學,校本部校區,縣立古坑華德福實驗高級中學_校本部校區,雲林縣古坑鄉荷苞村山峰17號,120.6152301,23.63063895,雲林縣,古坑鄉,國中
94502,縣立東明國中,校本部校區,縣立東明國中_校本部校區,雲林縣斗南鎮中興路111號,120.4703293,23.67828369,雲林縣,斗南鎮,國中
94503,縣立大埤國中,校本部校區,縣立大埤國中_校本部校區,雲林縣大埤鄉南和村民權路80號,120.4295578,23.64189911,雲林縣,大埤鄉,國中
94504,縣立飛沙國中,校本部校區,縣立飛沙國中_校本部校區,雲林縣四湖鄉飛沙村大同路81號,120.1732101,23.64276123,雲林縣,四湖鄉,國中
94505,縣立四湖國中,校本部校區,縣立四湖國中_校本部校區,雲林縣四湖鄉湖西村中正路766號,120.2257004,23.62919807,雲林縣,四湖鄉,國中
94506,縣立水林國中,校本部校區,縣立水林國中_校本部校區,雲林縣水林鄉水北村水林路2號,120.2481308,23.57363319,雲林縣,水林鄉,國中
94508,縣立二崙國中,校本部校區,縣立二崙國中_校本部校區,雲林縣二崙鄉崙西村中正路88號,120.4068985,23.77381706,雲林縣,二崙鄉,國中
94509,縣立褒忠國中,校本部校區,縣立褒忠國中_校本部校區,雲林縣褒忠鄉中勝路62號,120.310791,23.6991806,雲林縣,褒忠鄉,國中
94510,縣立莿桐國中,校本部校區,縣立莿桐國中_校本部校區,雲林縣莿桐鄉農校路1號,120.5066299,23.75005341,雲林縣,莿桐鄉,國中
94511,縣立崙背國中,校本部校區,縣立崙背國中_校本部校區,雲林縣崙背鄉大成路91號,120.348938,23.75797844,雲林縣,崙背鄉,國中
94512,縣立古坑國中小,國中部校區,縣立古坑國中小_國中部校區,雲林縣古坑鄉朝陽村朝陽路2號,120.5669861,23.64622307,雲林縣,古坑鄉,國中
94512,縣立古坑國中小,國小部校區,縣立古坑國中小_國小部校區,雲林縣古坑鄉朝陽村朝陽路2號,120.5658264,23.64582825,雲林縣,古坑鄉,國中
94513,縣立東勢國中,校本部校區,縣立東勢國中_校本部校區,雲林縣東勢鄉東榮路65號,120.2571487,23.67238808,雲林縣,東勢鄉,國中
94514,縣立元長國中,校本部校區,縣立元長國中_校本部校區,雲林縣元長鄉元南路16號,120.316597,23.64566994,雲林縣,元長鄉,國中
94515,縣立斗六國中,校本部校區,縣立斗六國中_校本部校區,雲林縣斗六市育英北街69號,120.5505524,23.71298599,雲林縣,斗六市,國中
94516,縣立雲林國中,校本部校區,縣立雲林國中_校本部校區,雲林縣斗六市明德路599號,120.5327606,23.69997597,雲林縣,斗六市,國中
94517,縣立虎尾國中,校本部校區,縣立虎尾國中_校本部校區,雲林縣虎尾鎮中溪里中興路153號,120.4571762,23.72361183,雲林縣,虎尾鎮,國中
94518,縣立崇德國中,校本部校區,縣立崇德國中_校本部校區,雲林縣虎尾鎮廉使里文科路1530號,120.4173279,23.71713257,雲林縣,虎尾鎮,國中
94519,縣立西螺國中,校本部校區,縣立西螺國中_校本部校區,雲林縣西螺鎮興農西路217號,120.4600677,23.79280853,雲林縣,西螺鎮,國中
94520,縣立北港國中,校本部校區,縣立北港國中_校本部校區,雲林縣北港鎮民生路102號,120.2998581,23.56630707,雲林縣,北港鎮,國中
94521,縣立建國國中,校本部校區,縣立建國國中_校本部校區,雲林縣北港鎮大同路468號,120.2955704,23.57405663,雲林縣,北港鎮,國中
94522,縣立宜梧國中,校本部校區,縣立宜梧國中_校本部校區,雲林縣口湖鄉梧南村光明路1號,120.1956635,23.5469265,雲林縣,口湖鄉,國中
94523,縣立口湖國中,校本部校區,縣立口湖國中_校本部校區,雲林縣口湖鄉湖東村3鄰文明路133巷20號,120.1841049,23.58810043,雲林縣,口湖鄉,國中
94523,縣立口湖國中,北棟教室,縣立口湖國中_北棟教室,雲林縣口湖鄉湖東村3鄰文明路133巷20號,120.1846542,23.58760452,雲林縣,口湖鄉,國中
94523,縣立口湖國中,東棟教室,縣立口湖國中_東棟教室,雲林縣口湖鄉湖東村3鄰文明路133巷20號,120.1846542,23.58760452,雲林縣,口湖鄉,國中
94524,縣立臺西國中,校本部校區,縣立臺西國中_校本部校區,雲林縣臺西鄉中山路408號,120.1916428,23.70113182,雲林縣,臺西鄉,國中
94525,縣立土庫國中,校本部校區,縣立土庫國中_校本部校區,雲林縣土庫鎮復興路318號,120.3892212,23.68688011,雲林縣,土庫鎮,國中
94526,縣立蔦松國中,校本部校區,縣立蔦松國中_校本部校區,雲林縣水林鄉松北村1之1號,120.2280121,23.52193451,雲林縣,水林鄉,國中
94527,縣立東和國中,校本部校區,縣立東和國中_校本部校區,雲林縣古坑鄉東和村文化路130號,120.5679016,23.6861763,雲林縣,古坑鄉,國中
94528,縣立馬光國中,校本部校區,縣立馬光國中_校本部校區,雲林縣土庫鎮馬光里和平街101號,120.3568878,23.69407272,雲林縣,土庫鎮,國中
94529,縣立石榴國中,校本部校區,縣立石榴國中_校本部校區,雲林縣斗六市榴中里光復路66號,120.5866699,23.72306252,雲林縣,斗六市,國中
94530,縣立林內國中,校本部校區,縣立林內國中_校本部校區,雲林縣林內鄉烏麻村長源200號,120.5935059,23.7562809,雲林縣,林內鄉,國中
94543,縣立東仁國中,校本部校區,縣立東仁國中_校本部校區,雲林縣虎尾鎮東仁里東明路85號,120.440155,23.71409225,雲林縣,虎尾鎮,國中
94544,縣立樟湖生態國中(小),校本部校區,縣立樟湖生態國中(小)_校本部校區,雲林縣古坑鄉石橋50-2號,120.631068,23.6042133,雲林縣,古坑鄉,國中
94618,縣立樟湖國中(小),校本部校區,縣立樟湖國中(小)_校本部校區,雲林縣古坑鄉樟湖村石橋50之2號,120.6210175,23.63306236,雲林縣,古坑鄉,國中
094D01,縣立北港國中補校,,縣立北港國中補校_,雲林縣北港鎮民生路102號,120.2990799,23.56566811,雲林縣,北港鎮,國中
094D02,縣立斗六國中補校,,縣立斗六國中補校_,雲林縣斗六市育英北街69號,120.5512619,23.71306992,雲林縣,斗六市,國中
094D03,縣立雲林國中補校,,縣立雲林國中補校_,雲林縣斗六市明德路599號,120.5327148,23.69979858,雲林縣,斗六市,國中
094D04,縣立東明國中補校,,縣立東明國中補校_,雲林縣斗南鎮中興路111號,120.4701157,23.67760277,雲林縣,斗南鎮,國中
094D07,縣立台西國中補校,,縣立台西國中補校_,雲林縣臺西鄉中山路408號,120.1916428,23.70113182,雲林縣,臺西鄉,國中
094D09,縣立崇德國中補校,,縣立崇德國中補校_,雲林縣虎尾鎮廉使里文科路1530號,120.4175186,23.71632767,雲林縣,虎尾鎮,國中
094D11,縣立褒忠國中補校,,縣立褒忠國中補校_,雲林縣褒忠鄉中勝路62號,120.3098145,23.69958305,雲林縣,褒忠鄉,國中
094D12,縣立二崙國中補校,,縣立二崙國中補校_,雲林縣二崙鄉崙西村中正路88號,120.4070892,23.77419472,雲林縣,二崙鄉,國中
094D13,縣立口湖國中補校,,縣立口湖國中補校_,雲林縣口湖鄉湖東村3鄰文明路133巷20號,120.1846542,23.58760452,雲林縣,口湖鄉,國中
094D16,縣立崙背國中補校,,縣立崙背國中補校_,雲林縣崙背鄉大成路91號,120.3491058,23.75793457,雲林縣,崙背鄉,國中
094D17,縣立馬光國中補校,,縣立馬光國中補校_,雲林縣土庫鎮馬光里和平街101號,120.3559875,23.69382095,雲林縣,土庫鎮,國中
094D19,縣立古坑國中補校,,縣立古坑國中補校_,雲林縣古坑鄉朝陽村朝陽路2號,120.567009,23.6459713,雲林縣,古坑鄉,國中
094D20,縣立大埤國中補校,,縣立大埤國中補校_,雲林縣大埤鄉南和村民權路80號,120.4308167,23.6411972,雲林縣,大埤鄉,國中
094D21,縣立石榴國中補校,,縣立石榴國中補校_,雲林縣斗六市榴中里光復路66號,120.5868149,23.72313881,雲林縣,斗六市,國中
101303j,私立同濟高中附設國中,校本部校區,私立同濟高中附設國中_校本部校區,嘉義縣大林鎮中興路二段303號,121.3827209,25.05203819,桃園市,龜山區,國中
101304j,私立協同高中附設國中,校本部校區,私立協同高中附設國中_校本部校區,嘉義縣民雄鄉建國路二段31號,121.3363266,24.99555588,桃園市,龜山區,國中
104319j,縣立竹崎高中附設國中,校本部校區,縣立竹崎高中附設國中_校本部校區,嘉義縣竹崎鄉竹崎村文化路23號,120.5530777,23.52118111,嘉義縣,竹崎鄉,國中
104326j,縣立永慶高中附設國中,校本部校區,縣立永慶高中附設國中_校本部校區,嘉義縣太保市祥和二路東段8號,121.3894958,25.03395081,桃園市,龜山區,國中
104501,縣立朴子國中,校本部校區,縣立朴子國中_校本部校區,嘉義縣朴子市竹圍里大同路245號,120.2388763,23.46100807,嘉義縣,朴子市,國中
104502,縣立東石國中,校本部校區,縣立東石國中_校本部校區,嘉義縣朴子市山通路6號,120.250412,23.46759987,嘉義縣,朴子市,國中
104502,縣立東石國中,第二校區,縣立東石國中_第二校區,嘉義縣朴子市山通路6號,120.25,23.46672821,嘉義縣,朴子市,國中
104503,縣立布袋國中,校本部校區,縣立布袋國中_校本部校區,嘉義縣布袋鎮光復里六棟寮40號,120.1806488,23.35847664,嘉義縣,布袋鎮,國中
104504,縣立過溝國中,校本部校區,縣立過溝國中_校本部校區,嘉義縣東石鄉西崙村438號,120.1831436,23.42217827,嘉義縣,東石鄉,國中
104505,縣立大林國中,校本部校區,縣立大林國中_校本部校區,嘉義縣大林鎮大糖里中學路1號,120.4540863,23.60928535,嘉義縣,大林鎮,國中
104506,縣立新港國中,校本部校區,縣立新港國中_校本部校區,嘉義縣新港鄉福德村福德路106號,120.3438416,23.55829239,嘉義縣,新港鄉,國中
104507,縣立民雄國中,校本部校區,縣立民雄國中_校本部校區,嘉義縣民雄鄉西安村西安路147號,120.420723,23.55746651,嘉義縣,民雄鄉,國中
104508,縣立大吉國中,校本部校區,縣立大吉國中_校本部校區,嘉義縣民雄鄉大崎村內埔仔2之1號,120.4874115,23.51555634,嘉義縣,民雄鄉,國中
104509,縣立六嘉國中,校本部校區,縣立六嘉國中_校本部校區,嘉義縣六腳鄉蒜頭村樹仁路1號,120.292984,23.50168419,嘉義縣,六腳鄉,國中
104511,縣立太保國中,校本部校區,縣立太保國中_校本部校區,嘉義縣太保市太保里36號,120.3293304,23.45529175,嘉義縣,太保市,國中
104512,縣立嘉新國中,校本部校區,縣立嘉新國中_校本部校區,嘉義縣太保市北新里中興路一段250號,120.3782883,23.50006294,嘉義縣,太保市,國中
104513,縣立溪口國中,校本部校區,縣立溪口國中_校本部校區,623嘉義縣溪口鄉中正東路103號,120.4036407,23.60490417,嘉義縣,溪口鄉,國中
104514,縣立鹿草國中,校本部校區,縣立鹿草國中_校本部校區,嘉義縣鹿草鄉鹿草村439號,120.3130493,23.41034317,嘉義縣,鹿草鄉,國中
104515,縣立東榮國中,校本部校區,縣立東榮國中_校本部校區,嘉義縣東石鄉永屯村39之2號,120.1726303,23.46221542,嘉義縣,東石鄉,國中
104516,縣立水上國中,校本部校區,縣立水上國中_校本部校區,嘉義縣水上鄉進學街45號,120.3952103,23.42509842,嘉義縣,水上鄉,國中
104517,縣立忠和國中,校本部校區,縣立忠和國中_校本部校區,嘉義縣水上鄉忠和村1鄰6-2號,120.4515533,23.42560959,嘉義縣,水上鄉,國中
104518,嘉義縣立中埔國民中學,校本部校區,嘉義縣立中埔國民中學_校本部校區,嘉義縣中埔鄉中埔村177號,120.5204239,23.42439079,嘉義縣,中埔鄉,國中
104520,縣立昇平國中,校本部校區,縣立昇平國中_校本部校區,嘉義縣竹崎鄉內埔村元興路138號,120.5574799,23.48459244,嘉義縣,竹崎鄉,國中
104521,縣立義竹國中,校本部校區,縣立義竹國中_校本部校區,嘉義縣義竹鄉岸腳村59之2號,120.2501221,23.34214973,嘉義縣,義竹鄉,國中
104522,縣立民和國中,校本部校區,縣立民和國中_校本部校區,嘉義縣番路鄉下坑村菜公店30號,120.5549622,23.4650631,嘉義縣,番路鄉,國中
104522,縣立民和國中,慈輝分校,縣立民和國中_慈輝分校,嘉義縣番路鄉下坑村菜公店30號,120.5457077,23.46766281,嘉義縣,番路鄉,國中
104523,縣立梅山國中,校本部校區,縣立梅山國中_校本部校區,嘉義縣梅山鄉梅北村健康街136號,120.5606918,23.58680344,嘉義縣,梅山鄉,國中
104524,縣立大埔國中小,校本部校區,縣立大埔國中小_校本部校區,嘉義縣大埔鄉茄苳村竹圍仔5號,120.5910263,23.29334831,嘉義縣,大埔鄉,國中
104526,縣立阿里山國中(小),校本部校區,縣立阿里山國中(小)_校本部校區,嘉義縣阿里山鄉樂野村1鄰31號,120.701416,23.46881866,嘉義縣,阿里山鄉,國中
104527,縣立豐山實驗國中(小),校本部校區,縣立豐山實驗國中(小)_校本部校區,嘉義縣阿里山鄉豐山村47號,120.7500278,23.57586328,嘉義縣,阿里山鄉,國中
104726,縣立大埔國中小,校本部校區,縣立大埔國中小_校本部校區,嘉義縣大埔鄉茄苳村竹圍仔5號,120.5916672,23.29444313,嘉義縣,大埔鄉,國中
104726,縣立大埔國中小,永興校區(已廢校),縣立大埔國中小_永興校區(已廢校),嘉義縣大埔鄉茄苳村竹圍仔5號,120.5913925,23.35666656,嘉義縣,番路鄉,國中
104D01,縣立東石國中補校,,縣立東石國中補校_,嘉義縣朴子市安福里山通路6號,120.2506561,23.46702766,嘉義縣,朴子市,國中
104D04,縣立水上國中補校,,縣立水上國中補校_,嘉義縣水上鄉水上村進學街45號,120.395401,23.42494583,嘉義縣,水上鄉,國中
104D10,縣立民雄國中補校,,縣立民雄國中補校_,嘉義縣民雄鄉西安村西安路147號,120.4200745,23.55638695,嘉義縣,民雄鄉,國中
104D11,縣立大林國中補校,,縣立大林國中補校_,嘉義縣大林鎮大糖里中學路1號,120.4543457,23.60910988,嘉義縣,大林鎮,國中
104D12,縣立竹崎國中補校,,縣立竹崎國中補校_,嘉義縣竹崎鄉竹崎村文化路23號,120.5530777,23.52118111,嘉義縣,竹崎鄉,國中
104D13,縣立中埔國中補校,,縣立中埔國中補校_,嘉義縣中埔鄉中埔村177號,120.5215073,23.42422676,嘉義縣,中埔鄉,國中
104D14,縣立義竹國中補校,,縣立義竹國中補校_,嘉義縣義竹鄉岸腳村59之2號,120.2504883,23.34200287,嘉義縣,義竹鄉,國中
110308,國立臺南大學附中,校本部校區,國立臺南大學附中_校本部校區,臺南市永康區中山南路948號,120.2552567,23.02303696,臺南市,永康區,國中
110B08,國立南師附中進修學校,,國立南師附中進修學校_,臺南市永康區中山南路948號,120.255127,23.02585793,臺南市,永康區,國中
111313j,私立南光高中附設國中,校本部校區,私立南光高中附設國中_校本部校區,台南縣新營市中興路62號,120.3151169,23.2981987,臺南市,新營區,國中
111318j,私立鳳和高中附設國中,校本部校區,私立鳳和高中附設國中_校本部校區,台南縣柳營鄉中山東路二段1330號,120.3260117,23.27960205,臺南市,柳營區,國中
111321j,私立興國高中附設國中,校本部校區,私立興國高中附設國中_校本部校區,台南縣新營市民治路4巷23號,120.3133774,23.31051064,臺南市,新營區,國中
111322j,私立明達高中附設國中,校本部校區,私立明達高中附設國中_校本部校區,台南縣鹽水鎮橋南里忠孝路73號,120.2746811,23.31057358,臺南市,鹽水區,國中
111323j,私立黎明高中附設國中,校本部校區,私立黎明高中附設國中_校本部校區,台南縣麻豆鎮磚井里141號,120.2470016,23.17249107,臺南市,麻豆區,國中
111326j,私立新榮高中附設國中,校本部校區,私立新榮高中附設國中_校本部校區,台南縣柳營鄉光福村132之12號,120.315979,23.27014351,臺南市,柳營區,國中
111501,私立城光國中,校本部校區,私立城光國中_校本部校區,臺南市仁德區文華路593號,120.2441406,22.97629929,臺南市,仁德區,國中
111502,私立昭明國中,校本部校區,私立昭明國中_校本部校區,台南市七股區大埕里315號,120.1418915,23.14248848,臺南市,七股區,國中
114306j,縣立大灣高中附設國中,校本部校區,縣立大灣高中附設國中_校本部校區,台南縣永康市文賢街68巷1號,120.2726746,23.0058403,臺南市,永康區,國中
114307j,縣立永仁高中附設國中,校本部校區,縣立永仁高中附設國中_校本部校區,台南縣永康市忠孝路74號,120.2401276,23.00310326,臺南市,永康區,國中
114501,市立仁德國中,校本部校區,市立仁德國中_校本部校區,臺南市仁德區民安路一段363號,120.247879,22.95646667,臺南市,仁德區,國中
114502,市立仁德文賢國中,校本部校區,市立仁德文賢國中_校本部校區,臺南市仁德區保安里中正路一段185號,120.2344818,22.92173576,臺南市,仁德區,國中
114503,市立歸仁國中,校本部校區,市立歸仁國中_校本部校區,臺南市歸仁區後市里文化街二段2號,120.2938919,22.96990776,臺南市,歸仁區,國中
114504,臺南市立關廟國民中學,校本部校區,臺南市立關廟國民中學_校本部校區,臺南市關廟區中山路二段172號,120.3245926,22.96108246,臺南市,關廟區,國中
114505,臺南市立永康國民中學,校本部校區,臺南市立永康國民中學_校本部校區,臺南市永康區中山路43號,120.2565155,23.02811813,臺南市,永康區,國中
114508,市立龍崎國中,校本部校區,市立龍崎國中_校本部校區,臺南市龍崎區新市子258號,120.3606949,22.96857452,臺南市,關廟區,國中
114509,市立新化國中,校本部校區,市立新化國中_校本部校區,臺南市新化區中興路722號,120.3123703,23.03343582,臺南市,新化區,國中
114510,市立善化國中,校本部校區,市立善化國中_校本部校區,臺南市善化區溪美里656號,120.2869492,23.14727402,臺南市,善化區,國中
114510,市立善化國中,校本部校區,市立善化國中_校本部校區,臺南市善化區溪美里656號,120.2874146,23.14714622,臺南市,善化區,國中
114511,市立玉井國中,校本部校區,市立玉井國中_校本部校區,臺南市玉井區大成路152號,120.4702072,23.12339783,臺南市,玉井區,國中
114512,市立山上國中,校本部校區,市立山上國中_校本部校區,臺南市山上區山上里130號,120.3577194,23.10396194,臺南市,山上區,國中
114513,市立安定國中,校本部校區,市立安定國中_校本部校區,臺南市安定區安加里262之1號,120.2334824,23.11505699,臺南市,安定區,國中
114514,市立楠西國中,校本部校區,市立楠西國中_校本部校區,臺南市楠西區中興路107號,120.4846802,23.18240929,臺南市,楠西區,國中
114515,市立新市國中,校本部校區,市立新市國中_校本部校區,臺南市新市區民族路76號,120.3004608,23.08377266,臺南市,新市區,國中
114516,市立南化國中,校本部校區,市立南化國中_校本部校區,臺南市南化區南化里227號,120.4802628,23.04499435,臺南市,南化區,國中
114517,臺南市立左鎮國民中學,校本部校區,臺南市立左鎮國民中學_校本部校區,臺南市左鎮區中正里170號,120.410553,23.05638885,臺南市,左鎮區,國中
114518,市立麻豆國中,校本部校區,市立麻豆國中_校本部校區,臺南市麻豆區南勢里36號,120.2594147,23.18209267,臺南市,麻豆區,國中
114519,市立下營國中,校本部校區,市立下營國中_校本部校區,臺南市下營區中山路一段412號,120.271759,23.23849869,臺南市,下營區,國中
114519,市立下營國中,下營國民中學,市立下營國中_下營國民中學,臺南市下營區中山路一段412號,120.2714005,23.23927879,臺南市,下營區,國中
114520,市立六甲國中,校本部校區,市立六甲國中_校本部校區,臺南市六甲區民權街43號,120.348671,23.22682571,臺南市,六甲區,國中
114521,市立官田國中,校本部校區,市立官田國中_校本部校區,臺南市官田區隆田里三民路29號,120.3145981,23.18860626,臺南市,官田區,國中
114522,市立大內國中,校本部校區,市立大內國中_校本部校區,臺南市大內區內江里319之1號,120.364563,23.11256981,臺南市,大內區,國中
114523,市立佳里國中,校本部校區,市立佳里國中_校本部校區,臺南市佳里區安南路523號,120.16996,23.15762711,臺南市,佳里區,國中
114524,市立佳興國中,校本部校區,市立佳興國中_校本部校區,臺南市佳里區民安里新宅34之1號,120.1959915,23.1829567,臺南市,佳里區,國中
114525,市立學甲國中,校本部校區,市立學甲國中_校本部校區,臺南市學甲區華宗路540號,120.1845169,23.23761749,臺南市,學甲區,國中
114526,市立西港國中,校本部校區,市立西港國中_校本部校區,臺南市西港區文化路41號,120.2046127,23.12475777,臺南市,西港區,國中
114527,市立將軍國中,校本部校區,市立將軍國中_校本部校區,臺南市將軍區嘉昌里1之1號,120.1500015,23.2067337,臺南市,將軍區,國中
114528,市立後港國中,校本部校區,市立後港國中_校本部校區,臺南市七股區大潭里頂潭93號,120.1346741,23.18850136,臺南市,七股區,國中
114529,市立竹橋國中,校本部校區,市立竹橋國中_校本部校區,臺南市七股區義合里74之2號,120.1420135,23.1027565,臺南市,七股區,國中
114530,市立北門國中,校本部校區,市立北門國中_校本部校區,臺南市北門區永華里1之1號,120.1278915,23.25302505,臺南市,北門區,國中
114531,市立南新國中,校本部校區,市立南新國中_校本部校區,臺南市新營區民治路65號,120.3087234,23.30952072,臺南市,新營區,國中
114532,市立太子國中,校本部校區,市立太子國中_校本部校區,臺南市新營區太北里140-21號,120.2708588,23.29150009,臺南市,新營區,國中
114533,市立新東國中,校本部校區,市立新東國中_校本部校區,臺南市新營區民治東路30號,120.3238907,23.31138992,臺南市,新營區,國中
114534,市立鹽水國中,校本部校區,市立鹽水國中_校本部校區,臺南市鹽水區三福路63號,120.2634201,23.32174683,臺南市,鹽水區,國中
114535,市立白河國中,校本部校區,市立白河國中_校本部校區,臺南市白河區昇安里三間厝220號,120.4218979,23.36247253,臺南市,白河區,國中
114536,市立柳營國中,校本部校區,市立柳營國中_校本部校區,臺南市柳營區東昇里中山東路二段956號,120.3319168,23.27994156,臺南市,柳營區,國中
114537,市立東山國中,校本部校區,市立東山國中_校本部校區,臺南市東山區東中里青葉路一段132號,120.4033508,23.31644058,臺南市,東山區,國中
114538,市立東原國中,校本部校區,市立東原國中_校本部校區,臺南市東山區東原里70號,120.4516678,23.27282143,臺南市,東山區,國中
114539,市立後壁國中,校本部校區,市立後壁國中_校本部校區,臺南市後壁區嘉苳里124之20號,120.3596191,23.35338211,臺南市,後壁區,國中
114540,市立菁寮國中,校本部校區,市立菁寮國中_校本部校區,臺南市後壁區頂長里8之3號,120.332634,23.36861992,臺南市,後壁區,國中
114543,市立大橋國中,校本部校區,市立大橋國中_校本部校區,臺南市永康區東橋十街1號,120.231636,23.0229435,臺南市,永康區,國中
114544,市立沙崙國中,校本部校區,市立沙崙國中_校本部校區,臺南市歸仁區武東里歸仁六路2號,120.2816467,22.92912674,臺南市,歸仁區,國中
114D01,縣立仁德國中補校,,縣立仁德國中補校_,臺南市仁德區民安路一段363號,120.2480698,22.95594978,臺南市,仁德區,國中
114D03,縣立永康國中補校,,縣立永康國中補校_,臺南市永康區中山路43號,120.2564697,23.02812195,臺南市,永康區,國中
114D04,縣立新化國中補校,,縣立新化國中補校_,臺南市新化區中興路722號,120.312233,23.0340271,臺南市,新化區,國中
114D05,縣立佳里國中補校,,縣立佳里國中補校_,臺南市佳里區安南路523號,120.1710281,23.15785408,臺南市,佳里區,國中
114D06,縣立麻豆國中補校,,縣立麻豆國中補校_,臺南市麻豆區南勢里36號,120.2597885,23.18227959,臺南市,麻豆區,國中
114D08,縣立南新國中補校,,縣立南新國中補校_,臺南市新營區民治路65號,120.3087006,23.30952072,臺南市,新營區,國中
114D09,縣立大灣國中補校,,縣立大灣國中補校_,臺南市永康區文賢街68巷1號,120.2726746,23.0058403,臺南市,永康區,國中
114D10,縣立新市國中補校,,縣立新市國中補校_,台南縣新市鄉民族路76號,120.3004456,23.08377457,臺南市,新市區,國中
114D13,縣立永仁國中補校,,縣立永仁國中補校_,台南縣永康市忠孝路74號,120.2412643,23.00372124,臺南市,永康區,國中
114D16,縣立東山國中補校,,縣立東山國中補校_,臺南市東山區東中里青葉路一段132號,120.403389,23.31657219,臺南市,東山區,國中
121306j,私立新光高中附設國中(校舍活用),校本部校區,私立新光高中附設國中(校舍活用)_校本部校區,高雄市大寮區鳳屏一路217號,120.3900604,22.63531876,高雄市,大寮區,國中
121307,財團法人普門中學,校本部校區,財團法人普門中學_校本部校區,高雄市大樹區大坑路140-11號,120.4454422,22.71569824,高雄市,大樹區,國中
121307j,私立普門高中附設國中,校本部校區,私立普門高中附設國中_校本部校區,高雄市大樹區興田村153號,120.4308853,22.72732544,高雄市,大樹區,國中
121318j,私立正義高中附設國中,校本部校區,私立正義高中附設國中_校本部校區,高雄市鳳山區五甲二路南江街183號,120.339798,22.60255432,高雄市,鳳山區,國中
121320j,私立義大國際高中附設國中,校本部校區,私立義大國際高中附設國中_校本部校區,高雄市大樹區學城路1段6號,120.4055405,22.72830009,高雄市,大樹區,國中
124302j,市立文山高中附設國中,校本部校區,市立文山高中附設國中_校本部校區,高雄市鳥松區大埤路31號,120.3536453,22.64844322,高雄市,鳥松區,國中
124311j,市立林園高中附設國中,校本部校區,市立林園高中附設國中_校本部校區,高雄市林園區林園北路481號,121.3046799,24.88171768,桃園市,大溪區,國中
124313j,市立仁武高中附設國中,校本部校區,市立仁武高中附設國中_校本部校區,高雄市仁武區仁林路20號,121.2882462,24.85020256,桃園市,大溪區,國中
124322j,市立路竹高中附設國中,校本部校區,市立路竹高中附設國中_校本部校區,高雄市路竹區中華路292號,120.2524185,22.85467339,高雄市,路竹區,國中
124333j,市立六龜高中附設國中,校本部校區,市立六龜高中附設國中_校本部校區,高雄市六龜區光復路212號,121.2924194,24.88056564,桃園市,大溪區,國中
124340j,市立福誠高中附設國中,校本部校區,市立福誠高中附設國中_校本部校區,高雄市鳳山區五甲三路176號,121.2667313,24.90312767,桃園市,大溪區,國中
124501,市立鳳山國中,校本部校區,市立鳳山國中_校本部校區,高雄市鳳山區中山東路227號,120.3720779,22.62531471,高雄市,鳳山區,國中
124503,市立鳳西國中,校本部校區,市立鳳西國中_校本部校區,高雄市鳳山區興中里光華路69號,120.3532944,22.62075615,高雄市,鳳山區,國中
124504,市立五甲國中,校本部校區,市立五甲國中_校本部校區,高雄市鳳山區龍成路111號,120.3286896,22.59811211,高雄市,鳳山區,國中
124505,市立鳳甲國中,校本部校區,市立鳳甲國中_校本部校區,高雄市鳳山區輜汽路300號,120.3425903,22.61657524,高雄市,鳳山區,國中
124506,市立忠孝國中,校本部校區,市立忠孝國中_校本部校區,高雄市鳳山區國泰路二段81號,120.3467026,22.61988449,高雄市,鳳山區,國中
124507,市立大寮國中,校本部校區,市立大寮國中_校本部校區,高雄市大寮區永芳里進學路150號,120.392662,22.60292625,高雄市,大寮區,國中
124508,市立潮寮國中,校本部校區,市立潮寮國中_校本部校區,高雄市大寮區潮寮里潮寮路51之9號,120.4251785,22.56341553,高雄市,大寮區,國中
124509,市立大樹國中,校本部校區,市立大樹國中_校本部校區,高雄市大樹區九曲里九曲路500號,120.4227371,22.65706444,高雄市,大樹區,國中
124510,市立溪埔國中,校本部校區,市立溪埔國中_校本部校區,高雄市大樹區溪埔路1號,120.4429855,22.71947479,高雄市,大樹區,國中
124512,市立鳥松國中,校本部校區,市立鳥松國中_校本部校區,高雄市鳥松區松埔北巷5之1號,120.3710709,22.66647148,高雄市,鳥松區,國中
124514,市立大社國中,校本部校區,市立大社國中_校本部校區,高雄市大社區神農里翠屏路100號,120.3572693,22.7290287,高雄市,大社區,國中
124515,市立岡山國中,校本部校區,市立岡山國中_校本部校區,高雄市岡山區岡燕路238號,120.3033066,22.79137611,高雄市,岡山區,國中
124515,市立岡山國中,岡山區,市立岡山國中_岡山區,高雄市岡山區岡燕路238號,120.3032684,22.79108238,高雄市,岡山區,國中
124516,市立前峰國中,校本部校區,市立前峰國中_校本部校區,高雄市岡山區樹人路1號,120.2884979,22.78927231,高雄市,岡山區,國中
124517,市立永安國中,校本部校區,市立永安國中_校本部校區,高雄市永安區保興一路3號,120.2406464,22.82317162,高雄市,永安區,國中
124518,市立橋頭國中,校本部校區,市立橋頭國中_校本部校區,高雄市橋頭區新興路70號,120.3071442,22.75946999,高雄市,橋頭區,國中
124519,市立梓官國中,校本部校區,市立梓官國中_校本部校區,高雄市梓官區中學路71號,120.2634735,22.76242828,高雄市,梓官區,國中
124520,市立燕巢國中,高雄市立燕巢國民中學,市立燕巢國中_高雄市立燕巢國民中學,高雄市燕巢區中興路267號,120.3628464,22.78583336,高雄市,燕巢區,國中
124521,高雄市立阿蓮國民中學,校本部校區,高雄市立阿蓮國民中學_校本部校區,高雄市阿蓮區民生路178號,120.3261414,22.88532066,高雄市,阿蓮區,國中
124523,市立湖內國中,校本部校區,市立湖內國中_校本部校區,高雄市湖內區公館里中山路二段63號,120.2268219,22.90751266,高雄市,湖內區,國中
124524,市立茄萣國中,校本部校區,市立茄萣國中_校本部校區,高雄市茄萣區白雲里濱海路四段29號,120.181015,22.90688896,高雄市,茄萣區,國中
124525,市立田寮國中,校本部校區,市立田寮國中_校本部校區,高雄市田寮區崗安路48號,120.3607178,22.86283684,高雄市,田寮區,國中
124526,市立彌陀國中,校本部校區,市立彌陀國中_校本部校區,高雄市彌陀區海尾里進學路136號,120.246582,22.77714539,高雄市,彌陀區,國中
124527,市立旗山國中,校本部校區,市立旗山國中_校本部校區,高雄市旗山區大德里中學路42號,120.4813232,22.88140678,高雄市,旗山區,國中
124528,市立圓富國中,校本部校區,市立圓富國中_校本部校區,高雄市旗山區圓富里旗甲路2段609號,120.5005264,22.92880821,高雄市,旗山區,國中
124529,市立大洲國中,校本部校區,市立大洲國中_校本部校區,高雄市旗山區新光里新南巷5號,120.4605331,22.83536339,高雄市,旗山區,國中
124530,市立美濃國中,校本部校區,市立美濃國中_校本部校區,高雄市美濃區合和里中正路一段191號,120.5435028,22.89474487,高雄市,美濃區,國中
124531,市立南隆國中,校本部校區,市立南隆國中_校本部校區,高雄市美濃區南中街3號,120.5345306,22.86642647,高雄市,美濃區,國中
124532,市立龍肚國中,校本部校區,市立龍肚國中_校本部校區,高雄市美濃區龍山里中華路68號,120.5712051,22.87821388,高雄市,美濃區,國中
124534,市立寶來國中,校本部校區,市立寶來國中_校本部校區,高雄市六龜區寶來里中正路137號,120.7036743,23.10923576,高雄市,六龜區,國中
124535,市立杉林國中,校本部校區,市立杉林國中_校本部校區,高雄市杉林區月眉里清水路中學巷6號,120.5408325,22.96857643,高雄市,杉林區,國中
124536,市立內門國中,校本部校區,市立內門國中_校本部校區,高雄市內門區中正路160巷30號,120.4535141,22.92188263,高雄市,內門區,國中
124537,市立甲仙國中,校本部校區,市立甲仙國中_校本部校區,高雄市甲仙區東安里文化南路6號,120.5920181,23.08097458,高雄市,甲仙區,國中
124538,市立中芸國中,校本部校區,市立中芸國中_校本部校區,高雄市林園區中芸里中芸路3之100號,120.3951416,22.4851532,高雄市,林園區,國中
124539,市立中庄國中,校本部校區,市立中庄國中_校本部校區,高雄市大寮區中庄里光明路三段1437號,120.4018402,22.63641548,高雄市,大寮區,國中
124541,市立蚵寮國中,校本部校區,市立蚵寮國中_校本部校區,高雄市梓官區智蚵里中正二街60號,120.258728,22.72855186,高雄市,梓官區,國中
124542,高雄市立那瑪夏國中,校本部校區,高雄市立那瑪夏國中_校本部校區,高雄市那瑪夏區瑪雅里平和巷171號,120.6976929,23.23944283,高雄市,那瑪夏區,國中
124543,市立青年國中,校本部校區,市立青年國中_校本部校區,高雄市鳳山區青年路二段89號,120.348999,22.63078499,高雄市,鳳山區,國中
124544,市立一甲國中,校本部校區,市立一甲國中_校本部校區,高雄市路竹區一甲路111號,120.2718811,22.8688221,高雄市,路竹區,國中
124545,市立大灣國中,校本部校區,市立大灣國中_校本部校區,高雄市仁武區大灣里仁雄路99號,120.3416138,22.67602348,高雄市,仁武區,國中
124546,市立嘉興國中,校本部校區,市立嘉興國中_校本部校區,高雄市岡山區信中街486號,120.3119125,22.81617546,高雄市,岡山區,國中
124547,市立茂林國中,校本部校區,市立茂林國中_校本部校區,高雄市茂林區茂林里4-5號,120.6640778,22.8848362,高雄市,茂林區,國中
124548,市立桃源國中,校本部校區,市立桃源國中_校本部校區,高雄市桃源區勤和里南橫公路三段201號,120.7810135,23.1788559,高雄市,桃源區,國中
124549,市立中崙國中,校本部校區,市立中崙國中_校本部校區,高雄市鳳山區中崙二路487號,120.3535538,22.60330391,高雄市,鳳山區,國中
124550,市立鳳翔國中,校本部校區,市立鳳翔國中_校本部校區,高雄市鳳山區保安里保義街100號,120.3484802,22.59644127,高雄市,鳳山區,國中
124D01,市立鳳山國中補校,,市立鳳山國中補校_,高雄市鳳山區中山東路227號,120.3720093,22.62528419,高雄市,鳳山區,國中
124D02,市立林園國中補校,,市立林園國中補校_,高雄市林園區林園北路481號,120.3949203,22.51374817,高雄市,林園區,國中
124D04,市立岡山國中補校,,市立岡山國中補校_,高雄市岡山區岡燕路238號,120.3032684,22.79108238,高雄市,岡山區,國中
124D07,市立阿蓮國中補校,,市立阿蓮國中補校_,高雄市阿蓮區民生路178號,120.3256607,22.88533783,高雄市,阿蓮區,國中
124D08,市立大社國中補校,,市立大社國中補校_,高雄市大社區神農里翠屏路100號,120.3560944,22.7298317,高雄市,大社區,國中
124D10,市立大寮國中補校,,市立大寮國中補校_,高雄市大寮區永芳里進學路150號,120.3929291,22.60258865,高雄市,大寮區,國中
124D11,市立梓官國中補校,,市立梓官國中補校_,高雄市梓官區中學路71號,120.2627411,22.76361847,高雄市,梓官區,國中
124D13,市立旗山國中補校,,市立旗山國中補校_,高雄市旗山區大德里中學路42號,120.4810944,22.88145065,高雄市,旗山區,國中
124D14,市立六龜國中補校,,市立六龜國中補校_,高雄市六龜區義寶里光復路212號,120.6341858,22.99316978,高雄市,六龜區,國中
124D15,市立湖內國中補校,,市立湖內國中補校_,高雄市湖內區公?里中山路二段63號,120.2315063,22.90341377,高雄市,湖內區,國中
124D16,市立燕巢國中補校,,市立燕巢國中補校_,高雄市燕巢區中興路267號,120.3624954,22.78633118,高雄市,燕巢區,國中
124D18,市立中庄國中補校,,市立中庄國中補校_,高雄市大寮區中庄里光明路三段1437號,120.4013519,22.6367569,高雄市,大寮區,國中
124D19,市立鳥松國中補校,,市立鳥松國中補校_,高雄市鳥松區松埔北巷5之1號,120.3709259,22.66669464,高雄市,鳥松區,國中
124D20,市立中芸國中補校,,市立中芸國中補校_,高雄市林園區中芸里中芸路3之100號,120.3957062,22.48542404,高雄市,林園區,國中
124D22,市立彌陀國中補校,,市立彌陀國中補校_,高雄市彌陀區海尾里進學路136號,120.246582,22.77714539,高雄市,彌陀區,國中
124D23,市立南隆國中補校,,市立南隆國中補校_,高雄市美濃區南中街3號,120.5346222,22.86594772,高雄市,美濃區,國中
124D24,市立仁武國中補校,,市立仁武國中補校_,高雄市仁武區文武里仁林路20號,120.3563156,22.70245552,高雄市,仁武區,國中
124D27,市立潮寮國中補校,,市立潮寮國中補校_,高雄市大寮區潮寮里潮寮路51之9號,120.4251785,22.56341553,高雄市,大寮區,國中
124D29,市立五甲國中補校,,市立五甲國中補校_,高雄市鳳山區龍成路111號,120.328598,22.59827805,高雄市,鳳山區,國中
124D31,市立福誠國中補校,,市立福誠國中補校_,高雄市鳳山區五甲三路176號,120.3236313,22.59064484,高雄市,鳳山區,國中
124D34,市立忠孝國中補校,,市立忠孝國中補校_,高雄市鳳山區國泰路二段81號,121.4615631,25.00477409,新北市,板橋區,國中
124D35,市立中崙國中補校,,市立中崙國中補校_,高雄市鳳山區中崙二路487號,120.3533478,22.60356712,高雄市,鳳山區,國中
130305,國立屏東高級中學,校本部校區,國立屏東高級中學_校本部校區,屏東縣屏東市忠孝路231號,120.4888153,22.68612862,屏東縣,屏東市,國中
130601,國立屏東大學附小,幼兒園校區,國立屏東大學附小_幼兒園校區,屏東縣屏東市長春里廣東路20號,120.4987946,22.66907883,屏東縣,屏東市,國中
130601,國立屏東大學附小,小學部校區,國立屏東大學附小_小學部校區,屏東縣屏東市長春里廣東路20號,120.4987869,22.66902924,屏東縣,屏東市,國中
131308j,私立陸興高中附設國中,校本部校區,私立陸興高中附設國中_校本部校區,屏東縣屏東市豐田里廣東路150號,120.5002899,22.6746769,屏東縣,屏東市,國中
131311j,私立美和高中附設國中,校本部校區,私立美和高中附設國中_校本部校區,屏東縣內埔鄉美和村學人路323號,121.3833771,24.81646729,桃園市,復興區,國中
131312,私立新基中學,校本部校區,私立新基中學_校本部校區,屏東縣東港鎮新基街128號,120.4532547,22.47000694,屏東縣,東港鎮,國中
131312j,私立新基高中附設國中,校本部校區,私立新基高中附設國中_校本部校區,屏東縣東港鎮新基街128號,121.3510818,24.81540108,桃園市,復興區,國中
131501,私立南榮國中,校本部校區,私立南榮國中_校本部校區,屏東縣崁頂鄉園寮村田寮路1-15號,120.5184021,22.51342201,屏東縣,崁頂鄉,國中
131501,私立南榮國中,私立南榮國中,私立南榮國中_私立南榮國中,屏東縣崁頂鄉園寮村田寮路1-15號,120.5181503,22.51332092,屏東縣,崁頂鄉,國中
134304j,縣立大同高中附設國中,校本部校區,縣立大同高中附設國中_校本部校區,屏東縣屏東市和平路429號,121.3649216,24.79726791,桃園市,復興區,國中
134334j,縣立來義高中附設國中,校本部校區,縣立來義高中附設國中_校本部校區,屏東縣來義鄉古樓村中正路147號,121.3995132,24.65518951,桃園市,復興區,國中
134501,縣立明正國中,校本部校區,縣立明正國中_校本部校區,屏東縣屏東市大連路70號,120.4976349,22.67989349,屏東縣,屏東市,國中
134502,縣立中正國中,校本部校區,縣立中正國中_校本部校區,屏東縣屏東市民學路2號,120.50914,22.67275238,屏東縣,屏東市,國中
134503,縣立公正國中,校本部校區,縣立公正國中_校本部校區,屏東市公興路11號,120.4842453,22.64025307,屏東縣,屏東市,國中
134505,縣立鶴聲國中,校本部校區,縣立鶴聲國中_校本部校區,屏東縣屏東市大武路225號,120.4714813,22.65917587,屏東縣,屏東市,國中
134506,縣立至正國中,校本部校區,縣立至正國中_校本部校區,屏東縣屏東市公裕街300號,120.493042,22.68995094,屏東縣,屏東市,國中
134507,縣立長治國中,校本部校區,縣立長治國中_校本部校區,屏東縣長治鄉中興路578號,120.543663,22.69336319,屏東縣,長治鄉,國中
134508,縣立麟洛國中,校本部校區,縣立麟洛國中_校本部校區,屏東縣麟洛鄉中山路2號,120.536293,22.64149284,屏東縣,麟洛鄉,國中
134509,縣立九如國中,校本部校區,縣立九如國中_校本部校區,屏東縣九如鄉玉水村玉水路26號,120.4862518,22.71742249,屏東縣,九如鄉,國中
134510,縣立里港國中,校本部校區,縣立里港國中_校本部校區,屏東縣里港鄉春林村里中路10號,120.498291,22.77109146,屏東縣,里港鄉,國中
134511,縣立鹽埔國中,校本部校區,縣立鹽埔國中_校本部校區,屏東縣鹽埔鄉鹽南村勝利路30號,120.5740738,22.75356865,屏東縣,鹽埔鄉,國中
134512,縣立高樹國中,校本部校區,縣立高樹國中_校本部校區,屏東縣高樹鄉高樹村南興路4號,120.6045151,22.81685066,屏東縣,高樹鄉,國中
134513,縣立高泰國中,校本部校區,縣立高泰國中_校本部校區,屏東縣高樹鄉泰山村產業路225號,120.6110916,22.79145622,屏東縣,高樹鄉,國中
134514,縣立內埔國中,校本部,縣立內埔國中_校本部,屏東縣內埔鄉文化路262號,120.5702286,22.6109581,屏東縣,內埔鄉,國中
134515,縣立崇文國中,校本部校區,縣立崇文國中_校本部校區,屏東縣內埔鄉龍潭村昭勝路438號,120.6021042,22.67858124,屏東縣,內埔鄉,國中
134516,縣立竹田國中,校本部校區,縣立竹田國中_校本部校區,屏東縣竹田鄉西勢村龍南路26號,120.5234909,22.61618614,屏東縣,竹田鄉,國中
134517,縣立潮州國中,校本部校區,縣立潮州國中_校本部校區,屏東縣潮州鎮文化路66號,120.5429611,22.55402946,屏東縣,潮州鎮,國中
134518,縣立光春國中,校本部校區,縣立光春國中_校本部校區,屏東縣潮州鎮光春路290號,120.5397644,22.53466225,屏東縣,潮州鎮,國中
134519,縣立萬巒國中,校本部校區,縣立萬巒國中_校本部校區,屏東縣萬巒鄉褒忠路5號,120.5747223,22.57097626,屏東縣,萬巒鄉,國中
134520,縣立新埤國中,校本部校區,縣立新埤國中_校本部校區,屏東縣新埤鄉建功路190號,120.5655823,22.48363304,屏東縣,新埤鄉,國中
134522,縣立萬丹國中,校本部校區,縣立萬丹國中_校本部校區,屏東縣萬丹鄉四維村萬丹路2段5號,120.4881134,22.59654999,屏東縣,萬丹鄉,國中
134523,縣立新園國中,校本部校區,縣立新園國中_校本部校區,屏東縣新園鄉仙吉村仙吉路111號,120.4609909,22.54522705,屏東縣,新園鄉,國中
134525,縣立林邊國中,校本部校區,縣立林邊國中_校本部校區,屏東縣林邊鄉光林村和平路43號,120.5104675,22.4325161,屏東縣,林邊鄉,國中
134526,縣立南州國中,校本部校區,縣立南州國中_校本部校區,屏東縣南州鄉人和路231號,120.5053482,22.48722839,屏東縣,南州鄉,國中
134527,縣立佳冬國中,校本部校區,縣立佳冬國中_校本部校區,屏東縣佳冬鄉玉光村大同路1號,120.5667572,22.42848015,屏東縣,佳冬鄉,國中
134528,縣立琉球國中,校本部校區,縣立琉球國中_校本部校區,屏東縣琉球鄉中正路158號,120.3685303,22.33595276,屏東縣,琉球鄉,國中
134530,縣立車城國中,校本部校區,縣立車城國中_校本部校區,屏東縣車城鄉福興村新興路42號,120.7164917,22.07291603,屏東縣,車城鄉,國中
134531,縣立恆春國中,校本部校區,縣立恆春國中_校本部校區,屏東縣恆春鎮文化路79號,120.7475128,22.00311089,屏東縣,恆春鎮,國中
134532,縣立滿州國中,校本部校區,縣立滿州國中_校本部校區,屏東縣滿州鄉文化路32號,120.8396988,22.02449799,屏東縣,滿州鄉,國中
134533,縣立瑪家國中,校本部校區,縣立瑪家國中_校本部校區,屏東縣瑪家鄉三和村三和巷16號,120.609726,22.70219803,屏東縣,內埔鄉,國中
134535,縣立泰武國中,校本部校區,縣立泰武國中_校本部校區,屏東縣泰武鄉佳平路120號,120.6332932,22.59153366,屏東縣,泰武鄉,國中
134536,縣立牡丹國中,校本部校區,縣立牡丹國中_校本部校區,屏東縣牡丹鄉石門村3鄰石門路1-1號,120.7757492,22.12917328,屏東縣,牡丹鄉,國中
134537,縣立獅子國中,校本部校區,縣立獅子國中_校本部校區,屏東縣枋山鄉楓港村舊庄280號,120.7007675,22.20454979,屏東縣,枋山鄉,國中
134538,縣立東新國中,東新國中,縣立東新國中_東新國中,屏東縣東港鎮興東里東新路1號,120.4651337,22.47356796,屏東縣,東港鎮,國中
134542,縣立萬新國中,校本部校區,縣立萬新國中_校本部校區,屏東縣萬丹鄉新鐘村新鐘路8號,120.4923019,22.56208038,屏東縣,萬丹鄉,國中
134543,縣立大路觀國中(小),校本部校區,縣立大路觀國中(小)_校本部校區,屏東縣高樹鄉廣福村中央路60號,120.625203,22.737187,屏東縣,高樹鄉,國中
134D01,縣立明正國中補校,,縣立明正國中補校_,屏東縣屏東市大連路70號,120.4976501,22.6803093,屏東縣,屏東市,國中
134D02,縣立枋寮國中補校,,縣立枋寮國中補校_,屏東縣枋寮鄉新龍村義民路3號,120.5908813,22.37039948,屏東縣,枋寮鄉,國中
134D03,縣立恆春國中補校,,縣立恆春國中補校_,屏東縣恆春鎮文化路79號,120.7469025,22.00329208,屏東縣,恆春鎮,國中
134D05,縣立新埤國中補校,,縣立新埤國中補校_,屏東縣新埤鄉建功路190號,120.5669861,22.4833107,屏東縣,新埤鄉,國中
134D06,縣立公正國中補校,,縣立公正國中補校_,屏東縣屏東市公興路11號,120.4842682,22.63994408,屏東縣,屏東市,國中
134D07,縣立內埔國中補校,,縣立內埔國中補校_,屏東縣內埔鄉文化路262號,120.5702286,22.6109581,屏東縣,內埔鄉,國中
134D08,縣立琉球國中補校,,縣立琉球國中補校_,屏東縣琉球鄉中正路158號,120.3678818,22.33575439,屏東縣,琉球鄉,國中
134D09,縣立鹽埔國中補校,,縣立鹽埔國中補校_,屏東縣鹽埔鄉鹽南村勝利路30號,120.5744553,22.75312424,屏東縣,鹽埔鄉,國中
134D10,縣立潮州國中補校,,縣立潮州國中補校_,屏東縣潮州鎮文化路66號,120.5429153,22.5539341,屏東縣,潮州鎮,國中
134D12,縣立東港國中補校,,縣立東港國中補校_,屏東縣東港鎮船頭路1號,120.4554367,22.46486473,屏東縣,東港鎮,國中
134D13,縣立高樹國中補校,,縣立高樹國中補校_,屏東縣高樹鄉高樹村南興路4號,120.6057053,22.81786156,屏東縣,高樹鄉,國中
134D15,縣立九如國中補校,,縣立九如國中補校_,屏東縣九如鄉玉水路26號,120.4860382,22.71689224,屏東縣,九如鄉,國中
134D16,縣立崇文國中補校,,縣立崇文國中補校_,屏東縣內埔鄉龍潭村昭勝路438號,120.6013184,22.67892075,屏東縣,內埔鄉,國中
134D17,縣立林邊國中補校,,縣立林邊國中補校_,屏東縣林邊鄉光林村和平路43號,120.5104675,22.4325161,屏東縣,林邊鄉,國中
134D18,縣立新園國中補校,,縣立新園國中補校_,屏東縣新園鄉仙吉村仙吉路111號,120.4613953,22.5452652,屏東縣,新園鄉,國中
134D22,縣立南州國中補校,,縣立南州國中補校_,屏東縣南州鄉人和路231號,120.5044632,22.48750114,屏東縣,南州鄉,國中
134D24,縣立佳冬國中補校,,縣立佳冬國中補校_,屏東縣佳冬鄉玉光村大同路1號,120.5676498,22.42808723,屏東縣,枋寮鄉,國中
134D26,縣立萬巒國中補校,,縣立萬巒國中補校_,屏東縣萬巒鄉萬和村褒忠路5號,120.574791,22.5714283,屏東縣,萬巒鄉,國中
140301j,國立臺東大學附屬體中附設國中,校本部校區,國立臺東大學附屬體中附設國中_校本部校區,臺東縣臺東市中興路五段399號,121.0751877,22.77144623,臺東縣,臺東市,國中
140601,國立臺東大學附小,校本部校區,國立臺東大學附小_校本部校區,臺東縣臺東市博愛路345號,121.1472473,22.75530815,臺東縣,臺東市,國中
141307j,私立育仁高中附設國中,校本部校區,私立育仁高中附設國中_校本部校區,臺東縣臺東市中興路四段485號,121.0929642,22.7741642,臺東縣,臺東市,國中
144322j,縣立蘭嶼高中附設國中,校本部校區,縣立蘭嶼高中附設國中_校本部校區,臺東縣蘭嶼鄉椰油村37號,121.5112381,22.0488739,臺東縣,蘭嶼鄉,國中
144501,縣立新生國中,校本部校區,縣立新生國中_校本部校區,臺東縣臺東市新生路641巷64號,121.1355743,22.76213646,臺東縣,臺東市,國中
144502,台東縣立東海國民中學,校本部校區,台東縣立東海國民中學_校本部校區,臺東縣臺東市中華路一段719巷51號,121.1483231,22.74562454,臺東縣,臺東市,國中
144503,縣立寶桑國中,校本部校區,縣立寶桑國中_校本部校區,臺東縣臺東市仁七街1號,121.1449585,22.76996994,臺東縣,臺東市,國中
144504,縣立卑南國中,校本部校區,縣立卑南國中_校本部校區,臺東縣臺東市更生北路766號,121.1118851,22.78901291,臺東縣,臺東市,國中
144505,縣立豐田國中,校本部校區,縣立豐田國中_校本部校區,臺東縣臺東市中興路四段611巷56弄27號,121.0908813,22.77173615,臺東縣,臺東市,國中
144506,縣立知本國中,校本部校區,縣立知本國中_校本部校區,臺東縣臺東市青海路三段680號,121.047081,22.71734619,臺東縣,臺東市,國中
144507,縣立初鹿國中,校本部校區,縣立初鹿國中_校本部校區,臺東縣卑南鄉明峰村忠孝路2號,121.0925369,22.84999847,臺東縣,卑南鄉,國中
144508,縣立鹿野國中,校本部校區,縣立鹿野國中_校本部校區,臺東縣鹿野鄉龍田村光榮路38號,121.1351852,22.90694618,臺東縣,鹿野鄉,國中
144509,縣立瑞源國中,校本部校區,縣立瑞源國中_校本部校區,臺東縣鹿野鄉瑞和村瑞景路三段1號,121.156723,22.97420692,臺東縣,鹿野鄉,國中
144510,縣立關山國中,校本部校區,縣立關山國中_校本部校區,臺東縣關山鎮崁頂路22號,121.159874,23.04432297,臺東縣,關山鎮,國中
144511,縣立池上國中,校本部校區,縣立池上國中_校本部校區,臺東縣池上鄉新興村力學路88號,121.2044525,23.11588287,臺東縣,池上鄉,國中
144512,縣立大王國中,校本部校區,縣立大王國中_校本部校區,臺東縣太麻里鄉大王村德輝路18號,121.0062866,22.61561394,臺東縣,太麻里鄉,國中
144513,縣立賓茂國中,校本部校區,縣立賓茂國中_校本部校區,臺東縣太麻里鄉金崙村77號,120.967308,22.53225327,臺東縣,太麻里鄉,國中
144514,縣立大武國中,校本部校區,縣立大武國中_校本部校區,臺東縣大武鄉大武村復興路1號,120.9068298,22.36450005,臺東縣,大武鄉,國中
144515,縣立都蘭國中,校本部校區,縣立都蘭國中_校本部校區,臺東縣東河鄉都蘭村398號,121.2245178,22.87473679,臺東縣,東河鄉,國中
144516,縣立泰源國中,校本部校區,縣立泰源國中_校本部校區,臺東縣東河鄉北源村三鄰30號,121.2899323,23.00151253,臺東縣,東河鄉,國中
144517,縣立新港國中,校本部校區,縣立新港國中_校本部校區,臺東縣成功鎮中正路1號,121.3763275,23.10084724,臺東縣,成功鎮,國中
144518,縣立長濱國中,校本部校區,縣立長濱國中_校本部校區,臺東縣長濱鄉長濱村15鄰180號,121.4589615,23.31473732,臺東縣,長濱鄉,國中
144519,縣立桃源國中,校本部校區,縣立桃源國中_校本部校區,臺東縣延平鄉桃源村昇平路178號,121.0806046,22.90250969,臺東縣,延平鄉,國中
144520,縣立海端國中,校本部校區,縣立海端國中_校本部校區,臺東縣海端鄉海端村山界1號,121.1756363,23.099123,臺東縣,海端鄉,國中
144521,縣立綠島國中,校本部校區,縣立綠島國中_校本部校區,臺東縣綠島鄉中寮村4號,121.4708252,22.67326355,臺東縣,綠島鄉,國中
144D01,縣立新生國中補校,,縣立新生國中補校_,臺東縣臺東市新生路641巷64號,121.1354065,22.76204109,臺東縣,臺東市,國中
144D03,縣立新港國中補校,,縣立新港國中補校_,臺東縣成功鎮中正路1號,121.3766022,23.10169601,臺東縣,成功鎮,國中
151306j,私立海星高中附設國中,校本部校區,私立海星高中附設國中_校本部校區,花蓮縣新城鄉嘉新178號,121.615593,24.00531769,花蓮縣,新城鄉,國中
151312,財團法人慈濟大學附中,校本部校區,財團法人慈濟大學附中_校本部校區,花蓮市國興里17鄰介仁街178號,121.5752945,23.99936104,花蓮縣,花蓮市,國中
151312j,私立慈大附中附設國中,校本部校區,私立慈大附中附設國中_校本部校區,花蓮縣花蓮市介仁街178號,121.5736923,23.99966621,花蓮縣,花蓮市,國中
151D01,正德高中進修附國中補校,,正德高中進修附國中補校_,花蓮縣吉安鄉干城村300號,121.5616531,23.95486259,花蓮縣,吉安鄉,國中
154399,縣立南平中學,校本部校區,縣立南平中學_校本部校區,花蓮縣鳳林鎮八德路62號,121.4570236,23.78378677,花蓮縣,鳳林鎮,國中
154501,縣立玉里國中,校本部校區,縣立玉里國中_校本部校區,花蓮縣玉里鎮民族街30號,121.312912,23.3355484,花蓮縣,玉里鎮,國中
154502,縣立玉東國中,校本部校區,縣立玉東國中_校本部校區,花蓮縣玉里鎮松浦里松浦39號,121.3709793,23.41701126,花蓮縣,玉里鎮,國中
154503,縣立三民國中,校本部校區,縣立三民國中_校本部校區,花蓮縣玉里鎮三民里151號,121.3498459,23.43304253,花蓮縣,玉里鎮,國中
154504,縣立美崙國中,校本部校區,縣立美崙國中_校本部校區,花蓮縣花蓮市化道路40巷1號,121.6277008,23.99783134,花蓮縣,花蓮市,國中
154505,縣立花崗國中,花蓮縣立花崗國中,縣立花崗國中_花蓮縣立花崗國中,花蓮縣花蓮市公園路40號,121.612381,23.97750473,花蓮縣,花蓮市,國中
154506,縣立國風國中,校本部校區,縣立國風國中_校本部校區,花蓮縣花蓮市國風里林政街7號,121.5953751,23.97847939,花蓮縣,花蓮市,國中
154507,縣立秀林國中,校本部校區,縣立秀林國中_校本部校區,花蓮縣新城鄉新城村中山路56號,121.6532288,24.12590981,花蓮縣,新城鄉,國中
154508,縣立新城國中,校本部校區,縣立新城國中_校本部校區,花蓮縣新城鄉北埔路143號,121.6045837,24.03039551,花蓮縣,新城鄉,國中
154509,縣立吉安國中,校本部校區,縣立吉安國中_校本部校區,花蓮縣吉安鄉中山路三段662號,121.5612335,23.98347473,花蓮縣,吉安鄉,國中
154510,縣立宜昌國中,校本部校區,縣立宜昌國中_校本部校區,花蓮縣吉安鄉宜昌村宜昌1街41號,121.5871887,23.97257614,花蓮縣,吉安鄉,國中
154511,縣立壽豐國中,校本部校區,縣立壽豐國中_校本部校區,花蓮縣壽豐鄉豐裡村中山路132號,121.5003815,23.84537125,花蓮縣,壽豐鄉,國中
154512,縣立平和國中,校本部校區,縣立平和國中_校本部校區,花蓮縣壽豐鄉平和村平和路48號,121.5185699,23.88573837,花蓮縣,壽豐鄉,國中
154513,縣立光復國中,校本部校區,縣立光復國中_校本部校區,花蓮縣光復鄉大馬村林森路200號,121.4251862,23.67100143,花蓮縣,光復鄉,國中
154514,縣立富源國中,校本部校區,縣立富源國中_校本部校區,花蓮縣光復鄉大富村中山路一段2號,121.3842621,23.58892632,花蓮縣,光復鄉,國中
154515,縣立鳳林國中,校本部校區,縣立鳳林國中_校本部校區,花蓮縣鳳林鎮光復路8號,121.4487534,23.74391556,花蓮縣,鳳林鎮,國中
154516,縣立萬榮國中,校本部校區,縣立萬榮國中_校本部校區,花蓮縣鳳林鎮長橋路1號,121.4184799,23.7083931,花蓮縣,鳳林鎮,國中
154517,縣立富里國中,校本部校區,縣立富里國中_校本部校區,花蓮縣富里鄉永安路173號,121.2494965,23.17514992,花蓮縣,富里鄉,國中
154518,縣立富北國中,校本部校區,縣立富北國中_校本部校區,花蓮縣富里鄉新興村一鄰8號,121.2800217,23.22539711,花蓮縣,富里鄉,國中
154519,縣立豐濱國中,校本部校區,縣立豐濱國中_校本部校區,花蓮縣豐濱鄉光豐路26號,121.5216217,23.60107613,花蓮縣,豐濱鄉,國中
154520,縣立瑞穗國中,校本部校區,縣立瑞穗國中_校本部校區,花蓮縣瑞穗鄉成功北路18號,121.3746033,23.49931526,花蓮縣,瑞穗鄉,國中
154521,縣立東里國中,校本部校區,縣立東里國中_校本部校區,花蓮縣富里鄉東里村道化路82號,121.3027039,23.26320267,花蓮縣,富里鄉,國中
154522,縣立自強國中,校本部校區,縣立自強國中_校本部校區,花蓮市裕祥路89號,121.5988998,23.99683571,花蓮縣,花蓮市,國中
154523,縣立化仁國中,校本部校區,縣立化仁國中_校本部校區,花蓮縣吉安鄉東海十街3號,121.5932236,23.96550941,花蓮縣,吉安鄉,國中
154D01,縣立宜昌國中補校,,縣立宜昌國中補校_,花蓮縣吉安鄉宜昌1街41號,121.5865631,23.97216988,花蓮縣,吉安鄉,國中
154D02,縣立玉里國中補校,,縣立玉里國中補校_,花蓮縣玉里鎮民族街30號,121.312912,23.33532715,花蓮縣,玉里鎮,國中
154D04,縣立光復國中補校,,縣立光復國中補校_,花蓮縣光復鄉大馬村林森路200號,121.4246674,23.67063332,花蓮縣,光復鄉,國中
154D06,縣立花崗國中補校,,縣立花崗國中補校_,花蓮縣花蓮市公園路40號,121.6121521,23.97769547,花蓮縣,花蓮市,國中
154D09,縣立壽豐國中補校,,縣立壽豐國中補校_,花蓮縣壽豐鄉豐裡村中山路132號,121.5007858,23.84552956,花蓮縣,壽豐鄉,國中
164501,縣立馬公國中,校本部校區,縣立馬公國中_校本部校區,澎湖縣馬公市西文里中華路326號,119.5809708,23.57016182,澎湖縣,馬公市,國中
164502,縣立中正國中,校本部校區,縣立中正國中_校本部校區,澎湖縣馬公市光華里101號,119.5995407,23.5600338,澎湖縣,馬公市,國中
164502,縣立中正國中,虎井校區,縣立中正國中_虎井校區,澎湖縣馬公市光華里101號,119.521553,23.49027061,澎湖縣,馬公市,國中
164503,縣立澎南國中,校本部校區,縣立澎南國中_校本部校區,澎湖縣馬公市五德里41號,119.589241,23.5270462,澎湖縣,馬公市,國中
164504,縣立湖西國中,校本部校區,縣立湖西國中_校本部校區,澎湖縣湖西鄉湖西村43之1號,119.653717,23.58459854,澎湖縣,湖西鄉,國中
164505,縣立志清國中,校本部校區,縣立志清國中_校本部校區,澎湖縣湖西鄉許家村1之1號,119.6114044,23.59017944,澎湖縣,湖西鄉,國中
164506,縣立鎮海國中,校本部校區,縣立鎮海國中_校本部校區,澎湖縣白沙鄉鎮海村60號,119.5965729,23.64403915,澎湖縣,白沙鄉,國中
164507,縣立白沙國中,校本部校區,縣立白沙國中_校本部校區,澎湖縣白沙鄉赤崁村294號,119.5977249,23.66830635,澎湖縣,白沙鄉,國中
164508,縣立吉貝國中,校本部校區,縣立吉貝國中_校本部校區,澎湖縣白沙鄉吉貝村185號,119.6054993,23.73720551,澎湖縣,白沙鄉,國中
164509,縣立西嶼國中,校本部校區,縣立西嶼國中_校本部校區,澎湖縣西嶼鄉池東村213號,119.5107651,23.60045433,澎湖縣,西嶼鄉,國中
164510,縣立望安國中,校本部校區,縣立望安國中_校本部校區,澎湖縣望安鄉西安村36之1號,119.4981613,23.36217499,澎湖縣,望安鄉,國中
164511,縣立將澳國中,校本部校區,縣立將澳國中_校本部校區,澎湖縣望安鄉將軍村12之7號,119.5258789,23.3649559,澎湖縣,望安鄉,國中
164512,縣立七美國中,校本部校區,縣立七美國中_校本部校區,澎湖縣七美鄉中和村4號,119.4294739,23.20582962,澎湖縣,七美鄉,國中
164513,縣立文光國中,校本部校區,縣立文光國中_校本部校區,澎湖縣馬公市文光路17號,119.5695724,23.57352638,澎湖縣,馬公市,國中
164514,縣立鳥嶼國中,校本部校區,縣立鳥嶼國中_校本部校區,澎湖縣白沙鄉鳥嶼村1號,119.6611938,23.6600132,澎湖縣,白沙鄉,國中
164D01,縣立馬公國中補校,,縣立馬公國中補校_,澎湖縣馬公市西文里中華路326號,119.5814896,23.56980324,澎湖縣,馬公市,國中
164D04,縣立澎南國中補校,,縣立澎南國中補校_,澎湖縣馬公市五德里41號,119.5896225,23.52660751,澎湖縣,馬公市,國中
164D08,縣立湖西國中補校,,縣立湖西國中補校_,澎湖縣湖西鄉湖西村43之1號,119.6538925,23.58437729,澎湖縣,湖西鄉,國中
164D12,縣立七美國中補校,,縣立七美國中補校_,澎湖縣七美鄉中和村4號,119.4297333,23.20620537,澎湖縣,七美鄉,國中
164D13,縣立望安國中補校,,縣立望安國中補校_,澎湖縣望安鄉西安村36之1號,119.4978714,23.36194992,澎湖縣,望安鄉,國中
171306j,私立二信高中附設國中,校本部校區,私立二信高中附設國中_校本部校區,基隆市中正區立德路243號,121.7717514,25.14345741,基隆市,中正區,國中
171308,基隆市輔大聖心高級中學,校本部校區,基隆市輔大聖心高級中學_校本部校區,基隆市中山區西定路166號,121.7345123,25.13662529,基隆市,中山區,國中
171308j,私立聖心高中附設國中,校本部校區,私立聖心高中附設國中_校本部校區,基隆市中山區西定路166號,121.7337646,25.13532257,基隆市,中山區,國中
173304j,市立中山高中附設國中,校本部校區,市立中山高中附設國中_校本部校區,基隆市中山區文化路162號,121.7306595,25.15416908,基隆市,中山區,國中
173304ja1,市立中山高中附設國中(大德分校),大德校區,市立中山高中附設國中(大德分校)_大德校區,基隆市中山區中山二路105巷144號,121.7349014,25.14031982,基隆市,中山區,國中
173306j,市立安樂高中附設國中,校本部校區,市立安樂高中附設國中_校本部校區,基隆市安樂區安一路360號,121.2584686,25.02296066,桃園市,蘆竹區,國中
173307j,市立暖暖高中附設國中,校本部校區,市立暖暖高中附設國中_校本部校區,基隆市暖暖區暖中路112號,121.7376022,25.10792923,基隆市,暖暖區,國中
173501,市立明德國中,校本部校區,市立明德國中_校本部校區,基隆市七堵區東新街20號,121.7155075,25.09364891,基隆市,七堵區,國中
173502,市立銘傳國中,校本部校區,市立銘傳國中_校本部校區,20050基隆市仁愛區劉銘傳路132號,121.7508469,25.12372971,基隆市,仁愛區,國中
173503,市立信義國中,校本部校區,市立信義國中_校本部校區,基隆市信義區東信路4號,121.7682037,25.1294136,基隆市,信義區,國中
173503,市立信義國中,基隆市立信義國民中學,市立信義國中_基隆市立信義國民中學,基隆市信義區東信路4號,121.7685165,25.12881851,基隆市,信義區,國中
173503,市立信義國中,自強樓、莊敬樓、行政大樓、體育館、科學大樓,市立信義國中_自強樓、莊敬樓、行政大樓、體育館、科學大樓,基隆市信義區東信路4號,121.7685165,25.12881851,基隆市,信義區,國中
173505,市立中正國中,校本部校區,市立中正國中_校本部校區,基隆市中正區中船路36巷59號,121.7537155,25.13510704,基隆市,中正區,國中
173508,市立南榮國中,校本部校區,市立南榮國中_校本部校區,基隆市仁愛區南榮路319巷36號,121.7455368,25.12079048,基隆市,仁愛區,國中
173509,市立成功國中,校本部校區,市立成功國中_校本部校區,基隆市信義區壽山路9號,121.7514725,25.1326046,基隆市,信義區,國中
173510,市立正濱國中,校本部校區,市立正濱國中_校本部校區,基隆市中正區正榮街88號,121.7629166,25.14624023,基隆市,中正區,國中
173512,市立建德國中,校本部校區,市立建德國中_校本部校區,基隆市安樂區安和一街29號,121.721817,25.12763977,基隆市,安樂區,國中
173513,市立百福國中,校本部校區,市立百福國中_校本部校區,基隆市七堵區福五街1號,121.6986847,25.08369064,基隆市,七堵區,國中
173515,市立碇內國中,校本部校區,市立碇內國中_校本部校區,基隆市暖暖區源遠路152巷75號,121.7495346,25.09609604,基隆市,暖暖區,國中
173516,市立武崙國中,校本部校區,市立武崙國中_校本部校區,基隆市安樂區武崙街205號,121.705574,25.13763237,基隆市,安樂區,國中
173D01,市立銘傳國中補校,,市立銘傳國中補校_,基隆市仁愛區劉銘傳路132號,121.7501678,25.12352371,基隆市,仁愛區,國中
173D02,市立明德國中補校,,市立明德國中補校_,基隆市七堵區東新街20號,121.7157288,25.09380341,基隆市,七堵區,國中
173D03,市立安樂國中補校,,市立安樂國中補校_,基隆市安樂區安一路360號,121.730011,25.13544273,基隆市,安樂區,國中
173D04,市立成功國中補校,,市立成功國中補校_,基隆市信義區壽山路9號,121.7519226,25.13268852,基隆市,信義區,國中
173D05,市立建德國中補校,,市立建德國中補校_,基隆市安樂區安和一街29號,121.7215118,25.12688065,基隆市,安樂區,國中
173D06,市立中山國中補校,,市立中山國中補校_,基隆市中山區文化路162號,120.6592331,24.16852379,臺中市,西屯區,國中
173D07,市立信義國中補校,,市立信義國中補校_,基隆市信義區東信路4號,121.7684631,25.1288929,基隆市,信義區,國中
173D08,市立暖暖國中補校,,市立暖暖國中補校_,基隆市暖暖區暖中路112號,121.7379761,25.10796738,基隆市,暖暖區,國中
173D09,市立百福國中補校,,市立百福國中補校_,基隆市七堵區福五街1號,121.6987457,25.08349419,基隆市,七堵區,國中
173D10,市立八斗國中補校,,市立八斗國中補校_,基隆市中正區新豐街100號,121.7884979,25.14005852,基隆市,中正區,國中
173D11,市立正濱國中補校,,市立正濱國中補校_,基隆市中正區正榮街88號,121.7629166,25.1462307,基隆市,中正區,國中
180301j,國立科學工業園區實驗高中附設國中,校本部校區,國立科學工業園區實驗高中附設國中_校本部校區,新竹市東區介壽路300號,121.2648544,25.00836754,桃園市,蘆竹區,國中
181305j,私立光復高中附設國中,校本部校區,私立光復高中附設國中_校本部校區,新竹市東區光復路二段153號,120.9940567,24.79838753,新竹市,東區,國中
181306j,私立曙光女中附設國中,校本部校區,私立曙光女中附設國中_校本部校區,新竹市東區北大路61號,120.9728241,24.8111496,新竹市,東區,國中
181307j,私立磐石高中附設國中,校本部校區,私立磐石高中附設國中_校本部校區,新竹市北區磐石路55號,120.9562454,24.80876923,新竹市,北區,國中
181501,私立矽谷國中(小),校本部校區,私立矽谷國中(小)_校本部校區,新竹市東區藝術路2號,120.965889,24.7683506,新竹市,東區,國中
181502,私立新竹市康橋國中(小),校本部校區,私立新竹市康橋國中(小)_校本部校區,新竹市東區藝術路2號,120.9658857,24.76835019,新竹市,東區,國中
183306j,市立成德高中附設國中,校本部校區,市立成德高中附設國中_校本部校區,新竹市北區崧嶺路128巷38號,120.9533386,24.79091835,新竹市,北區,國中
183307j,市立香山高中附設國中,校本部校區,市立香山高中附設國中_校本部校區,新竹市香山區元培街124號,120.930336,24.78517151,新竹市,香山區,國中
183313j,市立建功高中附設國中,校本部校區,市立建功高中附設國中_校本部校區,新竹市東區建功二路17號,121.002182,24.79790878,新竹市,東區,國中
183501,市立建華國中,校本部校區,市立建華國中_校本部校區,新竹市學府路2號,120.976799,24.79384232,新竹市,東區,國中
183502,市立培英國中,校本部校區,市立培英國中_校本部校區,新竹市東區學府路4號,120.9781418,24.79435539,新竹市,東區,國中
183503,市立光華國中,校本部校區,市立光華國中_校本部校區,新竹市北區光華北街10號,120.9740753,24.81799316,新竹市,北區,國中
183504,市立育賢國中,校本部校區,市立育賢國中_校本部校區,新竹市南大路569號,120.9656982,24.79002762,新竹市,東區,國中
183505,市立光武國中,校本部校區,市立光武國中_校本部校區,新竹市光復路一段512號,121.0118637,24.78603172,新竹市,東區,國中
183508,市立南華國中,南華國中,市立南華國中_南華國中,新竹市海濱路55號,120.9274673,24.84405327,新竹市,北區,國中
183509,市立富禮國中,校本部校區,市立富禮國中_校本部校區,新竹市香山區富禮街16號,120.9126816,24.76412392,新竹市,香山區,國中
183510,市立三民國中,校本部校區,市立三民國中_校本部校區,新竹市自由路95巷15號,120.9795761,24.81215668,新竹市,東區,國中
183511,市立內湖國中,校本部校區,市立內湖國中_校本部校區,新竹市香山區五福路一段12號,120.9112015,24.74222183,新竹市,香山區,國中
183512,市立虎林國中,校本部校區,市立虎林國中_校本部校區,新竹市香山區延平路2段76號,120.9419785,24.80528069,新竹市,香山區,國中
183514,市立新科國中,校本部校區,市立新科國中_校本部校區,300 新竹市東區光復路一段89巷88號,121.0236969,24.78004837,新竹市,東區,國中
183515,市立竹光國中,校本部校區,市立竹光國中_校本部校區,新竹市北區和平路1號,120.9553604,24.80797958,新竹市,北區,國中
183D01,市立建華國中補校,,市立建華國中補校_,新竹市東區學府路2號,120.9752655,24.79379845,新竹市,東區,國中
183D03,市立光武國中補校,,市立光武國中補校_,新竹市東區光復路一段512號,121.0117188,24.78606033,新竹市,東區,國中
190601,國立臺中教大附小,校本部校區,國立臺中教大附小_校本部校區,臺中市北區民權路220號,120.6738434,24.14402199,臺中市,北區,國中
190601,國立臺中教大附小,幼兒園校區,國立臺中教大附小_幼兒園校區,臺中市北區民權路220號,120.6735077,24.14376068,臺中市,北區,國中
191301j,財團法人東海大學附屬高級中等學校國中部,校本部校區,財團法人東海大學附屬高級中等學校國中部_校本部校區,台中市西屯區臺灣大道四段1727號,120.6028061,24.18182564,臺中市,西屯區,國中
191302j,私立葳格高中附設國中,校本部校區,私立葳格高中附設國中_校本部校區,臺中市西屯區長安路一段35號,120.6541519,24.17043686,臺中市,西屯區,國中
191305j,私立新民高中附設國中,校本部校區,私立新民高中附設國中_校本部校區,台中市北區三民路三段289號,120.6869965,24.1569519,臺中市,北區,國中
191308j,私立宜寧高中附設國中,校本部校區,私立宜寧高中附設國中_校本部校區,台中市南區復興路二段45號,120.9236526,24.7078495,苗栗縣,竹南鎮,國中
191309,私立明德中學,校本部校區,私立明德中學_校本部校區,臺中市南區明德街84號,120.6839142,24.12059212,臺中市,南區,國中
191311j,私立衛道高中附設國中,校本部校區,私立衛道高中附設國中_校本部校區,台中市北屯區四平路161號,120.6750412,24.18300247,臺中市,北屯區,國中
191313j,私立曉明女中附設國中,校本部校區,私立曉明女中附設國中_校本部校區,台中市北區大雅路452號,120.6835861,24.15812874,臺中市,北區,國中
191314j,私立嶺東高中附設國中,校本部校區,私立嶺東高中附設國中_校本部校區,台中市南屯區春社里嶺東路2號,120.8846588,24.68029213,苗栗縣,頭份鎮,國中
191503,私立麗?國中(小),校本部校區,私立麗?國中(小)_校本部校區,臺中市西屯區國安二路242巷199號,120.6144034,24.1946626,臺中市,西屯區,國中
191B09,私立明德中學進修學校,,私立明德中學進修學校_,臺中市南區明德街84號,120.6839828,24.12036133,臺中市,南區,國中
193303j,市立忠明高中附設國中,校本部校區,市立忠明高中附設國中_校本部校區,台中市西區博館路166號,120.6637726,24.1578846,臺中市,西區,國中
193313j,市立西苑高中附設國中,校本部校區,市立西苑高中附設國中_校本部校區,台中市西屯區光明路194號,121.0083313,24.62941742,苗栗縣,南庄鄉,國中
193315j,市立東山高中附設國中,校本部校區,市立東山高中附設國中_校本部校區,台中市北屯區景賢六路一段200號,120.9726639,24.63431931,苗栗縣,南庄鄉,國中
193316j,市立惠文高中附設國中,校本部校區,市立惠文高中附設國中_校本部校區,台中市南屯區公益路二段298號,120.6399765,24.15154076,臺中市,南屯區,國中
193501,市立居仁國中,校本部校區,市立居仁國中_校本部校區,臺中市西區自由路一段97號,120.6787262,24.13708305,臺中市,西區,國中
193502,市立雙十國中,校本部校區,市立雙十國中_校本部校區,臺中市北區力行路258號,120.6909866,24.15271378,臺中市,北區,國中
193504,市立崇倫國中,校本部校區,市立崇倫國中_校本部校區,臺中市南區忠明南路653號,120.6586685,24.13187408,臺中市,南區,國中
193505,市立大德國中,校本部校區,市立大德國中_校本部校區,臺中市北屯區雷中街2-3號,120.6688919,24.18036842,臺中市,北屯區,國中
193506,市立北新國中,校本部校區,市立北新國中_校本部校區,臺中市北屯區柳陽東街180號,120.6980209,24.17936707,臺中市,北屯區,國中
193507,市立東峰國中,校本部校區,市立東峰國中_校本部校區,臺中市東區仁和路330號,120.6858597,24.12530327,臺中市,東區,國中
193508,市立黎明國中,校本部校區,市立黎明國中_校本部校區,臺中市南屯區干城街88號,120.6327744,24.15637779,臺中市,南屯區,國中
193509,市立光明國中,校本部校區,市立光明國中_校本部校區,臺中市西區自由路一段75號,120.6733551,24.13271713,臺中市,西區,國中
193510,市立向上國中,校本部校區,市立向上國中_校本部校區,臺中市西區美村路一段389號,120.6631699,24.1433506,臺中市,西區,國中
193511,市立育英國中,校本部校區,市立育英國中_校本部校區,臺中市東區育英路30號,120.6993942,24.13623047,臺中市,東區,國中
193512,市立四育國中,校本部校區,市立四育國中_校本部校區,臺中市南區復興路二段152號,120.665451,24.12550926,臺中市,南區,國中
193514,市立五權國中,校本部校區,市立五權國中_校本部校區,臺中市北區英才路1號,120.6783295,24.15539551,臺中市,北區,國中
193516,市立中山國中,校本部校區,市立中山國中_校本部校區,台中市西屯區寧夏路179號,120.6592636,24.16828918,臺中市,西屯區,國中
193517,市立崇德國中,校本部校區,市立崇德國中_校本部校區,臺中市北屯區崇德路二段227號,120.6845779,24.17513466,臺中市,北屯區,國中
193518,市立立人國中,校本部校區,市立立人國中_校本部校區,40460臺中市北區北平路一段62號,120.6702728,24.17081451,臺中市,北區,國中
193519,市立漢口國中,校本部校區,市立漢口國中_校本部校區,臺中市西屯區漢口路一段54-1號,120.6574707,24.16101646,臺中市,西屯區,國中
193520,市立安和國中,校本部校區,市立安和國中_校本部校區,臺中市西屯區天助街1號,120.6161957,24.17295647,臺中市,西屯區,國中
193521,市立至善國中,校本部校區,市立至善國中_校本部校區,台中市西屯區青海路二段308號,120.640358,24.17461967,臺中市,西屯區,國中
193522,市立萬和國中,校本部校區,市立萬和國中_校本部校區,臺中市南屯區永春東路885號,120.6403122,24.13411713,臺中市,南屯區,國中
193523,市立大業國中,校本部校區,市立大業國中_校本部校區,臺中市南屯區大業路100號,120.6524963,24.15447235,臺中市,南屯區,國中
193524,市立三光國中,校本部校區,市立三光國中_校本部校區,中市北屯區三光一街77號,120.6978378,24.16759682,臺中市,北屯區,國中
193525,市立四張犁國中,校本部校區,市立四張犁國中_校本部校區,臺中市北屯區同榮里后庄路699號,120.6770782,24.1940937,臺中市,北屯區,國中
193526,市立福科國中,校本部校區,市立福科國中_校本部校區,臺中市西屯區福林路333號,120.6147537,24.18873215,臺中市,西屯區,國中
193527,市立大墩國中,大墩國中,市立大墩國中_大墩國中,臺中市惠中路三段98號,120.6400375,24.1450367,臺中市,南屯區,國中
193D01,市立居仁國中補校,,市立居仁國中補校_,臺中市西區自由路一段97號,120.6789093,24.1371994,臺中市,西區,國中
193D02,市立忠明國中補校,,市立忠明國中補校_,臺中市西區博館路166號,120.6627045,24.15840149,臺中市,西區,國中
193D03,市立東峰國中補校,,市立東峰國中補校_,臺中市東區仁和路330號,120.6851044,24.12540245,臺中市,東區,國中
193D04,市立育英國中補校,,市立育英國中補校_,臺中市東區育英路30號,120.6982117,24.13600159,臺中市,東區,國中
193D05,市立四育國中補校,,市立四育國中補校_,臺中市南區復興路二段152號,120.6649094,24.12550354,臺中市,南區,國中
193D06,市立西苑國中補校,,市立西苑國中補校_,臺中市西屯區光明路194號,120.6418152,24.18659782,臺中市,西屯區,國中
193D07,市立五權國中補校,,市立五權國中補校_,臺中市北區英才路1號,120.6792068,24.15540314,臺中市,北區,國中
193D08,市立黎明國中補校,,市立黎明國中補校_,臺中市南屯區三義里一鄰黎明路二段525號,120.6341095,24.15670013,臺中市,南屯區,國中
193D09,市立安和國中補校,,市立安和國中補校_,臺中市西屯區天助街1號,120.616806,24.17400932,臺中市,西屯區,國中
193D10,市立北新國中補校,,市立北新國中補校_,臺中市北屯區僑孝街80號,120.698288,24.17930603,臺中市,北屯區,國中
200601,國立嘉義大學附小,校本部校區,國立嘉義大學附小_校本部校區,嘉義市東區林森東路46號,120.4558792,23.48624992,嘉義市,東區,國中
201304j,私立興華高中附設國中,校本部校區,私立興華高中附設國中_校本部校區,嘉義市東區林森東路239號,120.4648666,23.48951912,嘉義市,東區,國中
201310j,私立嘉華高中附設國中,校本部校區,私立嘉華高中附設國中_校本部校區,嘉義市東區民權東路45號,120.9205475,24.54012108,苗栗縣,獅潭鄉,國中
201312j,私立輔仁高中附設國中,校本部校區,私立輔仁高中附設國中_校本部校區,嘉義市東區吳鳳南路270號,120.7790909,24.65073967,苗栗縣,後龍鎮,國中
201313j,私立宏仁女中附設國中,校本部校區,私立宏仁女中附設國中_校本部校區,嘉義市東區忠孝路667號,120.7348557,24.58774185,苗栗縣,後龍鎮,國中
203501,嘉義市立大業國民中學,校本部校區,嘉義市立大業國民中學_校本部校區,嘉義市東區大業街57號,120.4533615,23.46164513,嘉義市,東區,國中
203502,市立北興國中,校本部校區,市立北興國中_校本部校區,嘉義市東區仁義里博東路262號,120.4552155,23.49107742,嘉義市,東區,國中
203503,嘉義市立嘉義國民中學,校本部校區,嘉義市立嘉義國民中學_校本部校區,嘉義市東區王田里圓福街86號,120.4646988,23.48694992,嘉義市,東區,國中
203504,市立南興國中,校本部校區,市立南興國中_校本部校區,嘉義市東區芳安路111號,120.4618683,23.46715927,嘉義市,東區,國中
203505,市立民生國中,校本部校區,市立民生國中_校本部校區,嘉義市西區新民路601號,120.4402618,23.4639473,嘉義市,西區,國中
203506,市立玉山國中,校本部校區,市立玉山國中_校本部校區,嘉義市西區友忠路1號,120.4255905,23.46813965,嘉義市,西區,國中
203506,市立玉山國中,第二校區,市立玉山國中_第二校區,嘉義市西區友忠路1號,120.4248047,23.47726822,嘉義市,西區,國中
203507,市立蘭潭國中,校本部校區,市立蘭潭國中_校本部校區,嘉義市東區民權東路32號,120.4813995,23.48224068,嘉義市,東區,國中
203508,市立北園國中,校本部校區,市立北園國中_校本部校區,嘉義市西區北湖里雙園街280號,120.4266281,23.49517059,嘉義市,西區,國中
203D01,市立玉山國中補校,,市立玉山國中補校_,嘉義市西區友忠路1號,120.4255981,23.46819687,嘉義市,西區,國中
203D02,市立民生國中補校,,市立民生國中補校_,嘉義市西區新民路601號,120.4401093,23.46489716,嘉義市,西區,國中
203D03,市立嘉義國中補校,,市立嘉義國中補校_,嘉義市東區王田里圓福街86號,120.4650192,23.4877491,嘉義市,東區,國中
210601,國立臺南大學附小,校本部校區,國立臺南大學附小_校本部校區,臺南市中西區樹林街二段31號,120.2096329,22.98524666,臺南市,中西區,國中
211301j,私立長榮高中附設國中,校本部校區,私立長榮高中附設國中_校本部校區,台南市東區林森路二段79號,120.7087936,24.55875015,苗栗縣,通霄鎮,國中
211304j,私立聖功女中附設國中,校本部校區,私立聖功女中附設國中_校本部校區,台南市北區北園街87巷64號,120.2212448,23.01485634,臺南市,北區,國中
211310j,私立光華女中附設國中,校本部校區,私立光華女中附設國中_校本部校區,台南市東區勝利路41號,120.6660614,24.4730835,苗栗縣,通霄鎮,國中
211315j,私立瀛海高中附設國中,校本部校區,私立瀛海高中附設國中_校本部校區,台南市安南區長溪街一段76號,120.6818085,24.14903069,臺中市,北區,國中
211317j,私立崑山高中附設國中,校本部校區,私立崑山高中附設國中_校本部校區,台南市北區開元路444號,120.2263336,23.01100349,臺南市,北區,國中
211318j,私立德光中學附設國中,校本部校區,私立德光中學附設國中_校本部校區,台南市東區德光街106號,120.2213974,22.9798584,臺南市,東區,國中
211320j,私立慈濟高中附設國中,校本部校區,私立慈濟高中附設國中_校本部校區,台南市安平區建平街111號,120.685173,24.41760826,苗栗縣,苑裡鎮,國中
213303j,市立南寧中學附設國中,校本部校區,市立南寧中學附設國中_校本部校區,台南市南區明興路925巷167號,120.8274384,24.57303047,苗栗縣,苗栗市,國中
213316,臺南市立土城高級中學,校本部校區,臺南市立土城高級中學_校本部校區,台南市安南區安中路五段265號,120.1503143,23.05697823,臺南市,安南區,國中
213316j,市立土城高中附設國中,校本部校區,市立土城高中附設國中_校本部校區,台南市安南區安中路五段265號,120.6906357,24.15678024,臺中市,北區,國中
213501,市立後甲國中,校本部校區,市立後甲國中_校本部校區,臺南市東區東平路260號,120.2251663,22.99494171,臺南市,東區,國中
213502,市立忠孝國中,校本部校區,市立忠孝國中_校本部校區,臺南市東區崇善路151號,120.2231216,22.98244476,臺南市,東區,國中
213504,市立大成國中,校本部校區,市立大成國中_校本部校區,臺南市南區西門路一段306號,120.1991119,22.97866631,臺南市,南區,國中
213505,市立金城國中,校本部校區,市立金城國中_校本部校區,臺南市安平區怡平路8號,120.1887131,22.99513054,臺南市,中西區,國中
213506,市立民德國中,校本部校區,市立民德國中_校本部校區,臺南市北區西門路三段223號,120.2052765,23.00527763,臺南市,北區,國中
213507,市立成功國中,校本部校區,市立成功國中_校本部校區,臺南市北區和緯路1段2號,120.2170181,23.01014328,臺南市,北區,國中
213508,市立延平國中,校本部校區,市立延平國中_校本部校區,臺南市北區公園路750號,120.2114563,23.00968742,臺南市,北區,國中
213509,市立建興國中,建興國中校本部校區,市立建興國中_建興國中校本部校區,臺南市中西區府前路一段239號,120.203186,22.98800659,臺南市,中西區,國中
213510,市立中山國中,校本部校區,市立中山國中_校本部校區,臺南市中西區南寧街45號,120.2027969,22.98383331,臺南市,中西區,國中
213511,市立安平國中,校本部校區,市立安平國中_校本部校區,臺南市安平區慶平路687號,120.1686096,22.9967289,臺南市,安平區,國中
213512,市立安南國中,校本部校區,市立安南國中_校本部校區,臺南市安南區安中路三段252號,120.1786575,23.0493145,臺南市,安南區,國中
213513,市立安順國中,校本部校區,市立安順國中_校本部校區,臺南市安南區安和路三段227號,120.2172852,23.04972267,臺南市,安南區,國中
213514,市立復興國中,校本部校區,市立復興國中_校本部校區,臺南市東區裕文路62號,120.2402191,22.98120499,臺南市,東區,國中
213515,市立新興國中,校本部校區,市立新興國中_校本部校區,臺南市南區新孝路87號,120.1862869,22.9776535,臺南市,南區,國中
213517,市立文賢國中,校本部校區,市立文賢國中_校本部校區,臺南市北區文賢一路2號,120.1970444,23.00553894,臺南市,北區,國中
213518,市立崇明國中,校本部校區,市立崇明國中_校本部校區,臺南市東區崇明路700號,120.2246933,22.96994209,臺南市,東區,國中
213519,市立和順國中,教學區,市立和順國中_教學區,臺南市安南區安和路五段84巷66號,120.2206192,23.06667137,臺南市,安南區,國中
213520,市立海佃國中,校本部校區,市立海佃國中_校本部校區,臺南市安南區安富街166號,120.19841,23.02809715,臺南市,安南區,國中
213D01,市立安南國中補校,,市立安南國中補校_,臺南市安南區安中路三段252號,120.1787949,23.04997063,臺南市,安南區,國中
213D02,市立安平國中補校,,市立安平國中補校_,臺南市安平區慶平路687號,120.1687088,22.99681091,臺南市,安平區,國中
213D03,市立南寧高中附國中補校,,市立南寧高中附國中補校_,臺南市南區明興路925巷167號,120.177887,22.93027878,臺南市,南區,國中
213D04,市立安順國中補校,,市立安順國中補校_,臺南市安南區安和路三段227號,120.2183685,23.04917526,臺南市,安南區,國中
213D05,市立復興國中補校,,市立復興國中補校_,臺南市東區裕文路62號,120.2410355,22.98197746,臺南市,東區,國中
213D06,市立延平國中補校,,市立延平國中補校_,臺南市北區公園路750號,120.2117081,23.01002693,臺南市,北區,國中
313301j,市立西松高中附設國中,校本部校區,市立西松高中附設國中_校本部校區,台北市松山區鵬程里健康路325巷7號,120.8500824,24.65199089,苗栗縣,造橋鄉,國中
313302j,市立中崙高中附設國中,校本部校區,市立中崙高中附設國中_校本部校區,台北市松山區八德路四段101號,120.8646622,24.63798332,苗栗縣,造橋鄉,國中
313501,市立介壽國中,校本部校區,市立介壽國中_校本部校區,臺北市松山區介壽里延壽街401號,121.5565109,25.05638695,臺北市,松山區,國中
313502,市立民生國中,校本部校區,市立民生國中_校本部校區,臺北市松山區新東里新東街30巷1號,121.5673065,25.05980873,臺北市,松山區,國中
313504,市立中山國中,校本部校區,市立中山國中_校本部校區,臺北市松山區復興北路361巷7號,121.545723,25.06092262,臺北市,松山區,國中
313505,市立敦化國中,校本部校區,市立敦化國中_校本部校區,臺北市松山區南京東路三段300號,121.5467758,25.05150414,臺北市,松山區,國中
313505,市立敦化國中,臺北市立敦化國民中學,市立敦化國中_臺北市立敦化國民中學,臺北市松山區南京東路三段300號,121.5467911,25.05152321,臺北市,松山區,國中
313D04,市立中山國中補校,,市立中山國中補校_,臺北市松山區復興北路361巷7號,120.6592331,24.16852379,臺中市,西屯區,國中
321301,私立祐德中學,校本部校區,私立祐德中學_校本部校區,臺北市信義區忠孝東路5段790巷27號,121.5833435,25.04151535,臺北市,信義區,國中
321399,臺北市私立協和祐德高級中學,校本部校區,臺北市私立協和祐德高級中學_校本部校區,臺北市信義區忠孝東路5段790巷27號,121.5834812,25.04262317,臺北市,信義區,國中
323502,市立興雅國中,校本部校區,市立興雅國中_校本部校區,臺北市信義區松德路168巷15號,121.5723343,25.03642082,臺北市,信義區,國中
323503,市立永吉國中,市立永吉國中,市立永吉國中_市立永吉國中,臺北市信義區四育里8鄰松隆路161號,121.5741425,25.04823685,臺北市,信義區,國中
323504,市立?公國中,校本部校區,市立?公國中_校本部校區,臺北市信義區福德街221巷15號,121.5857849,25.0370121,臺北市,信義區,國中
323505,市立信義國中,校本部校區,市立信義國中_校本部校區,臺北市信義區松仁路158巷1號,121.5679169,25.02859116,臺北市,信義區,國中
323D02,市立興雅國中補校,,市立興雅國中補校_,臺北市信義區松德路168巷15號,121.5722351,25.03642082,臺北市,信義區,國中
330301,國立師大附中,校本部校區,國立師大附中_校本部校區,10658 台北市大安區信義路三段 143 號,121.5403748,25.03365707,臺北市,大安區,國中
330301j,國立師大附中附設國中,校本部校區,國立師大附中附設國中_校本部校區,台北市大安區和安里信義路3段143號,120.8505249,24.57572937,苗栗縣,頭屋鄉,國中
331301,私立延平中學,校本部校區,私立延平中學_校本部校區,臺北市大安區和安里建國南路1段275號,121.5391388,25.03647041,臺北市,大安區,國中
331301j,私立延平中學附設國中,校本部校區,私立延平中學附設國中_校本部校區,台北市大安區和安里建國南路1段275號,120.8323135,24.53421593,苗栗縣,公館鄉,國中
331304j,私立復興實驗高中附設國中,校本部校區,私立復興實驗高中附設國中_校本部校區,台北市大安區敦化南路1段262 號,120.8277817,24.49940491,苗栗縣,公館鄉,國中
331502,私立立人國中(小),校本部校區,私立立人國中(小)_校本部校區,臺北市大安區義榮里安和路二段99號,121.5518951,25.02980232,臺北市,大安區,國中
331B01,私立延平中學進修學校,,私立延平中學進修學校_,臺北市大安區和安里建國南路1段275號,121.5405045,25.03663063,臺北市,大安區,國中
333301j,市立和平高中附設國中,校本部校區,市立和平高中附設國中_校本部校區,台北市大安區芳和里臥龍街100號,121.5491562,25.0196228,臺北市,大安區,國中
333501,市立仁愛國中,校本部校區,市立仁愛國中_校本部校區,臺北市大安區敦安里仁愛路4段130號,121.5506668,25.03748322,臺北市,大安區,國中
333502,市立大安國中,校本部校區,市立大安國中_校本部校區,臺北市大安區大安路2段63號,121.5461731,25.03074646,臺北市,大安區,國中
333504,市立芳和國中,校本部校區,市立芳和國中_校本部校區,臺北市大安區芳和里臥龍街170號,121.5502853,25.01868439,臺北市,大安區,國中
333505,市立金華國中,校本部校區,市立金華國中_校本部校區,臺北市大安區福住里新生南路2段32號,121.5331039,25.03118324,臺北市,大安區,國中
333506,臺北市立懷生國民中學,校本部,臺北市立懷生國民中學_校本部,臺北市大安區忠孝東路三段248巷30號,121.5411911,25.04034615,臺北市,大安區,國中
333507,市立民族國中,校本部校區,市立民族國中_校本部校區,臺北市大安區羅斯福路4段113巷13號,121.5388107,25.01116562,臺北市,大安區,國中
333508,市立龍門國中,校本部校區,市立龍門國中_校本部校區,臺北市大安區建國南路二段269號,121.5380096,25.02488136,臺北市,大安區,國中
333D02,市立大安國中補校,,市立大安國中補校_,臺北市大安區大安路2段63號,121.5470657,25.03091049,臺北市,大安區,國中
341301,私立中興中學,校本部校區,私立中興中學_校本部校區,臺北市朱崙街42號,121.5419159,25.04987335,臺北市,中山區,國中
341B01,私立中興中學進修學校,,私立中興中學進修學校_,臺北市中山區力行里朱崙街42號,121.5415573,25.04966354,臺北市,中山區,國中
343302j,市立大同高中附設國中,臺北市立大同高級中學,市立大同高中附設國中_臺北市立大同高級中學,台北市中山區中央里長春路167號,121.5350876,25.05490494,臺北市,中山區,國中
343303j,市立大直高中附設國中,校本部校區,市立大直高中附設國中_校本部校區,台北市中山區劍潭里北安路420號,120.9717331,24.38834381,苗栗縣,泰安鄉,國中
343502,市立長安國中,校本部校區,市立長安國中_校本部校區,臺北市中山區興亞里松江路70巷11號,121.5319061,25.04939461,臺北市,中山區,國中
343504,臺北市立北安國民中學,校本部校區,臺北市立北安國民中學_校本部校區,臺北市中山區劍潭里明水路325號,121.5416031,25.07776833,臺北市,中山區,國中
343505,市立新興國中,校本部校區,市立新興國中_校本部校區,臺北市中山區聚葉里林森北路511號,121.5257721,25.06204414,臺北市,中山區,國中
343506,市立五常國中,校本部校區,市立五常國中_校本部校區,臺北市中山區下埤里復興北路430巷1號,121.5430756,25.06347084,臺北市,中山區,國中
343507,市立濱江國中,校本部校區,市立濱江國中_校本部校區,臺北市中山區樂群二路262號,121.5606995,25.0795784,臺北市,中山區,國中
343D04,市立北安國中補校,,市立北安國中補校_,臺北市中山區劍潭里明水路325號,121.541626,25.0777874,臺北市,中山區,國中
351301,私立強恕中學,校本部校區,私立強恕中學_校本部校區,臺北市中正區板溪里汀州路二段143號,121.5203857,25.02518845,臺北市,中正區,國中
351301j,私立強恕中學附設國中,校本部校區,私立強恕中學附設國中_校本部校區,台北市中正區板溪里汀州路二段143號,120.9205627,24.39434242,苗栗縣,泰安鄉,國中
351B01,私立強恕中學進修學校,,私立強恕中學進修學校_,臺北市中正區板溪里汀州路二段143號,121.5199432,25.02501678,臺北市,中正區,國中
353301,市立建國中學,校本部校區,市立建國中學_校本部校區,臺北市中正區南海路56號,121.5121613,25.03119087,臺北市,中正區,國中
353302,市立成功中學,校本部校區,市立成功中學_校本部校區,臺北市中正區濟南路1段71號,121.5237961,25.04237556,臺北市,中正區,國中
353501,市立螢橋國中,校本部校區,市立螢橋國中_校本部校區,臺北市中正區林興里汀州街3段4號,121.5255814,25.01859474,臺北市,中正區,國中
353502,市立古亭國中,第一校區,市立古亭國中_第一校區,臺北市中正區中華路2段465號,121.5110474,25.02461052,臺北市,中正區,國中
353502,市立古亭國中,第二校區,市立古亭國中_第二校區,臺北市中正區中華路2段465號,121.5101166,25.02387619,臺北市,萬華區,國中
353503,市立南門國中,校本部校區,市立南門國中_校本部校區,臺北市中正區南門里廣州街6號,121.509079,25.03521156,臺北市,中正區,國中
353504,市立弘道國中,校本部校區,市立弘道國中_校本部校區,臺北市中正區公園路21號,121.515274,25.03752518,臺北市,中正區,國中
353505,臺北市立中正國民中學,校本部校區,臺北市立中正國民中學_校本部校區,臺北市中正區新營里愛國東路158號,120.9404907,24.4658432,苗栗縣,泰安鄉,國中
353D04,市立弘道國中補校,,市立弘道國中補校_,臺北市中正區公園路21號,121.5152893,25.03748894,臺北市,中正區,國中
361301j,私立靜修女中附設國中,校本部校區,私立靜修女中附設國中_校本部校區,台北市大同區雙連里寧夏路59號,120.9303207,24.3476963,苗栗縣,泰安鄉,國中
361B09,私立志仁中學進修學校,,私立志仁中學進修學校_,臺北市大同區建泰里南京西路64巷17號,121.5185013,25.05179977,臺北市,大同區,國中
363302j,市立成淵高中附設國中,校本部校區,市立成淵高中附設國中_校本部校區,台北市大同區承德路二段235號,120.9472885,24.35919952,苗栗縣,泰安鄉,國中
363501,市立建成國中,校本部校區,市立建成國中_校本部校區,臺北市大同區長安西路37之1號,121.5191422,25.05120277,臺北市,大同區,國中
363502,市立忠孝國中,校本部校區,市立忠孝國中_校本部校區,臺北市大同區玉泉里西寧北路32號,121.5076752,25.05151939,臺北市,大同區,國中
363504,市立民權國中,校本部校區,市立民權國中_校本部校區,臺北市大同區重慶北路三段1號,121.5138931,25.06354332,臺北市,大同區,國中
363506,市立蘭州國中,校本部校區,市立蘭州國中_校本部校區,臺北市大同區至聖里大龍街187巷1號,121.5167465,25.06930161,臺北市,大同區,國中
363507,市立重慶國中,校本部校區,市立重慶國中_校本部校區,臺北市大同區重慶里敦煌路19號,121.5178909,25.07591057,臺北市,大同區,國中
363D04,市立民權國中補校,,市立民權國中補校_,臺北市大同區重慶北路三段1號,121.5138779,25.06372452,臺北市,大同區,國中
371301j,私立立人高中附設國中,校本部校區,私立立人高中附設國中_校本部校區,台北市萬華區桂林路171號,121.4963989,25.03881073,臺北市,萬華區,國中
373302j,市立大理高中附設國中,校本部校區,市立大理高中附設國中_校本部校區,台北市萬華區綠堤里長順街2號,121.4912262,25.03085709,臺北市,萬華區,國中
373501,市立萬華國中,校本部校區,市立萬華國中_校本部校區,臺北市萬華區日善里西藏路201號,121.4986877,25.02914047,臺北市,萬華區,國中
373503,市立雙園國中,校本部校區,市立雙園國中_校本部校區,臺北市萬華區和德里興義街2號,121.4927063,25.02760887,臺北市,萬華區,國中
373505,市立龍山國中,龍山國中,市立龍山國中_龍山國中,臺北市萬華區富福里南寧路46號,121.5046005,25.03606415,臺北市,萬華區,國中
373D01,市立萬華國中補校,,市立萬華國中補校_,臺北市萬華區日善里西藏路201號,121.499733,25.02785492,臺北市,萬華區,國中
380301,國立政大附中,校本部校區,國立政大附中_校本部校區,臺北市文山區政大一街353號,121.5863953,24.98737144,臺北市,文山區,國中
380301j,國立政大附中附設國中,校本部校區,國立政大附中附設國中_校本部校區,台北市文山區政大一街353號,120.5256271,22.62091064,屏東縣,竹田鄉,國中
381301j,私立東山中學附設國中,校本部校區,私立東山中學附設國中_校本部校區,台北市文山區老泉里老泉街26巷3號,121.5616989,24.97268867,臺北市,文山區,國中
381304,私立再興中學,校本部校區,私立再興中學_校本部校區,臺北市文山區明義里興隆路4段2號,121.5584869,24.99033165,臺北市,文山區,國中
381304j,私立再興中學附設國中,校本部校區,私立再興中學附設國中_校本部校區,台北市文山區明義里興隆路4段2號,120.8122559,24.46290588,苗栗縣,銅鑼鄉,國中
381305j,私立景文高中附設國中,校本部校區,私立景文高中附設國中_校本部校區,台北市文山區木新里保儀路127號,120.7909164,24.49028015,苗栗縣,銅鑼鄉,國中
381501,私立靜心國中,校本部校區,私立靜心國中_校本部校區,臺北市文山區興福里興隆路2段46號,121.5466537,24.99894142,臺北市,文山區,國中
381B02,私立滬江中學進修學校,,私立滬江中學進修學校_,臺北市文山區景美里羅斯福路6段336號,121.5382004,24.98882675,臺北市,文山區,國中
383302j,市立萬芳高中附設國中,校本部校區,市立萬芳高中附設國中_校本部校區,台北市文山區興隆路3段115巷1號,120.7699356,24.41405296,苗栗縣,三義鄉,國中
383501,市立木柵國中,校本部校區,市立木柵國中_校本部校區,臺北市文山區木柵路3段102巷12號,121.5676651,24.98745537,臺北市,文山區,國中
383502,市立實踐國中,校本部校區,市立實踐國中_校本部校區,臺北市文山區樟林里辛亥路七段67號,121.555542,24.98361969,臺北市,文山區,國中
383503,市立北政國中,校本部校區,市立北政國中_校本部校區,臺北市文山區指南里指南路3段2巷14號,121.5782547,24.984869,臺北市,文山區,國中
383504,市立景美國中,校本部校區,市立景美國中_校本部校區,臺北市文山區景華里景中街27號,121.542923,24.99299431,臺北市,文山區,國中
383505,市立興福國中,校本部校區,市立興福國中_校本部校區,臺北市文山區興旺里福興路80號,121.5497284,25.00488091,臺北市,文山區,國中
383507,市立景興國中,校本部校區,市立景興國中_校本部校區,臺北市文山區景華里景興路46巷2號,121.5437164,24.99651909,臺北市,文山區,國中
383D01,市立木柵國中補校,,市立木柵國中補校_,臺北市文山區木柵路3段102巷12號,121.5676193,24.98760605,臺北市,文山區,國中
393301j,市立南港高中附設國中,校本部校區,市立南港高中附設國中_校本部校區,台北市南港區西新里向陽路21號,121.5950317,25.05255318,臺北市,南港區,國中
393501,市立誠正國中,校本部校區,市立誠正國中_校本部校區,臺北市南港區新富里富康街1巷24號,121.6187286,25.05409431,臺北市,南港區,國中
393503,市立成德國中,校本部校區,市立成德國中_校本部校區,臺北市南港區東新街108巷23號,121.5877838,25.04504395,臺北市,南港區,國中
393D02,市立南港高中附國中補校,,市立南港高中附國中補校_,臺北市南港區西新里向陽路21號,121.5947342,25.05210495,臺北市,南港區,國中
400144j,國立臺灣戲曲學院附設國中,校本部校區,國立臺灣戲曲學院附設國中_校本部校區,台北市內湖路二段177號,121.5866776,25.08127975,臺北市,內湖區,國中
401302,私立方濟中學,校本部校區,私立方濟中學_校本部校區,臺北市內湖區紫星里成功路三段61號,121.5901642,25.07730293,臺北市,內湖區,國中
401302j,私立方濟中學附設國中,校本部校區,私立方濟中學附設國中_校本部校區,台北市內湖區紫星里成功路三段61號,120.7575378,24.55750656,苗栗縣,西湖鄉,國中
401303j,私立達人女中附設國中,校本部校區,私立達人女中附設國中_校本部校區,台北市內湖區湖濱里內湖路2段314號,120.8229446,24.32478523,苗栗縣,卓蘭鎮,國中
403501,市立內湖國中,校本部校區,市立內湖國中_校本部校區,臺北市內湖區紫陽里陽光街1號,121.5886993,25.07697678,臺北市,內湖區,國中
403502,市立麗山國中,校本部校區,市立麗山國中_校本部校區,臺北市內湖區內湖路1段629巷42號,121.5751648,25.08172417,臺北市,內湖區,國中
403503,市立三民國中,校本部校區,市立三民國中_校本部校區,臺北市內湖區湖興里民權東路6段45號,121.5862503,25.06914902,臺北市,內湖區,國中
403504,市立西湖國中,校本部校區,市立西湖國中_校本部校區,臺北市內湖區西湖里環山路一段27號,121.5656509,25.08581734,臺北市,內湖區,國中
403505,市立東湖國中,校本部校區,市立東湖國中_校本部校區,臺北市內湖區樂康里康樂街131號,121.6194839,25.07225037,臺北市,內湖區,國中
403506,市立明湖國中,校本部校區,市立明湖國中_校本部校區,臺北市內湖區葫洲里康寧路3段60號,121.6106796,25.07062721,臺北市,內湖區,國中
403D01,市立內湖國中補校,,市立內湖國中補校_,臺北市內湖區陽光街一號,121.5886917,25.0770359,臺北市,內湖區,國中
411302j,私立衛理女中附設國中,校本部校區,私立衛理女中附設國中_校本部校區,台北市士林區翠山里至善路2段321號,120.8250351,24.31254768,苗栗縣,卓蘭鎮,國中
411303,私立華興中學,校本部校區,私立華興中學_校本部校區,臺北市士林區仰德大道一段101號,121.5387573,25.10506248,臺北市,士林區,國中
411303j,私立華興中學附設國中,校本部校區,私立華興中學附設國中_校本部校區,台北市士林區芝山里仰德大道1段101號,120.8764343,24.3350563,苗栗縣,卓蘭鎮,國中
411B01,私立泰北中學進修學校,,私立泰北中學進修學校_,臺北市士林區福林里福林路240號,121.5345306,25.09704971,臺北市,士林區,國中
413301j,市立陽明高中附設國中,校本部校區,市立陽明高中附設國中_校本部校區,台北市士林區後港里中正路510號,120.8496094,24.29897881,苗栗縣,卓蘭鎮,國中
413302j,市立百齡高中附設國中,校本部校區,市立百齡高中附設國中_校本部校區,台北市士林區義信里承德路4段177號,120.6814651,24.14402771,臺中市,中區,國中
413501,市立士林國中,校本部校區,市立士林國中_校本部校區,臺北市士林區福德里中正路345號,121.5225525,25.09432983,臺北市,士林區,國中
413502,市立蘭雅國中,校本部校區,市立蘭雅國中_校本部校區,臺北市士林區三玉里忠誠路2段51號,121.5310364,25.11056328,臺北市,士林區,國中
413504,市立至善國中,校本部校區,市立至善國中_校本部校區,臺北市士林區臨溪里至善路2段360號,121.5554581,25.10354614,臺北市,士林區,國中
413505,市立格致國中,校本部校區,市立格致國中_校本部校區,臺北市士林區陽明里仰德大道四段75號,121.5467911,25.13109016,臺北市,士林區,國中
413506,市立福安國中,校本部校區,市立福安國中_校本部校區,臺北市士林區福安里延平北路7段250號,121.487381,25.10333252,臺北市,士林區,國中
413508,市立天母國中,校本部校區,市立天母國中_校本部校區,臺北市士林區天和里天母東路120號,121.538147,25.11795425,臺北市,士林區,國中
413508,市立天母國中,天母國中,市立天母國中_天母國中,臺北市士林區天和里天母東路120號,121.5381622,25.11801147,臺北市,士林區,國中
413D01,市立士林國中補校,,市立士林國中補校_,臺北市士林區福德里中正路345號,121.5225754,25.09435081,臺北市,士林區,國中
421301j,私立薇閣高中附設國中,校本部校區,私立薇閣高中附設國中_校本部校區,台北市北投區中心里珠海路50號,120.685173,24.12873077,臺中市,東區,國中
421303,臺北市私立奎山實驗高級中學,校本部校區,臺北市私立奎山實驗高級中學_校本部校區,臺北市北投區榮華里明德路200號,121.5220458,25.11295127,臺北市,北投區,國中
421501,私立奎山國中,校本部校區,私立奎山國中_校本部校區,臺北市北投區榮華里明德路200號,121.522049,25.11295128,臺北市,北投區,國中
421602,私立奎山中學附小,校本部校區,私立奎山中學附小_校本部校區,臺北市北投區榮華里明德路200號,120.6863632,24.13170624,臺中市,東區,國中
423501,市立北投國中,校本部校區,市立北投國中_校本部校區,臺北市北投區溫泉里溫泉路62號,121.5042114,25.13445282,臺北市,北投區,國中
423502,市立新民國中,校本部校區,市立新民國中_校本部校區,臺北市北投區新民路10號,121.5065308,25.1388588,臺北市,北投區,國中
423503,市立明德國中,校本部校區,市立明德國中_校本部校區,臺北市北投區建民里明德路50號,121.5182953,25.10754013,臺北市,北投區,國中
423504,市立桃源國中,校本部校區,市立桃源國中_校本部校區,臺北市北投區一德里中央北路4段48號,121.4773254,25.13468361,臺北市,北投區,國中
423505,市立石牌國中,校本部校區,市立石牌國中_校本部校區,臺北市北投區吉利里石牌路1段139號,121.5141907,25.11489677,臺北市,北投區,國中
423506,市立關渡國中,校本部校區,市立關渡國中_校本部校區,臺北市北投區關渡里知行路212號,121.4673386,25.11987305,臺北市,北投區,國中
423D01,市立北投國中補校,,市立北投國中補校_,臺北市北投區溫泉里溫泉路62號,121.5042038,25.13444901,臺北市,北投區,國中
513501,市立鹽埕國中,校本部校區,市立鹽埕國中_校本部校區,高雄市鹽埕區新樂街46號,120.2883987,22.62372589,高雄市,鹽埕區,國中
513D01,市立鹽埕國中補校,,市立鹽埕國中補校_,高雄市鹽埕區新樂街46號,120.288063,22.62272072,高雄市,鹽埕區,國中
521301j,私立明誠高中附設國中,校本部校區,私立明誠高中附設國中_校本部校區,高雄市鼓山區中華一路97號,120.699707,24.13716507,臺中市,東區,國中
521303j,私立大榮高中附設國中,校本部校區,私立大榮高中附設國中_校本部校區,高雄市鼓山區九如四路大榮街1號,120.6933594,24.14552116,臺中市,東區,國中
523301j,市立鼓山高中附設國中,校本部校區,市立鼓山高中附設國中_校本部校區,高雄市鼓山區明德路2號,120.6905289,24.12890816,臺中市,東區,國中
523502,市立壽山國中,校本部校區,市立壽山國中_校本部校區,高雄市鼓山區鼓山二路37巷108號,120.2784653,22.63334465,高雄市,鼓山區,國中
523503,市立明華國中,校本部校區,市立明華國中_校本部校區,高雄市鼓山區明誠三路582號,120.3015289,22.66190338,高雄市,鼓山區,國中
523504,市立七賢國中,校本部校區,市立七賢國中_校本部校區,高雄市鼓山區美術東三路110號,120.2892804,22.65759431,高雄市,鼓山區,國中
533501,市立左營國中,校本部校區,市立左營國中_校本部校區,高雄市左營區曾子路281號,120.3064194,22.67905045,高雄市,左營區,國中
533502,市立大義國中,校本部校區,市立大義國中_校本部校區,高雄市左營區翠華路687號,120.2928162,22.67429161,高雄市,左營區,國中
533503,市立立德國中,校本部校區,市立立德國中_校本部校區,高雄市左營區實踐路101號,120.2910385,22.68895149,高雄市,左營區,國中
533504,市立龍華國中,校本部校區,市立龍華國中_校本部校區,高雄市左營區自由二路2號,120.3090363,22.65857124,高雄市,左營區,國中
533505,市立福山國中,校本部校區,市立福山國中_校本部校區,高雄市左營區重信路215號,120.3147125,22.68102264,高雄市,左營區,國中
533506,市立文府國中,校本部校區,市立文府國中_校本部校區,高雄市左營區福山里文府路401號,120.3155914,22.69136903,高雄市,左營區,國中
533D01,市立左營國中補校,,市立左營國中補校_,高雄市左營區曾子路281號,120.3067169,22.67946053,高雄市,左營區,國中
540301j,國立中山大學附屬國光高中附設國中,校本部校區,國立中山大學附屬國光高中附設國中_校本部校區,高雄市楠梓區後昌路512號,120.6941376,24.15085793,臺中市,東區,國中
543501,市立楠梓國中,校本部校區,市立楠梓國中_校本部校區,高雄市楠梓區楠梓路336號,120.3275375,22.73510933,高雄市,楠梓區,國中
543502,市立右昌國中,校本部校區,市立右昌國中_校本部校區,高雄市楠梓區興昌里盛昌街161號,120.28685,22.71356773,高雄市,楠梓區,國中
543503,市立後勁國中,校本部校區,市立後勁國中_校本部校區,高雄市楠梓區加昌路180號,120.31604,22.72252464,高雄市,楠梓區,國中
543504,市立國昌國中,校本部校區,市立國昌國中_校本部校區,高雄市楠梓區德民路1010號,120.2860031,22.71941566,高雄市,楠梓區,國中
543505,市立翠屏國中(小),校本部校區,市立翠屏國中(小)_校本部校區,高雄市楠梓區翠屏路135號,120.2993851,22.72945786,高雄市,楠梓區,國中
543D01,市立楠梓國中補校,,市立楠梓國中補校_,高雄市楠梓區楠梓路336號,120.3264008,22.73541641,高雄市,楠梓區,國中
543D02,市立右昌國中補校,,市立右昌國中補校_,高雄市楠梓區興昌里盛昌街161號,120.2868423,22.71355438,高雄市,楠梓區,國中
551301j,私立立志高中附設國中,校本部校區,私立立志高中附設國中_校本部校區,高雄市三民區立志街42號,120.6601105,24.12031364,臺中市,南區,國中
553301,市立高雄中學,校本部校區,市立高雄中學_校本部校區,高雄市三民區建國三路50號,120.2980652,22.63801003,高雄市,三民區,國中
553501,市立鼎金國中,校本部校區,市立鼎金國中_校本部校區,高雄市三民區鼎山街445號,120.3210449,22.65491104,高雄市,三民區,國中
553502,市立三民國中,校本部校區,市立三民國中_校本部校區,高雄市三民區十全一路200號,120.3077164,22.64663124,高雄市,三民區,國中
553503,市立民族國中,校本部校區,市立民族國中_校本部校區,高雄市三民區覺民路363號,120.3331833,22.64051056,高雄市,三民區,國中
553504,市立陽明國中,校本部校區,市立陽明國中_校本部校區,高雄市三民區義華路166號,120.3404236,22.64313316,高雄市,三民區,國中
553505,市立正興國中,校本部校區,市立正興國中_校本部校區,高雄市三民區覺民路850號,120.3196869,22.64446449,高雄市,三民區,國中
553D01,市立鼎金國中補校,,市立鼎金國中補校_,高雄市三民區鼎山街445號,120.32061,22.65572739,高雄市,三民區,國中
563301j,市立新興高中附設國中,校本部校區,市立新興高中附設國中_校本部校區,高雄市新興區五福二路218號,120.6839828,24.12040329,臺中市,南區,國中
573501,市立前金國中,校本部校區,市立前金國中_校本部校區,高雄市前金區六合二路278號,120.2903976,22.62934303,高雄市,前金區,國中
573502,市立七賢國中,龍美校區,市立七賢國中_龍美校區,高雄市鼓山區美術東三路110號,120.2892609,22.6582489,高雄市,鼓山區,國中
573D02,市立七賢國中補校,,市立七賢國中補校_,高雄市前金區河南二路196號,120.2871094,22.63203812,高雄市,前金區,國中
580301,國立高師大附中,校本部校區,國立高師大附中_校本部校區,高雄市苓雅區凱旋二路89號,120.3220444,22.62649727,高雄市,苓雅區,國中
580301j,國立高師大附中附設國中,校本部校區,國立高師大附中附設國中_校本部校區,高雄市苓雅區凱旋二路89號,120.6575317,24.13447762,臺中市,西區,國中
580D01,國立高師大附國中補校,,國立高師大附國中補校_,高雄市苓雅區凱旋二路89號,120.3220139,22.62583923,高雄市,苓雅區,國中
581301j,私立復華高中附設國中,校本部校區,私立復華高中附設國中_校本部校區,高雄市苓雅區民權一路42號,120.3133163,22.62141609,高雄市,苓雅區,國中
581302,私立道明中學,校本部校區,私立道明中學_校本部校區,高雄市苓雅區建國一路354號,120.3230362,22.633358,高雄市,苓雅區,國中
581302j,私立道明中學附設國中,校本部校區,私立道明中學附設國中_校本部校區,高雄市苓雅區建國一路354號,120.6687622,24.13910484,臺中市,西區,國中
583301j,市立中正高中附設國中,校本部校區,市立中正高中附設國中_校本部校區,高雄市苓雅區中正一路8號,120.660141,24.15946007,臺中市,西區,國中
583501,市立苓雅國中,校本部校區,市立苓雅國中_校本部校區,高雄市苓雅區四維三路176號,120.3060532,22.61893845,高雄市,苓雅區,國中
583502,市立五福國中,校本部校區,市立五福國中_校本部校區,高雄市苓雅區五福一路12號,120.317421,22.62877655,高雄市,苓雅區,國中
583503,市立大仁國中,校本部校區,市立大仁國中_校本部校區,高雄市苓雅區建國一路148號,120.3293686,22.63292313,高雄市,苓雅區,國中
583505,市立英明國中,校本部校區,市立英明國中_校本部校區,高雄市苓雅區英明路147號,120.3243332,22.61523247,高雄市,苓雅區,國中
591501,私立優佳國中,校本部校區,私立優佳國中_校本部校區,高雄市前鎮區瑞興街99號,120.3311996,22.6091423,高雄市,前鎮區,國中
593302j,市立瑞祥高中附設國中,校本部校區,市立瑞祥高中附設國中_校本部校區,高雄市前鎮區班超路63號,120.6779251,24.13577652,臺中市,西區,國中
593501,市立獅甲國中,校本部校區,市立獅甲國中_校本部校區,高雄市前鎮區中山三路43號,120.3082809,22.60507393,高雄市,前鎮區,國中
593502,市立前鎮國中,校本部校區,市立前鎮國中_校本部校區,高雄市前鎮區新衙路17號,120.3213501,22.58338165,高雄市,前鎮區,國中
593503,市立瑞豐國中,校本部校區,市立瑞豐國中_校本部校區,高雄市前鎮區瑞興街99號,120.3310242,22.61106682,高雄市,前鎮區,國中
593504,市立光華國中,校本部校區,市立光華國中_校本部校區,高雄市前鎮區和平二路170號,120.322876,22.61081123,高雄市,前鎮區,國中
593505,市立興仁國中,校本部校區,市立興仁國中_校本部校區,高雄市前鎮區德昌路345號,120.3138123,22.58642387,高雄市,前鎮區,國中
593D01,市立獅甲國中補校,,市立獅甲國中補校_,高雄市前鎮區中山三路43號,120.3083267,22.60518265,高雄市,前鎮區,國中
593D02,市立前鎮國中補校,,市立前鎮國中補校_,高雄市前鎮區新衙路17號,120.3196716,22.58293915,高雄市,前鎮區,國中
603501,市立旗津國中,校本部校區,市立旗津國中_校本部校區,高雄市旗津區中洲二路207號,120.286232,22.58838081,高雄市,旗津區,國中
610405,國立高餐大附屬餐旅中學,校本部校區,國立高餐大附屬餐旅中學_校本部校區,高雄市小港區松和路40號,120.3717634,22.56621613,高雄市,小港區,國中
613501,市立小港國中,校本部校區,市立小港國中_校本部校區,高雄市小港區平和南路185號,120.338356,22.56614494,高雄市,小港區,國中
613502,市立鳳林國中,校本部校區,市立鳳林國中_校本部校區,高雄市小港區龍鳳路559號,120.3482208,22.52127838,高雄市,小港區,國中
613503,市立中山國中,校本部校區,市立中山國中_校本部校區,高雄市小港區漢民路352號,120.3557281,22.56606865,高雄市,小港區,國中
613504,市立明義國中,校本部校區,市立明義國中_校本部校區,高雄市小港區明義街2號,120.3682861,22.58195114,高雄市,小港區,國中
613504,市立明義國中,中安校區,市立明義國中_中安校區,高雄市小港區明義街2號,120.3689804,22.58236694,高雄市,小港區,國中
613505,市立餐旅國中,校本部校區,市立餐旅國中_校本部校區,高雄市小港區松和路40號,120.3717422,22.5663414,高雄市,小港區,國中
613D01,市立小港國中補校,,市立小港國中補校_,高雄市小港區平和南路185號,120.3384094,22.56625557,高雄市,小港區,國中
613D02,市立明義國中補校,,市立明義國中補校_,高雄市小港區明義街2號,120.3682785,22.58202744,高雄市,小港區,國中
714501,縣立金城國中,校本部校區,縣立金城國中_校本部校區,金門縣金城鎮民權路32號,118.3129654,24.43153572,金門縣,金城鎮,國中
714502,縣立金湖國中,校本部校區,縣立金湖國中_校本部校區,金門縣金湖鎮新市里太湖路三段1號,118.421051,24.43696594,金門縣,金湖鎮,國中
714503,縣立金寧國中(小),校本部校區,縣立金寧國中(小)_校本部校區,金門縣金寧鄉安岐1號,118.327507,24.45716286,金門縣,金寧鄉,國中
714504,縣立金沙國中,校本部校區,縣立金沙國中_校本部校區,金門縣金沙鎮國中路61號,118.4152298,24.49105263,金門縣,金沙鎮,國中
714505,縣立烈嶼國中,校本部校區,縣立烈嶼國中_校本部校區,金門縣烈嶼鄉后井38號,118.2417068,24.43059921,金門縣,烈嶼鄉,國中
724501,縣立介壽國中(小),校本部校區,縣立介壽國中(小)_校本部校區,連江縣南竿鄉介壽村13號,119.9498291,26.16033936,連江縣,南竿鄉,國中
724502,縣立中正國中小,校本部校區,縣立中正國中小_校本部校區,連江縣南竿鄉馬祖村4號,119.9201279,26.15928078,連江縣,南竿鄉,國中
724503,縣立中山國中,校本部校區,縣立中山國中_校本部校區,連江縣北竿鄉芹壁村84號,119.9805298,26.22397995,連江縣,北竿鄉,國中
724504,縣立敬恆國中(小),校本部校區,縣立敬恆國中(小)_校本部校區,連江縣莒光鄉青帆村18號,119.9347076,25.97024918,連江縣,莒光鄉,國中
724505,縣立東引國中(小),校本部校區,縣立東引國中(小)_校本部校區,連江縣東引鄉中柳村94號,120.4885101,26.36790085,連江縣,東引鄉,國中
11605,私立康橋國(中)小,青山校區,,(青山校區)新北市新店區頂城五街80號,121.5177765,24.95332909,新北市,新店區,
11607,私立裕德國(中)小,校本部校區,,新北市土城區擺接堡路1號,121.1951065,24.88208771,桃園市,龍潭區,
14684,市立烏來國(中)小,校本部校區,,新北市烏來區啦卡路5號,121.5542221,24.86303711,新北市,烏來區,
14809,市立豐珠國(中)小,校本部校區,,新北市貢寮區美豐里雞母嶺街6-6號,121.9015198,25.06580544,新北市,貢寮區,
14811,市立青山國(中)小,校本部校區,,新北市汐止區莊敬街33號,121.6568451,25.06071281,新北市,汐止區,
14813,市立達觀國(中)小,校本部校區,,新北市新店區僑信路1號,121.2115097,24.88080406,桃園市,龍潭區,
14814,市立桃子腳國(中)小,校本部校區,,新北市樹林區學勤路555號,121.3828964,24.94891739,新北市,樹林區,
24698,縣立人文國(中)小,校本部校區,,宜蘭縣頭城鎮拔雅里文雅路150號,121.8198547,24.86090279,宜蘭縣,頭城鎮,
31604,私立康萊爾國(中)小,校本部校區,,桃園市桃園區力行路288巷8號,121.2975059,25.00041708,桃園市,桃園區,
34751,市立迴龍國(中)小,校本部校區,,桃園縣龜山鄉萬壽路一段168號,121.4051056,25.01942635,桃園市,龜山區,
34779,市立楊光國(中)小,校本部校區,,桃園縣楊梅市瑞溪路1 段88號,121.1687851,24.90647697,桃園市,楊梅區,
41602,私立康乃薾國(中)小,校本部校區,,新竹縣竹北市六家一路二段115號,121.0361328,24.80524063,新竹縣,竹北市,
54645,縣立福興武術國(中)小,校本部校區,,苗栗縣通霄鎮福興里58之2號,121.0830841,25.03546143,桃園市,觀音區,
54707,縣立泰安國(中)小,校本部校區,,苗栗縣泰安鄉大興村1鄰32號,120.9088211,24.42206573,苗栗縣,泰安鄉,
061F01,私立惠明學校,大雅校區,,臺中市大雅區雅潭路四段336號,120.660759,24.22027397,臺中市,大雅區,國(中)小
63601,臺中市立善水國(中)小,校本部校區,,臺中市梧棲區梧南路50號,120.5235596,24.24274635,臺中市,梧棲區,
64737,市立梨山國(中)小,校本部校區,,臺中市和平區梨山里福壽路10號,121.2596821,24.25592654,臺中市,和平區,
64763,市立光復國(中)小,校本部校區,,臺中市霧峰區柳豐路535號,120.6899414,24.04346085,臺中市,霧峰區,
74774,縣立信義國(中)小,校本部校區,,彰化縣彰化市向陽里向陽街168號,121.3055038,24.98913002,桃園市,桃園區,
81602,私立均頭國(中)小,校本部校區,,南投縣埔里鎮水頭里4鄰水頭路48號,120.9728699,23.95028687,南投縣,埔里鎮,
104731,嘉義縣豐山實驗教育學校,校本部校區,,嘉義縣阿里山鄉豐山村47號,120.7500839,23.57605934,嘉義縣,阿里山鄉,國(中)小
104734,縣立阿里山國(中)小,校本部校區,,嘉義縣阿里山鄉樂野村一鄰31號,120.7996902,23.44973755,嘉義縣,阿里山鄉,
141601,私立均一國(中)小,校本部校區,,臺東縣臺東市中興路2段366巷36號,121.1263657,22.76977539,臺東縣,臺東市,
181602,私立矽谷國(中)小,校本部校區,,新竹市東區藝術路2號,120.965889,24.7683506,新竹市,東區,
181603,私立新竹市康橋國(中)小,校本部校區,,新竹市東區藝術路2號,120.9658857,24.76835019,新竹市,東區,
191315,私立磊川華德福實驗教育學校,校本部校區,,臺中市北屯區松竹五路233號及366號,120.713014,24.18033148,臺中市,北屯區,國(中)小、高中
191606,私立麗?國(中)小,校本部校區,,臺中市西屯區國安二路242巷199號,120.6144034,24.1946626,臺中市,西屯區,
331602,私立立人國(中)小,校本部校區,,臺北市大安區義榮里安和路二段99號,120.8666077,24.39793396,苗栗縣,大湖鄉,
543608,市立翠屏國(中)小,高雄市立翠屏國民中小學,,高雄市楠梓區翠屏路135號,120.2995377,22.72824669,高雄市,楠梓區,
714602,縣立金寧國(中)小,校本部校區,,金門縣金寧鄉安岐1號,118.327507,24.45716286,金門縣,金寧鄉,
724601,縣立介壽國(中)小,校本部校區,,連江縣南竿鄉介壽村13號,120.6659775,24.16649628,臺中市,北區,
724602,縣立中正國(中)小,校本部校區,,連江縣南竿鄉馬祖村4號,119.9201279,26.15928078,連江縣,南竿鄉,
724606,縣立敬恆國(中)小,校本部校區,,連江縣莒光鄉青帆村19號,119.9347076,25.97024918,連江縣,莒光鄉,
724608,縣立東引國(中)小,校本部校區,,連江縣東引鄉中柳村94號,120.4885101,26.36790085,連江縣,東引鄉,
